AXCT Skyline fixture generator
HFDTE150726
HFPLTPILOTINCHARGE:Test Pilot
HFGTYGLIDERTYPE:Ozone Zeno 2
HFGIDGLIDERID:FIXTURE
HFDTM100GPSDATUM:WGS-1984
HFFTYFRTYPE:Skyline,Fixture
HFALGALTGPS:ELL
B0900004307680N07657300EA0235002398
B0900014307679N07657315EA0235202400
B0900024307674N07657329EA0235402402
B0900034307667N07657340EA0235502403
B0900044307658N07657348EA0235702405
B0900054307648N07657351EA0235902407
B0900064307638N07657350EA0236102409
B0900074307629N07657344EA0236202410
B0900084307622N07657335EA0236402412
B0900094307617N07657323EA0236602414
B0900104307616N07657310EA0236802416
B0900114307618N07657297EA0236902417
B0900124307623N07657285EA0237102419
B0900134307630N07657276EA0237302421
B0900144307640N07657271EA0237502423
B0900154307651N07657270EA0237602424
B0900164307661N07657273EA0237802426
B0900174307671N07657281EA0238002428
B0900184307678N07657292EA0238202430
B0900194307683N07657305EA0238302431
B0900204307685N07657321EA0238502433
B0900214307684N07657336EA0238702435
B0900224307680N07657350EA0238902437
B0900234307672N07657361EA0239002438
B0900244307663N07657368EA0239202440
B0900254307653N07657372EA0239402442
B0900264307643N07657370EA0239602444
B0900274307634N07657365EA0239702445
B0900284307627N07657356EA0239902447
B0900294307623N07657344EA0240102449
B0900304307621N07657331EA0240302451
B0900314307623N07657318EA0240402452
B0900324307628N07657306EA0240602454
B0900334307636N07657297EA0240802456
B0900344307645N07657292EA0241002458
B0900354307656N07657290EA0241102459
B0900364307667N07657294EA0241302461
B0900374307676N07657301EA0241502463
B0900384307684N07657312EA0241702465
B0900394307689N07657326EA0241802466
B0900404307691N07657341EA0242002468
B0900414307689N07657357EA0242202470
B0900424307685N07657370EA0242402472
B0900434307678N07657382EA0242502473
B0900444307669N07657389EA0242702475
B0900454307659N07657392EA0242902477
B0900464307649N07657391EA0243102479
B0900474307640N07657386EA0243202480
B0900484307632N07657377EA0243402482
B0900494307628N07657365EA0243602484
B0900504307627N07657352EA0243802486
B0900514307629N07657339EA0243902487
B0900524307634N07657327EA0244102489
B0900534307641N07657318EA0244302491
B0900544307651N07657312EA0244502493
B0900554307661N07657311EA0244602494
B0900564307672N07657314EA0244802496
B0900574307682N07657322EA0245002498
B0900584307689N07657333EA0245202500
B0900594307694N07657347EA0245302501
B0901004307696N07657362EA0245502503
B0901014307695N07657377EA0245702505
B0901024307690N07657391EA0245902507
B0901034307683N07657402EA0246002508
B0901044307674N07657410EA0246202510
B0901054307664N07657413EA0246402512
B0901064307654N07657412EA0246602514
B0901074307645N07657406EA0246702515
B0901084307638N07657397EA0246902517
B0901094307633N07657385EA0247102519
B0901104307632N07657372EA0247302521
B0901114307634N07657359EA0247402522
B0901124307639N07657348EA0247602524
B0901134307647N07657338EA0247802526
B0901144307656N07657333EA0248002528
B0901154307667N07657332EA0248102529
B0901164307677N07657335EA0248302531
B0901174307687N07657343EA0248502533
B0901184307695N07657354EA0248702535
B0901194307700N07657368EA0248802536
B0901204307702N07657383EA0249002538
B0901214307700N07657398EA0249202540
B0901224307696N07657412EA0249402542
B0901234307689N07657423EA0249502543
B0901244307680N07657430EA0249702545
B0901254307669N07657434EA0249902547
B0901264307659N07657432EA0250102549
B0901274307650N07657427EA0250202550
B0901284307643N07657418EA0250402552
B0901294307639N07657406EA0250602554
B0901304307637N07657393EA0250802556
B0901314307639N07657380EA0250902557
B0901324307644N07657368EA0251102559
B0901334307652N07657359EA0251302561
B0901344307662N07657354EA0251502563
B0901354307672N07657352EA0251602564
B0901364307683N07657356EA0251802566
B0901374307692N07657363EA0252002568
B0901384307700N07657374EA0252202570
B0901394307705N07657388EA0252302571
B0901404307707N07657403EA0252502573
B0901414307706N07657419EA0252702575
B0901424307701N07657432EA0252902577
B0901434307694N07657444EA0253002578
B0901444307685N07657451EA0253202580
B0901454307675N07657454EA0253402582
B0901464307665N07657453EA0253602584
B0901474307656N07657448EA0253702585
B0901484307649N07657439EA0253902587
B0901494307644N07657427EA0254102589
B0901504307643N07657414EA0254302591
B0901514307645N07657401EA0254402592
B0901524307650N07657389EA0254602594
B0901534307657N07657380EA0254802596
B0901544307667N07657374EA0255002598
B0901554307678N07657373EA0255102599
B0901564307688N07657376EA0255302601
B0901574307698N07657384EA0255502603
B0901584307705N07657395EA0255702605
B0901594307710N07657409EA0255802606
LSKY Generated fixture  do not edit by hand
GDEADBEEF00000000000000000000000000000000
