AXCT Skyline fixture generator
HFDTE150726
HFPLTPILOTINCHARGE:Test Pilot
HFGTYGLIDERTYPE:Ozone Zeno 2
HFGIDGLIDERID:FIXTURE
HFDTM100GPSDATUM:WGS-1984
HFFTYFRTYPE:Skyline,Fixture
HFALG:GEO
B0900004307680N07657300EA0000002398
B0900014307679N07657315EA0000002400
B0900024307674N07657329EA0000002402
B0900034307667N07657340EA0000002403
B0900044307658N07657348EA0000002405
B0900054307648N07657351EA0000002407
B0900064307638N07657350EA0000002409
B0900074307629N07657344EA0000002410
B0900084307622N07657335EA0000002412
B0900094307617N07657323EA0000002414
B0900104307616N07657310EA0000002416
B0900114307618N07657297EA0000002417
B0900124307623N07657285EA0000002419
B0900134307630N07657276EA0000002421
B0900144307640N07657271EA0000002423
B0900154307651N07657270EA0000002424
B0900164307661N07657273EA0000002426
B0900174307671N07657281EA0000002428
B0900184307678N07657292EA0000002430
B0900194307683N07657305EA0000002431
B0900204307685N07657321EA0000002433
B0900214307684N07657336EA0000002435
B0900224307680N07657350EA0000002437
B0900234307672N07657361EA0000002438
B0900244307663N07657368EA0000002440
B0900254307653N07657372EA0000002442
B0900264307643N07657370EA0000002444
B0900274307634N07657365EA0000002445
B0900284307627N07657356EA0000002447
B0900294307623N07657344EA0000002449
B0900304307621N07657331EA0000002451
B0900314307623N07657318EA0000002452
B0900324307628N07657306EA0000002454
B0900334307636N07657297EA0000002456
B0900344307645N07657292EA0000002458
B0900354307656N07657290EA0000002459
B0900364307667N07657294EA0000002461
B0900374307676N07657301EA0000002463
B0900384307684N07657312EA0000002465
B0900394307689N07657326EA0000002466
B0900404307691N07657341EA0000002468
B0900414307689N07657357EA0000002470
B0900424307685N07657370EA0000002472
B0900434307678N07657382EA0000002473
B0900444307669N07657389EA0000002475
B0900454307659N07657392EA0000002477
B0900464307649N07657391EA0000002479
B0900474307640N07657386EA0000002480
B0900484307632N07657377EA0000002482
B0900494307628N07657365EA0000002484
B0900504307627N07657352EA0000002486
B0900514307629N07657339EA0000002487
B0900524307634N07657327EA0000002489
B0900534307641N07657318EA0000002491
B0900544307651N07657312EA0000002493
B0900554307661N07657311EA0000002494
B0900564307672N07657314EA0000002496
B0900574307682N07657322EA0000002498
B0900584307689N07657333EA0000002500
B0900594307694N07657347EA0000002501
B0901004307696N07657362EA0000002503
B0901014307695N07657377EA0000002505
B0901024307690N07657391EA0000002507
B0901034307683N07657402EA0000002508
B0901044307674N07657410EA0000002510
B0901054307664N07657413EA0000002512
B0901064307654N07657412EA0000002514
B0901074307645N07657406EA0000002515
B0901084307638N07657397EA0000002517
B0901094307633N07657385EA0000002519
B0901104307632N07657372EA0000002521
B0901114307634N07657359EA0000002522
B0901124307639N07657348EA0000002524
B0901134307647N07657338EA0000002526
B0901144307656N07657333EA0000002528
B0901154307667N07657332EA0000002529
B0901164307677N07657335EA0000002531
B0901174307687N07657343EA0000002533
B0901184307695N07657354EA0000002535
B0901194307700N07657368EA0000002536
B0901204307702N07657383EA0000002538
B0901214307700N07657398EA0000002540
B0901224307696N07657412EA0000002542
B0901234307689N07657423EA0000002543
B0901244307680N07657430EA0000002545
B0901254307669N07657434EA0000002547
B0901264307659N07657432EA0000002549
B0901274307650N07657427EA0000002550
B0901284307643N07657418EA0000002552
B0901294307639N07657406EA0000002554
B0901304307637N07657393EA0000002556
B0901314307639N07657380EA0000002557
B0901324307644N07657368EA0000002559
B0901334307652N07657359EA0000002561
B0901344307662N07657354EA0000002563
B0901354307672N07657352EA0000002564
B0901364307683N07657356EA0000002566
B0901374307692N07657363EA0000002568
B0901384307700N07657374EA0000002570
B0901394307705N07657388EA0000002571
B0901404307707N07657403EA0000002573
B0901414307706N07657419EA0000002575
B0901424307701N07657432EA0000002577
B0901434307694N07657444EA0000002578
B0901444307685N07657451EA0000002580
B0901454307675N07657454EA0000002582
B0901464307665N07657453EA0000002584
B0901474307656N07657448EA0000002585
B0901484307649N07657439EA0000002587
B0901494307644N07657427EA0000002589
B0901504307643N07657414EA0000002591
B0901514307645N07657401EA0000002592
B0901524307650N07657389EA0000002594
B0901534307657N07657380EA0000002596
B0901544307667N07657374EA0000002598
B0901554307678N07657373EA0000002599
B0901564307688N07657376EA0000002601
B0901574307698N07657384EA0000002603
B0901584307705N07657395EA0000002605
B0901594307710N07657409EA0000002606
LSKY Generated fixture  do not edit by hand
GDEADBEEF00000000000000000000000000000000
