AXCT Skyline fixture generator
HFDTE150726
HFPLTPILOTINCHARGE:Test Pilot
HFGTYGLIDERTYPE:Ozone Zeno 2
HFGIDGLIDERID:FIXTURE
HFDTM100GPSDATUM:WGS-1984
HFFTYFRTYPE:Skyline,Fixture
B0900004307680N07657300EA0235002398
B0900014307679N07657315EA0235202400
B0900024307674N07657329EA0235402402
B0900034307667N07657340EA0235502403
B0900044307658N07657348EA0235702405
B0900054307648N07657351EA0235902407
B0900064307638N07657350EA0236102409
B0900074307629N07657344EA0236202410
B0900084307622N07657335EA0236402412
B0900094307617N07657323EA0236602414
B0900104307616N07657310EA0236802416
B0900114307618N07657297EA0236902417
B0900124307623N07657285EA0237102419
B0900134307630N07657276EA0237302421
B0900144307640N07657271EA0237502423
B0900154307651N07657270EA0237602424
B0900164307661N07657273EA0237802426
B0900174307671N07657281EA0238002428
B0900184307678N07657292EA0238202430
B0900194307683N07657305EA0238302431
B0900204307685N07657321EA0238502433
B0900214307684N07657336EA0238702435
B0900224307680N07657350EA0238902437
B0900234307672N07657361EA0239002438
B0900244307663N07657368EA0239202440
B0900254307653N07657372EA0239402442
B0900264307643N07657370EA0239602444
B0900274307634N07657365EA0239702445
B0900284307627N07657356EA0239902447
B0900294307623N07657344EA0240102449
B0900304307621N07657331EA0240302451
B0900314307623N07657318EA0240402452
B0900324307628N07657306EA0240602454
B0900334307636N07657297EA0240802456
B0900344307645N07657292EA0241002458
B0900354307656N07657290EA0241102459
B0900364307667N07657294EA0241302461
B0900374307676N07657301EA0241502463
B0900384307684N07657312EA0241702465
B0900394307689N07657326EA0241802466
B0900404307691N07657341EA0242002468
B0900414307689N07657357EA0242202470
B0900424307685N07657370EA0242402472
B0900434307678N07657382EA0242502473
B0900444307669N07657389EA0242702475
B0900454307659N07657392EA0242902477
B0900464307649N07657391EA0243102479
B0900474307640N07657386EA0243202480
B0900484307632N07657377EA0243402482
B0900494307628N07657365EA0243602484
B0900504307627N07657352EA0243802486
B0900514307629N07657339EA0243902487
B0900524307634N07657327EA0244102489
B0900534307641N07657318EA0244302491
B0900544307651N07657312EA0244502493
B0900554307661N07657311EA0244602494
B0900564307672N07657314EA0244802496
B0900574307682N07657322EA0245002498
B0900584307689N07657333EA0245202500
B0900594307694N07657347EA0245302501
B0901004307696N07657362EA0245502503
B0901014307695N07657377EA0245702505
B0901024307690N07657391EA0245902507
B0901034307683N07657402EA0246002508
B0901044307674N07657410EA0246202510
B0901054307664N07657413EA0246402512
B0901064307654N07657412EA0246602514
B0901074307645N07657406EA0246702515
B0901084307638N07657397EA0246902517
B0901094307633N07657385EA0247102519
B0901104307632N07657372EA0247302521
B0901114307634N07657359EA0247402522
B0901124307639N07657348EA0247602524
B0901134307647N07657338EA0247802526
B0901144307656N07657333EA0248002528
B0901154307667N07657332EA0248102529
B0901164307677N07657335EA0248302531
B0901174307687N07657343EA0248502533
B0901184307695N07657354EA0248702535
B0901194307700N07657368EA0248802536
B0901204307702N07657383EA0249002538
B0901214307700N07657398EA0249202540
B0901224307696N07657412EA0249402542
B0901234307689N07657423EA0249502543
B0901244307680N07657430EA0249702545
B0901254307669N07657434EA0249902547
B0901264307659N07657432EA0250102549
B0901274307650N07657427EA0250202550
B0901284307643N07657418EA0250402552
B0901294307639N07657406EA0250602554
B0901304307637N07657393EA0250802556
B0901314307639N07657380EA0250902557
B0901324307644N07657368EA0251102559
B0901334307652N07657359EA0251302561
B0901344307662N07657354EA0251502563
B0901354307672N07657352EA0251602564
B0901364307683N07657356EA0251802566
B0901374307692N07657363EA0252002568
B0901384307700N07657374EA0252202570
B0901394307705N07657388EA0252302571
B0901404307707N07657403EA0252502573
B0901414307706N07657419EA0252702575
B0901424307701N07657432EA0252902577
B0901434307694N07657444EA0253002578
B0901444307685N07657451EA0253202580
B0901454307675N07657454EA0253402582
B0901464307665N07657453EA0253602584
B0901474307656N07657448EA0253702585
B0901484307649N07657439EA0253902587
B0901494307644N07657427EA0254102589
B0901504307643N07657414EA0254302591
B0901514307645N07657401EA0254402592
B0901524307650N07657389EA0254602594
B0901534307657N07657380EA0254802596
B0901544307667N07657374EA0255002598
B0901554307678N07657373EA0255102599
B0901564307688N07657376EA0255302601
B0901574307698N07657384EA0255502603
B0901584307705N07657395EA0255702605
B0901594307710N07657409EA0255802606
B0902004307712N07657424EA0256002608
B0902014307711N07657439EA0256202610
B0902024307706N07657453EA0256402612
B0902034307699N07657464EA0256502613
B0902044307690N07657472EA0256702615
B0902054307680N07657475EA0256902617
B0902064307670N07657474EA0257102619
B0902074307661N07657468EA0257202620
B0902084307654N07657459EA0257402622
B0902094307650N07657448EA0257602624
B0902104307648N07657434EA0257802626
B0902114307650N07657421EA0257902627
B0902124307655N07657410EA0258102629
B0902134307663N07657400EA0258302631
B0902144307672N07657395EA0258502633
B0902154307683N07657394EA0258602634
B0902164307694N07657397EA0258802636
B0902174307703N07657405EA0259002638
B0902184307711N07657416EA0259202640
B0902194307716N07657430EA0259302641
B0902204307718N07657445EA0259502643
B0902214307716N07657460EA0259702645
B0902224307712N07657474EA0259902647
B0902234307705N07657485EA0260002648
B0902244307696N07657492EA0260202650
B0902254307686N07657496EA0260402652
B0902264307676N07657494EA0260602654
B0902274307667N07657489EA0260702655
B0902284307659N07657480EA0260902657
B0902294307655N07657468EA0261102659
B0902304307654N07657455EA0261302661
B0902314307655N07657442EA0261402662
B0902324307661N07657430EA0261602664
B0902334307668N07657421EA0261802666
B0902344307678N07657416EA0262002668
B0902354307688N07657414EA0262102669
B0902364307699N07657418EA0262302671
B0902374307709N07657425EA0262502673
B0902384307716N07657436EA0262702675
B0902394307721N07657450EA0262802676
B0902404307723N07657465EA0263002678
B0902414307722N07657481EA0263202680
B0902424307717N07657494EA0263402682
B0902434307710N07657506EA0263502683
B0902444307701N07657513EA0263702685
B0902454307691N07657516EA0263902687
B0902464307681N07657515EA0264102689
B0902474307672N07657510EA0264202690
B0902484307665N07657501EA0264402692
B0902494307660N07657489EA0264602694
B0902504307659N07657476EA0264802696
B0902514307661N07657463EA0264902697
B0902524307666N07657451EA0265102699
B0902534307674N07657442EA0265302701
B0902544307683N07657436EA0265502703
B0902554307694N07657435EA0265602704
B0902564307704N07657438EA0265802706
B0902574307714N07657446EA0266002708
B0902584307722N07657457EA0266202710
B0902594307727N07657471EA0266302711
B0903004307729N07657486EA0266502713
B0903014307727N07657501EA0266702715
B0903024307723N07657515EA0266902717
B0903034307716N07657526EA0267002718
B0903044307706N07657534EA0267202720
B0903054307696N07657537EA0267402722
B0903064307686N07657536EA0267602724
B0903074307677N07657530EA0267702725
B0903084307670N07657521EA0267902727
B0903094307666N07657510EA0268102729
B0903104307664N07657496EA0268302731
B0903114307666N07657483EA0268402732
B0903124307671N07657472EA0268602734
B0903134307679N07657463EA0268802736
B0903144307689N07657457EA0269002738
B0903154307699N07657456EA0269102739
B0903164307710N07657459EA0269302741
B0903174307719N07657467EA0269502743
B0903184307727N07657478EA0269702745
B0903194307732N07657492EA0269802746
B0903204307734N07657507EA0270002748
B0903214307733N07657522EA0270202750
B0903224307728N07657536EA0270402752
B0903234307721N07657547EA0270502753
B0903244307712N07657554EA0270702755
B0903254307702N07657558EA0270902757
B0903264307692N07657557EA0271102759
B0903274307683N07657551EA0271202760
B0903284307676N07657542EA0271402762
B0903294307671N07657530EA0271602764
B0903304307670N07657517EA0271802766
B0903314307672N07657504EA0271902767
B0903324307677N07657492EA0272102769
B0903334307684N07657483EA0272302771
B0903344307694N07657478EA0272502773
B0903354307705N07657477EA0272602774
B0903364307715N07657480EA0272802776
B0903374307725N07657487EA0273002778
B0903384307732N07657498EA0273202780
B0903394307737N07657512EA0273302781
B0903404307739N07657527EA0273502783
B0903414307738N07657543EA0273702785
B0903424307733N07657556EA0273902787
B0903434307726N07657568EA0274002788
B0903444307717N07657575EA0274202790
B0903454307707N07657578EA0274402792
B0903464307697N07657577EA0274602794
B0903474307688N07657572EA0274702795
B0903484307681N07657563EA0274902797
B0903494307677N07657551EA0275102799
B0903504307675N07657538EA0275302801
B0903514307677N07657525EA0275402802
B0903524307682N07657513EA0275602804
B0903534307690N07657504EA0275802806
B0903544307699N07657498EA0276002808
B0903554307710N07657497EA0276102809
B0903564307721N07657500EA0276302811
B0903574307730N07657508EA0276502813
B0903584307738N07657519EA0276702815
B0903594307743N07657533EA0276802816
B0904004307711N07657548EA0277002818
B0904014307712N07657556EA0276902817
B0904024307713N07657564EA0276802816
B0904034307714N07657572EA0276602814
B0904044307715N07657579EA0276502813
B0904054307716N07657587EA0276402812
B0904064307717N07657595EA0276302811
B0904074307718N07657603EA0276202810
B0904084307719N07657611EA0276002808
B0904094307720N07657619EA0275902807
B0904104307721N07657626EA0275802806
B0904114307722N07657634EA0275702805
B0904124307723N07657642EA0275602804
B0904134307724N07657650EA0275402802
B0904144307725N07657658EA0275302801
B0904154307726N07657666EA0275202800
B0904164307727N07657673EA0275102799
B0904174307728N07657681EA0275002798
B0904184307729N07657689EA0274802796
B0904194307730N07657697EA0274702795
B0904204307731N07657705EA0274602794
B0904214307732N07657713EA0274502793
B0904224307733N07657720EA0274402792
B0904234307734N07657728EA0274202790
B0904244307735N07657736EA0274102789
B0904254307736N07657744EA0274002788
B0904264307736N07657752EA0273902787
B0904274307737N07657760EA0273802786
B0904284307738N07657767EA0273602784
B0904294307739N07657775EA0273502783
B0904304307740N07657783EA0273402782
B0904314307741N07657791EA0273302781
B0904324307742N07657799EA0273202780
B0904334307743N07657806EA0273002778
B0904344307744N07657814EA0272902777
B0904354307745N07657822EA0272802776
B0904364307746N07657830EA0272702775
B0904374307747N07657838EA0272602774
B0904384307748N07657846EA0272402772
B0904394307749N07657853EA0272302771
B0904404307750N07657861EA0272202770
B0904414307751N07657869EA0272102769
B0904424307752N07657877EA0272002768
B0904434307753N07657885EA0271802766
B0904444307754N07657893EA0271702765
B0904454307755N07657900EA0271602764
B0904464307756N07657908EA0271502763
B0904474307757N07657916EA0271402762
B0904484307758N07657924EA0271202760
B0904494307759N07657932EA0271102759
B0904504307760N07657940EA0271002758
B0904514307761N07657947EA0270902757
B0904524307762N07657955EA0270802756
B0904534307763N07657963EA0270602754
B0904544307764N07657971EA0270502753
B0904554307765N07657979EA0270402752
B0904564307766N07657987EA0270302751
B0904574307767N07657994EA0270202750
B0904584307768N07658002EA0270002748
B0904594307769N07658010EA0269902747
B0905004307769N07658018EA0269802746
B0905014307770N07658026EA0269702745
B0905024307771N07658033EA0269602744
B0905034307772N07658041EA0269402742
B0905044307773N07658049EA0269302741
B0905054307774N07658057EA0269202740
B0905064307775N07658065EA0269102739
B0905074307776N07658073EA0269002738
B0905084307777N07658080EA0268802736
B0905094307778N07658088EA0268702735
B0905104307779N07658096EA0268602734
B0905114307780N07658104EA0268502733
B0905124307781N07658112EA0268402732
B0905134307782N07658120EA0268202730
B0905144307783N07658127EA0268102729
B0905154307784N07658135EA0268002728
B0905164307785N07658143EA0267902727
B0905174307786N07658151EA0267802726
B0905184307787N07658159EA0267602724
B0905194307788N07658167EA0267502723
B0905204307789N07658174EA0267402722
B0905214307790N07658182EA0267302721
B0905224307791N07658190EA0267202720
B0905234307792N07658198EA0267002718
B0905244307793N07658206EA0266902717
B0905254307794N07658214EA0266802716
B0905264307795N07658221EA0266702715
B0905274307796N07658229EA0266602714
B0905284307797N07658237EA0266402712
B0905294307798N07658245EA0266302711
B0905304307799N07658253EA0266202710
B0905314307800N07658261EA0266102709
B0905324307801N07658268EA0266002708
B0905334307801N07658276EA0265802706
B0905344307802N07658284EA0265702705
B0905354307803N07658292EA0265602704
B0905364307804N07658300EA0265502703
B0905374307805N07658307EA0265402702
B0905384307806N07658315EA0265202700
B0905394307807N07658323EA0265102699
B0905404307808N07658331EA0265002698
B0905414307809N07658339EA0264902697
B0905424307810N07658347EA0264802696
B0905434307811N07658354EA0264602694
B0905444307812N07658362EA0264502693
B0905454307813N07658370EA0264402692
B0905464307814N07658378EA0264302691
B0905474307815N07658386EA0264202690
B0905484307816N07658394EA0264002688
B0905494307817N07658401EA0263902687
B0905504307818N07658409EA0263802686
B0905514307819N07658417EA0263702685
B0905524307820N07658425EA0263602684
B0905534307821N07658433EA0263402682
B0905544307822N07658441EA0263302681
B0905554307823N07658448EA0263202680
B0905564307824N07658456EA0263102679
B0905574307825N07658464EA0263002678
B0905584307826N07658472EA0262802676
B0905594307827N07658480EA0262702675
B0906004307828N07658488EA0262602674
B0906014307829N07658495EA0262502673
B0906024307830N07658503EA0262402672
B0906034307831N07658511EA0262202670
B0906044307832N07658519EA0262102669
B0906054307833N07658527EA0262002668
B0906064307834N07658534EA0261902667
B0906074307834N07658542EA0261802666
B0906084307835N07658550EA0261602664
B0906094307836N07658558EA0261502663
B0906104307837N07658566EA0261402662
B0906114307838N07658574EA0261302661
B0906124307839N07658581EA0261202660
B0906134307840N07658589EA0261002658
B0906144307841N07658597EA0260902657
B0906154307842N07658605EA0260802656
B0906164307843N07658613EA0260702655
B0906174307844N07658621EA0260602654
B0906184307845N07658628EA0260402652
B0906194307846N07658636EA0260302651
B0906204307847N07658644EA0260202650
B0906214307848N07658652EA0260102649
B0906224307849N07658660EA0260002648
B0906234307850N07658668EA0259802646
B0906244307851N07658675EA0259702645
B0906254307852N07658683EA0259602644
B0906264307853N07658691EA0259502643
B0906274307854N07658699EA0259402642
B0906284307855N07658707EA0259202640
B0906294307856N07658715EA0259102639
B0906304307857N07658722EA0259002638
B0906314307858N07658730EA0258902637
B0906324307859N07658738EA0258802636
B0906334307860N07658746EA0258602634
B0906344307861N07658754EA0258502633
B0906354307862N07658762EA0258402632
B0906364307863N07658769EA0258302631
B0906374307864N07658777EA0258202630
B0906384307865N07658785EA0258002628
B0906394307866N07658793EA0257902627
B0906404307866N07658801EA0257802626
B0906414307867N07658808EA0257702625
B0906424307868N07658816EA0257602624
B0906434307869N07658824EA0257402622
B0906444307870N07658832EA0257302621
B0906454307871N07658840EA0257202620
B0906464307872N07658848EA0257102619
B0906474307873N07658855EA0257002618
B0906484307874N07658863EA0256802616
B0906494307875N07658871EA0256702615
B0906504307876N07658879EA0256602614
B0906514307877N07658887EA0256502613
B0906524307878N07658895EA0256402612
B0906534307879N07658902EA0256202610
B0906544307880N07658910EA0256102609
B0906554307881N07658918EA0256002608
B0906564307882N07658926EA0255902607
B0906574307883N07658934EA0255802606
B0906584307884N07658942EA0255602604
B0906594307885N07658949EA0255502603
B0907004307886N07658957EA0255402602
B0907014307887N07658965EA0255302601
B0907024307888N07658973EA0255202600
B0907034307889N07658981EA0255002598
B0907044307890N07658989EA0254902597
B0907054307891N07658996EA0254802596
B0907064307892N07659004EA0254702595
B0907074307893N07659012EA0254602594
B0907084307894N07659020EA0254402592
B0907094307895N07659028EA0254302591
B0907104307896N07659036EA0254202590
B0907114307897N07659043EA0254102589
B0907124307898N07659051EA0254002588
B0907134307899N07659059EA0253802586
B0907144307899N07659067EA0253702585
B0907154307900N07659075EA0253602584
B0907164307901N07659082EA0253502583
B0907174307902N07659090EA0253402582
B0907184307903N07659098EA0253202580
B0907194307904N07659106EA0253102579
B0907204307905N07659114EA0253002578
B0907214307906N07659122EA0252902577
B0907224307907N07659129EA0252802576
B0907234307908N07659137EA0252602574
B0907244307909N07659145EA0252502573
B0907254307910N07659153EA0252402572
B0907264307911N07659161EA0252302571
B0907274307912N07659169EA0252202570
B0907284307913N07659176EA0252002568
B0907294307914N07659184EA0251902567
B0907304307915N07659192EA0251802566
B0907314307916N07659200EA0251702565
B0907324307917N07659208EA0251602564
B0907334307918N07659216EA0251402562
B0907344307919N07659223EA0251302561
B0907354307920N07659231EA0251202560
B0907364307921N07659239EA0251102559
B0907374307922N07659247EA0251002558
B0907384307923N07659255EA0250802556
B0907394307924N07659263EA0250702555
B0907404307925N07659270EA0250602554
B0907414307926N07659278EA0250502553
B0907424307927N07659286EA0250402552
B0907434307928N07659294EA0250202550
B0907444307929N07659302EA0250102549
B0907454307930N07659309EA0250002548
B0907464307931N07659317EA0249902547
B0907474307931N07659325EA0249802546
B0907484307932N07659333EA0249602544
B0907494307933N07659341EA0249502543
B0907504307934N07659349EA0249402542
B0907514307935N07659356EA0249302541
B0907524307936N07659364EA0249202540
B0907534307937N07659372EA0249002538
B0907544307938N07659380EA0248902537
B0907554307939N07659388EA0248802536
B0907564307940N07659396EA0248702535
B0907574307941N07659403EA0248602534
B0907584307942N07659411EA0248402532
B0907594307943N07659419EA0248302531
B0908004308165N07701288EA0277002818
B0908014308164N07701303EA0277202820
B0908024308159N07701317EA0277402822
B0908034308152N07701328EA0277502823
B0908044308143N07701336EA0277702825
B0908054308133N07701339EA0277902827
B0908064308123N07701338EA0278102829
B0908074308114N07701332EA0278202830
B0908084308107N07701323EA0278402832
B0908094308102N07701311EA0278602834
B0908104308101N07701298EA0278802836
B0908114308103N07701285EA0278902837
B0908124308108N07701273EA0279102839
B0908134308116N07701264EA0279302841
B0908144308125N07701259EA0279502843
B0908154308136N07701258EA0279602844
B0908164308146N07701261EA0279802846
B0908174308156N07701268EA0280002848
B0908184308164N07701280EA0280202850
B0908194308169N07701293EA0280302851
B0908204308170N07701309EA0280502853
B0908214308169N07701324EA0280702855
B0908224308165N07701338EA0280902857
B0908234308158N07701349EA0281002858
B0908244308148N07701356EA0281202860
B0908254308138N07701360EA0281402862
B0908264308128N07701358EA0281602864
B0908274308119N07701353EA0281702865
B0908284308112N07701344EA0281902867
B0908294308108N07701332EA0282102869
B0908304308106N07701319EA0282302871
B0908314308108N07701306EA0282402872
B0908324308113N07701294EA0282602874
B0908334308121N07701285EA0282802876
B0908344308131N07701280EA0283002878
B0908354308141N07701278EA0283102879
B0908364308152N07701282EA0283302881
B0908374308161N07701289EA0283502883
B0908384308169N07701300EA0283702885
B0908394308174N07701314EA0283802886
B0908404308176N07701329EA0284002888
B0908414308175N07701345EA0284202890
B0908424308170N07701358EA0284402892
B0908434308163N07701369EA0284502893
B0908444308154N07701377EA0284702895
B0908454308144N07701380EA0284902897
B0908464308134N07701379EA0285102899
B0908474308125N07701374EA0285202900
B0908484308118N07701365EA0285402902
B0908494308113N07701353EA0285602904
B0908504308112N07701340EA0285802906
B0908514308114N07701327EA0285902907
B0908524308119N07701315EA0286102909
B0908534308126N07701306EA0286302911
B0908544308136N07701300EA0286502913
B0908554308146N07701299EA0286602914
B0908564308157N07701302EA0286802916
B0908574308167N07701310EA0287002918
B0908584308174N07701321EA0287202920
B0908594308179N07701335EA0287302921
B0909004308181N07701350EA0287502923
B0909014308180N07701365EA0287702925
B0909024308175N07701379EA0287902927
B0909034308168N07701390EA0288002928
B0909044308159N07701398EA0288202930
B0909054308149N07701401EA0288402932
B0909064308139N07701400EA0288602934
B0909074308130N07701394EA0288702935
B0909084308123N07701385EA0288902937
B0909094308118N07701373EA0289102939
B0909104308117N07701360EA0289302941
B0909114308119N07701347EA0289402942
B0909124308124N07701335EA0289602944
B0909134308132N07701326EA0289802946
B0909144308141N07701321EA0290002948
B0909154308152N07701320EA0290102949
B0909164308162N07701323EA0290302951
B0909174308172N07701331EA0290502953
B0909184308180N07701342EA0290702955
B0909194308185N07701355EA0290802956
B0909204308187N07701371EA0291002958
B0909214308185N07701386EA0291202960
B0909224308181N07701400EA0291402962
B0909234308174N07701411EA0291502963
B0909244308165N07701418EA0291702965
B0909254308155N07701422EA0291902967
B0909264308145N07701420EA0292102969
B0909274308135N07701415EA0292202970
B0909284308128N07701406EA0292402972
B0909294308124N07701394EA0292602974
B0909304308123N07701381EA0292802976
B0909314308124N07701368EA0292902977
B0909324308129N07701356EA0293102979
B0909334308137N07701347EA0293302981
B0909344308147N07701342EA0293502983
B0909354308157N07701340EA0293602984
B0909364308168N07701344EA0293802986
B0909374308177N07701351EA0294002988
B0909384308185N07701362EA0294202990
B0909394308190N07701376EA0294302991
B0909404308192N07701391EA0294502993
B0909414308191N07701407EA0294702995
B0909424308186N07701420EA0294902997
B0909434308179N07701431EA0295002998
B0909444308170N07701439EA0295203000
B0909454308160N07701442EA0295403002
B0909464308150N07701441EA0295603004
B0909474308141N07701436EA0295703005
B0909484308134N07701427EA0295903007
B0909494308129N07701415EA0296103009
B0909504308128N07701402EA0296303011
B0909514308130N07701389EA0296403012
B0909524308135N07701377EA0296603014
B0909534308142N07701368EA0296803016
B0909544308152N07701362EA0297003018
B0909554308163N07701361EA0297103019
B0909564308173N07701364EA0297303021
B0909574308183N07701372EA0297503023
B0909584308191N07701383EA0297703025
B0909594308196N07701397EA0297803026
B0910004308197N07701412EA0298003028
B0910014308196N07701427EA0298203030
B0910024308192N07701441EA0298403032
B0910034308184N07701452EA0298503033
B0910044308175N07701460EA0298703035
B0910054308165N07701463EA0298903037
B0910064308155N07701462EA0299103039
B0910074308146N07701456EA0299203040
B0910084308139N07701447EA0299403042
B0910094308135N07701435EA0299603044
B0910104308133N07701422EA0299803046
B0910114308135N07701409EA0299903047
B0910124308140N07701398EA0300103049
B0910134308148N07701388EA0300303051
B0910144308157N07701383EA0300503053
B0910154308168N07701382EA0300603054
B0910164308179N07701385EA0300803056
B0910174308188N07701393EA0301003058
B0910184308196N07701404EA0301203060
B0910194308201N07701418EA0301303061
B0910204308203N07701433EA0301503063
B0910214308201N07701448EA0301703065
B0910224308197N07701462EA0301903067
B0910234308190N07701473EA0302003068
B0910244308181N07701480EA0302203070
B0910254308171N07701484EA0302403072
B0910264308161N07701482EA0302603074
B0910274308152N07701477EA0302703075
B0910284308145N07701468EA0302903077
B0910294308140N07701456EA0303103079
B0910304308139N07701443EA0303303081
B0910314308141N07701430EA0303403082
B0910324308146N07701418EA0303603084
B0910334308153N07701409EA0303803086
B0910344308163N07701404EA0304003088
B0910354308173N07701402EA0304103089
B0910364308184N07701406EA0304303091
B0910374308194N07701413EA0304503093
B0910384308201N07701424EA0304703095
B0910394308206N07701438EA0304803096
B0910404308208N07701453EA0305003098
B0910414308207N07701469EA0305203100
B0910424308202N07701482EA0305403102
B0910434308195N07701494EA0305503103
B0910444308186N07701501EA0305703105
B0910454308176N07701504EA0305903107
B0910464308166N07701503EA0306103109
B0910474308157N07701498EA0306203110
B0910484308150N07701489EA0306403112
B0910494308145N07701477EA0306603114
B0910504308144N07701464EA0306803116
B0910514308146N07701451EA0306903117
B0910524308151N07701439EA0307103119
B0910534308159N07701430EA0307303121
B0910544308168N07701424EA0307503123
B0910554308179N07701423EA0307603124
B0910564308189N07701426EA0307803126
B0910574308199N07701434EA0308003128
B0910584308207N07701445EA0308203130
B0910594308212N07701459EA0308303131
B0911004308214N07701474EA0308503133
B0911014308212N07701489EA0308703135
B0911024308208N07701503EA0308903137
B0911034308201N07701514EA0309003138
B0911044308192N07701522EA0309203140
B0911054308182N07701525EA0309403142
B0911064308171N07701524EA0309603144
B0911074308162N07701518EA0309703145
B0911084308155N07701509EA0309903147
B0911094308151N07701498EA0310103149
B0911104308149N07701484EA0310303151
B0911114308151N07701471EA0310403152
B0911124308156N07701460EA0310603154
B0911134308164N07701450EA0310803156
B0911144308174N07701445EA0311003158
B0911154308184N07701444EA0311103159
B0911164308195N07701447EA0311303161
B0911174308204N07701455EA0311503163
B0911184308212N07701466EA0311703165
B0911194308217N07701480EA0311803166
B0911204308219N07701495EA0312003168
B0911214308218N07701510EA0312203170
B0911224308213N07701524EA0312403172
B0911234308206N07701535EA0312503173
B0911244308197N07701542EA0312703175
B0911254308187N07701546EA0312903177
B0911264308177N07701544EA0313103179
B0911274308168N07701539EA0313203180
B0911284308161N07701530EA0313403182
B0911294308156N07701518EA0313603184
B0911304308155N07701505EA0313803186
B0911314308157N07701492EA0313903187
B0911324308162N07701480EA0314103189
B0911334308169N07701471EA0314303191
B0911344308179N07701466EA0314503193
B0911354308190N07701464EA0314603194
B0911364308200N07701468EA0314803196
B0911374308210N07701475EA0315003198
B0911384308217N07701486EA0315203200
B0911394308222N07701500EA0315303201
B0911404308224N07701515EA0315503203
B0911414308223N07701531EA0315703205
B0911424308219N07701544EA0315903207
B0911434308211N07701556EA0316003208
B0911444308202N07701563EA0316203210
B0911454308192N07701566EA0316403212
B0911464308182N07701565EA0316603214
B0911474308173N07701560EA0316703215
B0911484308166N07701551EA0316903217
B0911494308162N07701539EA0317103219
B0911504308160N07701526EA0317303221
B0911514308162N07701513EA0317403222
B0911524308167N07701501EA0317603224
B0911534308175N07701492EA0317803226
B0911544308184N07701486EA0318003228
B0911554308195N07701485EA0318103229
B0911564308206N07701488EA0318303231
B0911574308215N07701496EA0318503233
B0911584308223N07701507EA0318703235
B0911594308228N07701521EA0318803236
B0912004308196N07701536EA0319003238
B0912014308197N07701544EA0318903237
B0912024308198N07701552EA0318803236
B0912034308199N07701560EA0318603234
B0912044308200N07701567EA0318503233
B0912054308201N07701575EA0318403232
B0912064308202N07701583EA0318303231
B0912074308203N07701591EA0318203230
B0912084308204N07701599EA0318003228
B0912094308205N07701607EA0317903227
B0912104308206N07701614EA0317803226
B0912114308207N07701622EA0317703225
B0912124308208N07701630EA0317603224
B0912134308209N07701638EA0317403222
B0912144308210N07701646EA0317303221
B0912154308211N07701654EA0317203220
B0912164308212N07701661EA0317103219
B0912174308213N07701669EA0317003218
B0912184308214N07701677EA0316803216
B0912194308215N07701685EA0316703215
B0912204308216N07701693EA0316603214
B0912214308217N07701700EA0316503213
B0912224308218N07701708EA0316403212
B0912234308219N07701716EA0316203210
B0912244308220N07701724EA0316103209
B0912254308221N07701732EA0316003208
B0912264308222N07701740EA0315903207
B0912274308223N07701747EA0315803206
B0912284308224N07701755EA0315603204
B0912294308224N07701763EA0315503203
B0912304308225N07701771EA0315403202
B0912314308226N07701779EA0315303201
B0912324308227N07701787EA0315203200
B0912334308228N07701794EA0315003198
B0912344308229N07701802EA0314903197
B0912354308230N07701810EA0314803196
B0912364308231N07701818EA0314703195
B0912374308232N07701826EA0314603194
B0912384308233N07701834EA0314403192
B0912394308234N07701841EA0314303191
B0912404308235N07701849EA0314203190
B0912414308236N07701857EA0314103189
B0912424308237N07701865EA0314003188
B0912434308238N07701873EA0313803186
B0912444308239N07701881EA0313703185
B0912454308240N07701888EA0313603184
B0912464308241N07701896EA0313503183
B0912474308242N07701904EA0313403182
B0912484308243N07701912EA0313203180
B0912494308244N07701920EA0313103179
B0912504308245N07701928EA0313003178
B0912514308246N07701935EA0312903177
B0912524308247N07701943EA0312803176
B0912534308248N07701951EA0312603174
B0912544308249N07701959EA0312503173
B0912554308250N07701967EA0312403172
B0912564308251N07701974EA0312303171
B0912574308252N07701982EA0312203170
B0912584308253N07701990EA0312003168
B0912594308254N07701998EA0311903167
B0913004308255N07702006EA0311803166
B0913014308256N07702014EA0311703165
B0913024308257N07702021EA0311603164
B0913034308257N07702029EA0311403162
B0913044308258N07702037EA0311303161
B0913054308259N07702045EA0311203160
B0913064308260N07702053EA0311103159
B0913074308261N07702061EA0311003158
B0913084308262N07702068EA0310803156
B0913094308263N07702076EA0310703155
B0913104308264N07702084EA0310603154
B0913114308265N07702092EA0310503153
B0913124308266N07702100EA0310403152
B0913134308267N07702108EA0310203150
B0913144308268N07702115EA0310103149
B0913154308269N07702123EA0310003148
B0913164308270N07702131EA0309903147
B0913174308271N07702139EA0309803146
B0913184308272N07702147EA0309603144
B0913194308273N07702155EA0309503143
B0913204308274N07702162EA0309403142
B0913214308275N07702170EA0309303141
B0913224308276N07702178EA0309203140
B0913234308277N07702186EA0309003138
B0913244308278N07702194EA0308903137
B0913254308279N07702202EA0308803136
B0913264308280N07702209EA0308703135
B0913274308281N07702217EA0308603134
B0913284308282N07702225EA0308403132
B0913294308283N07702233EA0308303131
B0913304308284N07702241EA0308203130
B0913314308285N07702248EA0308103129
B0913324308286N07702256EA0308003128
B0913334308287N07702264EA0307803126
B0913344308288N07702272EA0307703125
B0913354308289N07702280EA0307603124
B0913364308289N07702288EA0307503123
B0913374308290N07702295EA0307403122
B0913384308291N07702303EA0307203120
B0913394308292N07702311EA0307103119
B0913404308293N07702319EA0307003118
B0913414308294N07702327EA0306903117
B0913424308295N07702335EA0306803116
B0913434308296N07702342EA0306603114
B0913444308297N07702350EA0306503113
B0913454308298N07702358EA0306403112
B0913464308299N07702366EA0306303111
B0913474308300N07702374EA0306203110
B0913484308301N07702382EA0306003108
B0913494308302N07702389EA0305903107
B0913504308303N07702397EA0305803106
B0913514308304N07702405EA0305703105
B0913524308305N07702413EA0305603104
B0913534308306N07702421EA0305403102
B0913544308307N07702429EA0305303101
B0913554308308N07702436EA0305203100
B0913564308309N07702444EA0305103099
B0913574308310N07702452EA0305003098
B0913584308311N07702460EA0304803096
B0913594308312N07702468EA0304703095
B0914004308313N07702475EA0304603094
B0914014308314N07702483EA0304503093
B0914024308315N07702491EA0304403092
B0914034308316N07702499EA0304203090
B0914044308317N07702507EA0304103089
B0914054308318N07702515EA0304003088
B0914064308319N07702522EA0303903087
B0914074308320N07702530EA0303803086
B0914084308321N07702538EA0303603084
B0914094308322N07702546EA0303503083
B0914104308322N07702554EA0303403082
B0914114308323N07702562EA0303303081
B0914124308324N07702569EA0303203080
B0914134308325N07702577EA0303003078
B0914144308326N07702585EA0302903077
B0914154308327N07702593EA0302803076
B0914164308328N07702601EA0302703075
B0914174308329N07702609EA0302603074
B0914184308330N07702616EA0302403072
B0914194308331N07702624EA0302303071
B0914204308332N07702632EA0302203070
B0914214308333N07702640EA0302103069
B0914224308334N07702648EA0302003068
B0914234308335N07702656EA0301803066
B0914244308336N07702663EA0301703065
B0914254308337N07702671EA0301603064
B0914264308338N07702679EA0301503063
B0914274308339N07702687EA0301403062
B0914284308340N07702695EA0301203060
B0914294308341N07702703EA0301103059
B0914304308342N07702710EA0301003058
B0914314308343N07702718EA0300903057
B0914324308344N07702726EA0300803056
B0914334308345N07702734EA0300603054
B0914344308346N07702742EA0300503053
B0914354308347N07702749EA0300403052
B0914364308348N07702757EA0300303051
B0914374308349N07702765EA0300203050
B0914384308350N07702773EA0300003048
B0914394308351N07702781EA0299903047
B0914404308352N07702789EA0299803046
B0914414308353N07702796EA0299703045
B0914424308354N07702804EA0299603044
B0914434308354N07702812EA0299403042
B0914444308355N07702820EA0299303041
B0914454308356N07702828EA0299203040
B0914464308357N07702836EA0299103039
B0914474308358N07702843EA0299003038
B0914484308359N07702851EA0298803036
B0914494308360N07702859EA0298703035
B0914504308361N07702867EA0298603034
B0914514308362N07702875EA0298503033
B0914524308363N07702883EA0298403032
B0914534308364N07702890EA0298203030
B0914544308365N07702898EA0298103029
B0914554308366N07702906EA0298003028
B0914564308367N07702914EA0297903027
B0914574308368N07702922EA0297803026
B0914584308369N07702930EA0297603024
B0914594308370N07702937EA0297503023
B0915004308371N07702945EA0297403022
B0915014308372N07702953EA0297303021
B0915024308373N07702961EA0297203020
B0915034308374N07702969EA0297003018
B0915044308375N07702976EA0296903017
B0915054308376N07702984EA0296803016
B0915064308377N07702992EA0296703015
B0915074308378N07703000EA0296603014
B0915084308379N07703008EA0296403012
B0915094308380N07703016EA0296303011
B0915104308381N07703023EA0296203010
B0915114308382N07703031EA0296103009
B0915124308383N07703039EA0296003008
B0915134308384N07703047EA0295803006
B0915144308385N07703055EA0295703005
B0915154308386N07703063EA0295603004
B0915164308387N07703070EA0295503003
B0915174308387N07703078EA0295403002
B0915184308388N07703086EA0295203000
B0915194308389N07703094EA0295102999
B0915204308390N07703102EA0295002998
B0915214308391N07703110EA0294902997
B0915224308392N07703117EA0294802996
B0915234308393N07703125EA0294602994
B0915244308394N07703133EA0294502993
B0915254308395N07703141EA0294402992
B0915264308396N07703149EA0294302991
B0915274308397N07703157EA0294202990
B0915284308398N07703164EA0294002988
B0915294308399N07703172EA0293902987
B0915304308400N07703180EA0293802986
B0915314308401N07703188EA0293702985
B0915324308402N07703196EA0293602984
B0915334308403N07703204EA0293402982
B0915344308404N07703211EA0293302981
B0915354308405N07703219EA0293202980
B0915364308406N07703227EA0293102979
B0915374308407N07703235EA0293002978
B0915384308408N07703243EA0292802976
B0915394308409N07703250EA0292702975
B0915404308410N07703258EA0292602974
B0915414308411N07703266EA0292502973
B0915424308412N07703274EA0292402972
B0915434308413N07703282EA0292202970
B0915444308414N07703290EA0292102969
B0915454308415N07703297EA0292002968
B0915464308416N07703305EA0291902967
B0915474308417N07703313EA0291802966
B0915484308418N07703321EA0291602964
B0915494308419N07703329EA0291502963
B0915504308419N07703337EA0291402962
B0915514308420N07703344EA0291302961
B0915524308421N07703352EA0291202960
B0915534308422N07703360EA0291002958
B0915544308423N07703368EA0290902957
B0915554308424N07703376EA0290802956
B0915564308425N07703384EA0290702955
B0915574308426N07703391EA0290602954
B0915584308427N07703399EA0290402952
B0915594308428N07703407EA0290302951
LSKY Generated fixture  do not edit by hand
GDEADBEEF00000000000000000000000000000000
