AXCT Skyline fixture generator
HFDTE150726
HFPLTPILOTINCHARGE:Test Pilot
HFGTYGLIDERTYPE:Ozone Zeno 2
HFGIDGLIDERID:FIXTURE
HFDTM100GPSDATUM:WGS-1984
HFFTYFRTYPE:Skyline,Fixture
B1700004307680N07657300EA0235002398
B1700014307679N07657315EA0235202400
B1700024307674N07657329EA0235402402
B1700034307667N07657340EA0235502403
B1700044307658N07657348EA0235702405
B1700054307648N07657351EA0235902407
B1700064307638N07657350EA0236102409
B1700074307629N07657344EA0236202410
B1700084307622N07657335EA0236402412
B1700094307617N07657323EA0236602414
B1700104307616N07657310EA0236802416
B1700114307618N07657297EA0236902417
B1700124307623N07657285EA0237102419
B1701
B1700134307630N07657276EA0237302421
B1700144307640N07657271EA0237502423
B1700154307651N07657270EA0237602424
B1700164307661N07657273EA0237802426
B1700174307671N07657281EA0238002428
B1700184307678N07657292EA0238202430
B1700194307683N07657305EA0238302431
B1700204307685N07657321EA0238502433
B1700214307684N07657336EA0238702435
B1700224307680N07657350EA0238902437
B1700234307672N07657361EA0239002438
B1700244307663N07657368EA0239202440
B1700254307653N07657372EA0239402442
B1700264307643N07657370EA0239602444
B1700274307634N07657365EA0239702445
B1700284307627N07657356EA0239902447
B1700294307623N07657344EA0240102449
B1700304307621N07657331EA0240302451
B1700314307623N07657318EA0240402452
B1700324307628N07657306EA0240602454
B1700334307636N07657297EA0240802456
B1700344307645N07657292EA0241002458
B1700354307656N07657290EA0241102459
B1700364307667N07657294EA0241302461
B1700374307676N07657301EA0241502463
B1700384307684N07657312EA0241702465
B1700394307689N07657326EA0241802466
B1700404307691N07657341EA0242002468
B1700414307689N07657357EA0242202470
B1700424307685N07657370EA0242402472
B1700434307678N07657382EA0242502473
B1700444307669N07657389EA0242702475
B1700454307659N07657392EA0242902477
B1700464307649N07657391EA0243102479
B1700474307640N07657386EA0243202480
B1700484307632N07657377EA0243402482
B1700494307628N07657365EA0243602484
B1700504307627N07657352EA0243802486
B1700514307629N07657339EA0243902487
45AL 1K; A1>9 ?@81>@0
B1700524307634N07657327EA0244102489
B1700534307641N07657318EA0244302491
B1700544307651N07657312EA0244502493
B1700554307661N07657311EA0244602494
B1700564307672N07657314EA0244802496
B1700574307682N07657322EA0245002498
B1700584307689N07657333EA0245202500
B1700594307694N07657347EA0245302501
B1701004307696N07657362EA0245502503
B1701014307695N07657377EA0245702505
B1701024307690N07657391EA0245902507
B1701034307683N07657402EA0246002508
B1701044307674N07657410EA0246202510
B1701054307664N07657413EA0246402512
B1701064307654N07657412EA0246602514
B1701074307645N07657406EA0246702515
B1701084307638N07657397EA0246902517
B1701094307633N07657385EA0247102519
B1701104307632N07657372EA0247302521
B1701114307634N07657359EA0247402522
B1701124307639N07657348EA0247602524
B1701134307647N07657338EA0247802526
B1701144307656N07657333EA0248002528
B1701154307667N07657332EA0248102529
B1701164307677N07657335EA0248302531
B1701174307687N07657343EA0248502533
B1701184307695N07657354EA0248702535
B1701194307700N07657368EA0248802536
B1701204307702N07657383EA0249002538
B1701214307700N07657398EA0249202540
B1701224307696N07657412EA0249402542
B1701234307689N07657423EA0249502543
B1701244307680N07657430EA0249702545
B1701254307669N07657434EA0249902547
B1701264307659N07657432EA0250102549
B1701274307650N07657427EA0250202550
B1701284307643N07657418EA0250402552
B1701294307639N07657406EA0250602554
B1701304307637N07657393EA0250802556

B1701314307639N07657380EA0250902557
B1701324307644N07657368EA0251102559
B1701334307652N07657359EA0251302561
B1701344307662N07657354EA0251502563
B1701354307672N07657352EA0251602564
B1701364307683N07657356EA0251802566
B1701374307692N07657363EA0252002568
B1701384307700N07657374EA0252202570
B1701394307705N07657388EA0252302571
B1701404307707N07657403EA0252502573
B1701414307706N07657419EA0252702575
B1701424307701N07657432EA0252902577
B1701434307694N07657444EA0253002578
B1701444307685N07657451EA0253202580
B1701454307675N07657454EA0253402582
B1701464307665N07657453EA0253602584
B1701474307656N07657448EA0253702585
B1701484307649N07657439EA0253902587
B1701494307644N07657427EA0254102589
B1701504307643N07657414EA0254302591
B1701514307645N07657401EA0254402592
B1701524307650N07657389EA0254602594
B1701534307657N07657380EA0254802596
B1701544307667N07657374EA0255002598
B1701554307678N07657373EA0255102599
B1701564307688N07657376EA0255302601
B1701574307698N07657384EA0255502603
B1701584307705N07657395EA0255702605
B1701594307710N07657409EA0255802606
B1702004307712N07657424EA0256002608
B1702014307711N07657439EA0256202610
B1702024307706N07657453EA0256402612
B1702034307699N07657464EA0256502613
B1702044307690N07657472EA0256702615
B1702054307680N07657475EA0256902617
B1702064307670N07657474EA0257102619
B1702074307661N07657468EA0257202620
B1702084307654N07657459EA0257402622
B1702094307650N07657448EA0257602624
Q99 unknown record type
B1702104307648N07657434EA0257802626
B1702114307650N07657421EA0257902627
B1702124307655N07657410EA0258102629
B1702134307663N07657400EA0258302631
B1702144307672N07657395EA0258502633
B1702154307683N07657394EA0258602634
B1702164307694N07657397EA0258802636
B1702174307703N07657405EA0259002638
B1702184307711N07657416EA0259202640
B1702194307716N07657430EA0259302641
B1702204307718N07657445EA0259502643
B1702214307716N07657460EA0259702645
B1702224307712N07657474EA0259902647
B1702234307705N07657485EA0260002648
B1702244307696N07657492EA0260202650
B1702254307686N07657496EA0260402652
B1702264307676N07657494EA0260602654
B1702274307667N07657489EA0260702655
B1702284307659N07657480EA0260902657
B1702294307655N07657468EA0261102659
B1702304307654N07657455EA0261302661
B1702314307655N07657442EA0261402662
B1702324307661N07657430EA0261602664
B1702334307668N07657421EA0261802666
B1702344307678N07657416EA0262002668
B1702354307688N07657414EA0262102669
B1702364307699N07657418EA0262302671
B1702374307709N07657425EA0262502673
B1702384307716N07657436EA0262702675
B1702394307721N07657450EA0262802676
B1702404307723N07657465EA0263002678
B1702414307722N07657481EA0263202680
B1702424307717N07657494EA0263402682
B1702434307710N07657506EA0263502683
B1702444307701N07657513EA0263702685
B1702454307691N07657516EA0263902687
B1702464307681N07657515EA0264102689
B1702474307672N07657510EA0264202690
B1702484307665N07657501EA0264402692
B170300431280N0769550EA0235002398EXTRA
B1702494307660N07657489EA0264602694
B1702504307659N07657476EA0264802696
B1702514307661N07657463EA0264902697
B1702524307666N07657451EA0265102699
B1702534307674N07657442EA0265302701
B1702544307683N07657436EA0265502703
B1702554307694N07657435EA0265602704
B1702564307704N07657438EA0265802706
B1702574307714N07657446EA0266002708
B1702584307722N07657457EA0266202710
B1702594307727N07657471EA0266302711
B1703004307729N07657486EA0266502713
B1703014307727N07657501EA0266702715
B1703024307723N07657515EA0266902717
B1703034307716N07657526EA0267002718
B1703044307706N07657534EA0267202720
B1703054307696N07657537EA0267402722
B1703064307686N07657536EA0267602724
B1703074307677N07657530EA0267702725
B1703084307670N07657521EA0267902727
B1703094307666N07657510EA0268102729
B1703104307664N07657496EA0268302731
B1703114307666N07657483EA0268402732
B1703124307671N07657472EA0268602734
B1703134307679N07657463EA0268802736
B1703144307689N07657457EA0269002738
B1703154307699N07657456EA0269102739
B1703164307710N07657459EA0269302741
B1703174307719N07657467EA0269502743
B1703184307727N07657478EA0269702745
B1703194307732N07657492EA0269802746
B1703204307734N07657507EA0270002748
B1703214307733N07657522EA0270202750
B1703224307728N07657536EA0270402752
B1703234307721N07657547EA0270502753
B1703244307712N07657554EA0270702755
B1703254307702N07657558EA0270902757
B1703264307692N07657557EA0271102759
B1703274307683N07657551EA0271202760
B1703284307676N07657542EA0271402762
B1703294307671N07657530EA0271602764
B1703304307670N07657517EA0271802766
B1703314307672N07657504EA0271902767
B1703324307677N07657492EA0272102769
B1703334307684N07657483EA0272302771
B1703344307694N07657478EA0272502773
B1703354307705N07657477EA0272602774
B1703364307715N07657480EA0272802776
B1703374307725N07657487EA0273002778
B1703384307732N07657498EA0273202780
B1703394307737N07657512EA0273302781
B1703404307739N07657527EA0273502783
B1703414307738N07657543EA0273702785
B1703424307733N07657556EA0273902787
B1703434307726N07657568EA0274002788
B1703444307717N07657575EA0274202790
B1703454307707N07657578EA0274402792
B1703464307697N07657577EA0274602794
B1703474307688N07657572EA0274702795
B1703484307681N07657563EA0274902797
B1703494307677N07657551EA0275102799
B1703504307675N07657538EA0275302801
B1703514307677N07657525EA0275402802
B1703524307682N07657513EA0275602804
B1703534307690N07657504EA0275802806
B1703544307699N07657498EA0276002808
B1703554307710N07657497EA0276102809
B1703564307721N07657500EA0276302811
B1703574307730N07657508EA0276502813
B1703584307738N07657519EA0276702815
B1703594307743N07657533EA0276802816
B1704004307711N07657548EA0277002818
B1704014307712N07657556EA0276902817
B1704024307713N07657564EA0276802816
B1704034307714N07657572EA0276602814
B1704044307715N07657579EA0276502813
B1704054307716N07657587EA0276402812
B1704064307717N07657595EA0276302811
B1704074307718N07657603EA0276202810
B1704084307719N07657611EA0276002808
B1704094307720N07657619EA0275902807
B1704104307721N07657626EA0275802806
B1704114307722N07657634EA0275702805
B1704124307723N07657642EA0275602804
B1704134307724N07657650EA0275402802
B1704144307725N07657658EA0275302801
B1704154307726N07657666EA0275202800
B1704164307727N07657673EA0275102799
B1704174307728N07657681EA0275002798
B1704184307729N07657689EA0274802796
B1704194307730N07657697EA0274702795
B1704204307731N07657705EA0274602794
B1704214307732N07657713EA0274502793
B1704224307733N07657720EA0274402792
B1704234307734N07657728EA0274202790
B1704244307735N07657736EA0274102789
B1704254307736N07657744EA0274002788
B1704264307736N07657752EA0273902787
B1704274307737N07657760EA0273802786
B1704284307738N07657767EA0273602784
B1704294307739N07657775EA0273502783
B1704304307740N07657783EA0273402782
B1704314307741N07657791EA0273302781
B1704324307742N07657799EA0273202780
B1704334307743N07657806EA0273002778
B1704344307744N07657814EA0272902777
B1704354307745N07657822EA0272802776
B1704364307746N07657830EA0272702775
B1704374307747N07657838EA0272602774
B1704384307748N07657846EA0272402772
B1704394307749N07657853EA0272302771
B1704404307750N07657861EA0272202770
B1704414307751N07657869EA0272102769
B1704424307752N07657877EA0272002768
B1704434307753N07657885EA0271802766
B1704444307754N07657893EA0271702765
B1704454307755N07657900EA0271602764
B1704464307756N07657908EA0271502763
B1704474307757N07657916EA0271402762
B1704484307758N07657924EA0271202760
B1704494307759N07657932EA0271102759
B1704504307760N07657940EA0271002758
B1704514307761N07657947EA0270902757
B1704524307762N07657955EA0270802756
B1704534307763N07657963EA0270602754
B1704544307764N07657971EA0270502753
B1704554307765N07657979EA0270402752
B1704564307766N07657987EA0270302751
B1704574307767N07657994EA0270202750
B1704584307768N07658002EA0270002748
B1704594307769N07658010EA0269902747
B1705004307769N07658018EA0269802746
B1705014307770N07658026EA0269702745
B1705024307771N07658033EA0269602744
B1705034307772N07658041EA0269402742
B1705044307773N07658049EA0269302741
B1705054307774N07658057EA0269202740
B1705064307775N07658065EA0269102739
B1705074307776N07658073EA0269002738
B1705084307777N07658080EA0268802736
B1705094307778N07658088EA0268702735
B1705104307779N07658096EA0268602734
B1705114307780N07658104EA0268502733
B1705124307781N07658112EA0268402732
B1705134307782N07658120EA0268202730
B1705144307783N07658127EA0268102729
B1705154307784N07658135EA0268002728
B1705164307785N07658143EA0267902727
B1705174307786N07658151EA0267802726
B1705184307787N07658159EA0267602724
B1705194307788N07658167EA0267502723
B1705204307789N07658174EA0267402722
B1705214307790N07658182EA0267302721
B1705224307791N07658190EA0267202720
B1705234307792N07658198EA0267002718
B1705244307793N07658206EA0266902717
B1705254307794N07658214EA0266802716
B1705264307795N07658221EA0266702715
B1705274307796N07658229EA0266602714
B1705284307797N07658237EA0266402712
B1705294307798N07658245EA0266302711
B1705304307799N07658253EA0266202710
B1705314307800N07658261EA0266102709
B1705324307801N07658268EA0266002708
B1705334307801N07658276EA0265802706
B1705344307802N07658284EA0265702705
B1705354307803N07658292EA0265602704
B1705364307804N07658300EA0265502703
B1705374307805N07658307EA0265402702
B1705384307806N07658315EA0265202700
B1705394307807N07658323EA0265102699
B1705404307808N07658331EA0265002698
B1705414307809N07658339EA0264902697
B1705424307810N07658347EA0264802696
B1705434307811N07658354EA0264602694
B1705444307812N07658362EA0264502693
B1705454307813N07658370EA0264402692
B1705464307814N07658378EA0264302691
B1705474307815N07658386EA0264202690
B1705484307816N07658394EA0264002688
B1705494307817N07658401EA0263902687
B1705504307818N07658409EA0263802686
B1705514307819N07658417EA0263702685
B1705524307820N07658425EA0263602684
B1705534307821N07658433EA0263402682
B1705544307822N07658441EA0263302681
B1705554307823N07658448EA0263202680
B1705564307824N07658456EA0263102679
B1705574307825N07658464EA0263002678
B1705584307826N07658472EA0262802676
B1705594307827N07658480EA0262702675
B1706004307828N07658488EA0262602674
B1706014307829N07658495EA0262502673
B1706024307830N07658503EA0262402672
B1706034307831N07658511EA0262202670
B1706044307832N07658519EA0262102669
B1706054307833N07658527EA0262002668
B1706064307834N07658534EA0261902667
B1706074307834N07658542EA0261802666
B1706084307835N07658550EA0261602664
B1706094307836N07658558EA0261502663
B1706104307837N07658566EA0261402662
B1706114307838N07658574EA0261302661
B1706124307839N07658581EA0261202660
B1706134307840N07658589EA0261002658
B1706144307841N07658597EA0260902657
B1706154307842N07658605EA0260802656
B1706164307843N07658613EA0260702655
B1706174307844N07658621EA0260602654
B1706184307845N07658628EA0260402652
B1706194307846N07658636EA0260302651
B1706204307847N07658644EA0260202650
B1706214307848N07658652EA0260102649
B1706224307849N07658660EA0260002648
B1706234307850N07658668EA0259802646
B1706244307851N07658675EA0259702645
B1706254307852N07658683EA0259602644
B1706264307853N07658691EA0259502643
B1706274307854N07658699EA0259402642
B1706284307855N07658707EA0259202640
B1706294307856N07658715EA0259102639
B1706304307857N07658722EA0259002638
B1706314307858N07658730EA0258902637
B1706324307859N07658738EA0258802636
B1706334307860N07658746EA0258602634
B1706344307861N07658754EA0258502633
B1706354307862N07658762EA0258402632
B1706364307863N07658769EA0258302631
B1706374307864N07658777EA0258202630
B1706384307865N07658785EA0258002628
B1706394307866N07658793EA0257902627
B1706404307866N07658801EA0257802626
B1706414307867N07658808EA0257702625
B1706424307868N07658816EA0257602624
B1706434307869N07658824EA0257402622
B1706444307870N07658832EA0257302621
B1706454307871N07658840EA0257202620
B1706464307872N07658848EA0257102619
B1706474307873N07658855EA0257002618
B1706484307874N07658863EA0256802616
B1706494307875N07658871EA0256702615
B1706504307876N07658879EA0256602614
B1706514307877N07658887EA0256502613
B1706524307878N07658895EA0256402612
B1706534307879N07658902EA0256202610
B1706544307880N07658910EA0256102609
B1706554307881N07658918EA0256002608
B1706564307882N07658926EA0255902607
B1706574307883N07658934EA0255802606
B1706584307884N07658942EA0255602604
B1706594307885N07658949EA0255502603
B1707004307886N07658957EA0255402602
B1707014307887N07658965EA0255302601
B1707024307888N07658973EA0255202600
B1707034307889N07658981EA0255002598
B1707044307890N07658989EA0254902597
B1707054307891N07658996EA0254802596
B1707064307892N07659004EA0254702595
B1707074307893N07659012EA0254602594
B1707084307894N07659020EA0254402592
B1707094307895N07659028EA0254302591
B1707104307896N07659036EA0254202590
B1707114307897N07659043EA0254102589
B1707124307898N07659051EA0254002588
B1707134307899N07659059EA0253802586
B1707144307899N07659067EA0253702585
B1707154307900N07659075EA0253602584
B1707164307901N07659082EA0253502583
B1707174307902N07659090EA0253402582
B1707184307903N07659098EA0253202580
B1707194307904N07659106EA0253102579
B1707204307905N07659114EA0253002578
B1707214307906N07659122EA0252902577
B1707224307907N07659129EA0252802576
B1707234307908N07659137EA0252602574
B1707244307909N07659145EA0252502573
B1707254307910N07659153EA0252402572
B1707264307911N07659161EA0252302571
B1707274307912N07659169EA0252202570
B1707284307913N07659176EA0252002568
B1707294307914N07659184EA0251902567
B1707304307915N07659192EA0251802566
B1707314307916N07659200EA0251702565
B1707324307917N07659208EA0251602564
B1707334307918N07659216EA0251402562
B1707344307919N07659223EA0251302561
B1707354307920N07659231EA0251202560
B1707364307921N07659239EA0251102559
B1707374307922N07659247EA0251002558
B1707384307923N07659255EA0250802556
B1707394307924N07659263EA0250702555
B1707404307925N07659270EA0250602554
B1707414307926N07659278EA0250502553
B1707424307927N07659286EA0250402552
B1707434307928N07659294EA0250202550
B1707444307929N07659302EA0250102549
B1707454307930N07659309EA0250002548
B1707464307931N07659317EA0249902547
B1707474307931N07659325EA0249802546
B1707484307932N07659333EA0249602544
B1707494307933N07659341EA0249502543
B1707504307934N07659349EA0249402542
B1707514307935N07659356EA0249302541
B1707524307936N07659364EA0249202540
B1707534307937N07659372EA0249002538
B1707544307938N07659380EA0248902537
B1707554307939N07659388EA0248802536
B1707564307940N07659396EA0248702535
B1707574307941N07659403EA0248602534
B1707584307942N07659411EA0248402532
B1707594307943N07659419EA0248302531
LSKY Generated fixture  do not edit by hand
GDEADBEEF00000000000000000000000000000000
