AXCT Skyline fixture generator
HFDTEDATE:150726,01
HFPLTPILOTINCHARGE:Test Pilot
HFGTYGLIDERTYPE:Ozone Zeno 2
HFGIDGLIDERID:FIXTURE
HFDTM100GPSDATUM:WGS-1984
HFFTYFRTYPE:Skyline,Fixture
B0830004307680N07657300EA0235002398
B0830014307679N07657315EA0235202400
B0830024307674N07657329EA0235402402
B0830034307667N07657340EA0235502403
B0830044307658N07657348EA0235702405
B0830054307648N07657351EA0235902407
B0830064307638N07657350EA0236102409
B0830074307629N07657344EA0236202410
B0830084307622N07657335EA0236402412
B0830094307617N07657323EA0236602414
B0830104307616N07657310EA0236802416
B0830114307618N07657297EA0236902417
B0830124307623N07657285EA0237102419
B0830134307630N07657276EA0237302421
B0830144307640N07657271EA0237502423
B0830154307651N07657270EA0237602424
B0830164307661N07657273EA0237802426
B0830174307671N07657281EA0238002428
B0830184307678N07657292EA0238202430
B0830194307683N07657305EA0238302431
B0830204307685N07657321EA0238502433
B0830214307684N07657336EA0238702435
B0830224307680N07657350EA0238902437
B0830234307672N07657361EA0239002438
B0830244307663N07657368EA0239202440
B0830254307653N07657372EA0239402442
B0830264307643N07657370EA0239602444
B0830274307634N07657365EA0239702445
B0830284307627N07657356EA0239902447
B0830294307623N07657344EA0240102449
B0830304307621N07657331EA0240302451
B0830314307623N07657318EA0240402452
B0830324307628N07657306EA0240602454
B0830334307636N07657297EA0240802456
B0830344307645N07657292EA0241002458
B0830354307656N07657290EA0241102459
B0830364307667N07657294EA0241302461
B0830374307676N07657301EA0241502463
B0830384307684N07657312EA0241702465
B0830394307689N07657326EA0241802466
B0830404307691N07657341EA0242002468
B0830414307689N07657357EA0242202470
B0830424307685N07657370EA0242402472
B0830434307678N07657382EA0242502473
B0830444307669N07657389EA0242702475
B0830454307659N07657392EA0242902477
B0830464307649N07657391EA0243102479
B0830474307640N07657386EA0243202480
B0830484307632N07657377EA0243402482
B0830494307628N07657365EA0243602484
B0830504307627N07657352EA0243802486
B0830514307629N07657339EA0243902487
B0830524307634N07657327EA0244102489
B0830534307641N07657318EA0244302491
B0830544307651N07657312EA0244502493
B0830554307661N07657311EA0244602494
B0830564307672N07657314EA0244802496
B0830574307682N07657322EA0245002498
B0830584307689N07657333EA0245202500
B0830594307694N07657347EA0245302501
B0831004307696N07657362EA0245502503
B0831014307695N07657377EA0245702505
B0831024307690N07657391EA0245902507
B0831034307683N07657402EA0246002508
B0831044307674N07657410EA0246202510
B0831054307664N07657413EA0246402512
B0831064307654N07657412EA0246602514
B0831074307645N07657406EA0246702515
B0831084307638N07657397EA0246902517
B0831094307633N07657385EA0247102519
B0831104307632N07657372EA0247302521
B0831114307634N07657359EA0247402522
B0831124307639N07657348EA0247602524
B0831134307647N07657338EA0247802526
B0831144307656N07657333EA0248002528
B0831154307667N07657332EA0248102529
B0831164307677N07657335EA0248302531
B0831174307687N07657343EA0248502533
B0831184307695N07657354EA0248702535
B0831194307700N07657368EA0248802536
B0831204307702N07657383EA0249002538
B0831214307700N07657398EA0249202540
B0831224307696N07657412EA0249402542
B0831234307689N07657423EA0249502543
B0831244307680N07657430EA0249702545
B0831254307669N07657434EA0249902547
B0831264307659N07657432EA0250102549
B0831274307650N07657427EA0250202550
B0831284307643N07657418EA0250402552
B0831294307639N07657406EA0250602554
B0831304307637N07657393EA0250802556
B0831314307639N07657380EA0250902557
B0831324307644N07657368EA0251102559
B0831334307652N07657359EA0251302561
B0831344307662N07657354EA0251502563
B0831354307672N07657352EA0251602564
B0831364307683N07657356EA0251802566
B0831374307692N07657363EA0252002568
B0831384307700N07657374EA0252202570
B0831394307705N07657388EA0252302571
B0831404307707N07657403EA0252502573
B0831414307706N07657419EA0252702575
B0831424307701N07657432EA0252902577
B0831434307694N07657444EA0253002578
B0831444307685N07657451EA0253202580
B0831454307675N07657454EA0253402582
B0831464307665N07657453EA0253602584
B0831474307656N07657448EA0253702585
B0831484307649N07657439EA0253902587
B0831494307644N07657427EA0254102589
B0831504307643N07657414EA0254302591
B0831514307645N07657401EA0254402592
B0831524307650N07657389EA0254602594
B0831534307657N07657380EA0254802596
B0831544307667N07657374EA0255002598
B0831554307678N07657373EA0255102599
B0831564307688N07657376EA0255302601
B0831574307698N07657384EA0255502603
B0831584307705N07657395EA0255702605
B0831594307710N07657409EA0255802606
B0832004307712N07657424EA0256002608
B0832014307711N07657439EA0256202610
B0832024307706N07657453EA0256402612
B0832034307699N07657464EA0256502613
B0832044307690N07657472EA0256702615
B0832054307680N07657475EA0256902617
B0832064307670N07657474EA0257102619
B0832074307661N07657468EA0257202620
B0832084307654N07657459EA0257402622
B0832094307650N07657448EA0257602624
B0832104307648N07657434EA0257802626
B0832114307650N07657421EA0257902627
B0832124307655N07657410EA0258102629
B0832134307663N07657400EA0258302631
B0832144307672N07657395EA0258502633
B0832154307683N07657394EA0258602634
B0832164307694N07657397EA0258802636
B0832174307703N07657405EA0259002638
B0832184307711N07657416EA0259202640
B0832194307716N07657430EA0259302641
B0832204307718N07657445EA0259502643
B0832214307716N07657460EA0259702645
B0832224307712N07657474EA0259902647
B0832234307705N07657485EA0260002648
B0832244307696N07657492EA0260202650
B0832254307686N07657496EA0260402652
B0832264307676N07657494EA0260602654
B0832274307667N07657489EA0260702655
B0832284307659N07657480EA0260902657
B0832294307655N07657468EA0261102659
B0832304307654N07657455EA0261302661
B0832314307655N07657442EA0261402662
B0832324307661N07657430EA0261602664
B0832334307668N07657421EA0261802666
B0832344307678N07657416EA0262002668
B0832354307688N07657414EA0262102669
B0832364307699N07657418EA0262302671
B0832374307709N07657425EA0262502673
B0832384307716N07657436EA0262702675
B0832394307721N07657450EA0262802676
B0832404307723N07657465EA0263002678
B0832414307722N07657481EA0263202680
B0832424307717N07657494EA0263402682
B0832434307710N07657506EA0263502683
B0832444307701N07657513EA0263702685
B0832454307691N07657516EA0263902687
B0832464307681N07657515EA0264102689
B0832474307672N07657510EA0264202690
B0832484307665N07657501EA0264402692
B0832494307660N07657489EA0264602694
B0832504307659N07657476EA0264802696
B0832514307661N07657463EA0264902697
B0832524307666N07657451EA0265102699
B0832534307674N07657442EA0265302701
B0832544307683N07657436EA0265502703
B0832554307694N07657435EA0265602704
B0832564307704N07657438EA0265802706
B0832574307714N07657446EA0266002708
B0832584307722N07657457EA0266202710
B0832594307727N07657471EA0266302711
B0833004307729N07657486EA0266502713
B0833014307727N07657501EA0266702715
B0833024307723N07657515EA0266902717
B0833034307716N07657526EA0267002718
B0833044307706N07657534EA0267202720
B0833054307696N07657537EA0267402722
B0833064307686N07657536EA0267602724
B0833074307677N07657530EA0267702725
B0833084307670N07657521EA0267902727
B0833094307666N07657510EA0268102729
B0833104307664N07657496EA0268302731
B0833114307666N07657483EA0268402732
B0833124307671N07657472EA0268602734
B0833134307679N07657463EA0268802736
B0833144307689N07657457EA0269002738
B0833154307699N07657456EA0269102739
B0833164307710N07657459EA0269302741
B0833174307719N07657467EA0269502743
B0833184307727N07657478EA0269702745
B0833194307732N07657492EA0269802746
B0833204307734N07657507EA0270002748
B0833214307733N07657522EA0270202750
B0833224307728N07657536EA0270402752
B0833234307721N07657547EA0270502753
B0833244307712N07657554EA0270702755
B0833254307702N07657558EA0270902757
B0833264307692N07657557EA0271102759
B0833274307683N07657551EA0271202760
B0833284307676N07657542EA0271402762
B0833294307671N07657530EA0271602764
B0833304307670N07657517EA0271802766
B0833314307672N07657504EA0271902767
B0833324307677N07657492EA0272102769
B0833334307684N07657483EA0272302771
B0833344307694N07657478EA0272502773
B0833354307705N07657477EA0272602774
B0833364307715N07657480EA0272802776
B0833374307725N07657487EA0273002778
B0833384307732N07657498EA0273202780
B0833394307737N07657512EA0273302781
B0833404307739N07657527EA0273502783
B0833414307738N07657543EA0273702785
B0833424307733N07657556EA0273902787
B0833434307726N07657568EA0274002788
B0833444307717N07657575EA0274202790
B0833454307707N07657578EA0274402792
B0833464307697N07657577EA0274602794
B0833474307688N07657572EA0274702795
B0833484307681N07657563EA0274902797
B0833494307677N07657551EA0275102799
B0833504307675N07657538EA0275302801
B0833514307677N07657525EA0275402802
B0833524307682N07657513EA0275602804
B0833534307690N07657504EA0275802806
B0833544307699N07657498EA0276002808
B0833554307710N07657497EA0276102809
B0833564307721N07657500EA0276302811
B0833574307730N07657508EA0276502813
B0833584307738N07657519EA0276702815
B0833594307743N07657533EA0276802816
B0834004307711N07657548EA0277002818
B0834014307712N07657556EA0276902817
B0834024307713N07657564EA0276802816
B0834034307714N07657572EA0276602814
B0834044307715N07657579EA0276502813
B0834054307716N07657587EA0276402812
B0834064307717N07657595EA0276302811
B0834074307718N07657603EA0276202810
B0834084307719N07657611EA0276002808
B0834094307720N07657619EA0275902807
B0834104307721N07657626EA0275802806
B0834114307722N07657634EA0275702805
B0834124307723N07657642EA0275602804
B0834134307724N07657650EA0275402802
B0834144307725N07657658EA0275302801
B0834154307726N07657666EA0275202800
B0834164307727N07657673EA0275102799
B0834174307728N07657681EA0275002798
B0834184307729N07657689EA0274802796
B0834194307730N07657697EA0274702795
B0834204307731N07657705EA0274602794
B0834214307732N07657713EA0274502793
B0834224307733N07657720EA0274402792
B0834234307734N07657728EA0274202790
B0834244307735N07657736EA0274102789
B0834254307736N07657744EA0274002788
B0834264307736N07657752EA0273902787
B0834274307737N07657760EA0273802786
B0834284307738N07657767EA0273602784
B0834294307739N07657775EA0273502783
B0834304307740N07657783EA0273402782
B0834314307741N07657791EA0273302781
B0834324307742N07657799EA0273202780
B0834334307743N07657806EA0273002778
B0834344307744N07657814EA0272902777
B0834354307745N07657822EA0272802776
B0834364307746N07657830EA0272702775
B0834374307747N07657838EA0272602774
B0834384307748N07657846EA0272402772
B0834394307749N07657853EA0272302771
B0834404307750N07657861EA0272202770
B0834414307751N07657869EA0272102769
B0834424307752N07657877EA0272002768
B0834434307753N07657885EA0271802766
B0834444307754N07657893EA0271702765
B0834454307755N07657900EA0271602764
B0834464307756N07657908EA0271502763
B0834474307757N07657916EA0271402762
B0834484307758N07657924EA0271202760
B0834494307759N07657932EA0271102759
B0834504307760N07657940EA0271002758
B0834514307761N07657947EA0270902757
B0834524307762N07657955EA0270802756
B0834534307763N07657963EA0270602754
B0834544307764N07657971EA0270502753
B0834554307765N07657979EA0270402752
B0834564307766N07657987EA0270302751
B0834574307767N07657994EA0270202750
B0834584307768N07658002EA0270002748
B0834594307769N07658010EA0269902747
B0835004307769N07658018EA0269802746
B0835014307770N07658026EA0269702745
B0835024307771N07658033EA0269602744
B0835034307772N07658041EA0269402742
B0835044307773N07658049EA0269302741
B0835054307774N07658057EA0269202740
B0835064307775N07658065EA0269102739
B0835074307776N07658073EA0269002738
B0835084307777N07658080EA0268802736
B0835094307778N07658088EA0268702735
B0835104307779N07658096EA0268602734
B0835114307780N07658104EA0268502733
B0835124307781N07658112EA0268402732
B0835134307782N07658120EA0268202730
B0835144307783N07658127EA0268102729
B0835154307784N07658135EA0268002728
B0835164307785N07658143EA0267902727
B0835174307786N07658151EA0267802726
B0835184307787N07658159EA0267602724
B0835194307788N07658167EA0267502723
B0835204307789N07658174EA0267402722
B0835214307790N07658182EA0267302721
B0835224307791N07658190EA0267202720
B0835234307792N07658198EA0267002718
B0835244307793N07658206EA0266902717
B0835254307794N07658214EA0266802716
B0835264307795N07658221EA0266702715
B0835274307796N07658229EA0266602714
B0835284307797N07658237EA0266402712
B0835294307798N07658245EA0266302711
B0835304307799N07658253EA0266202710
B0835314307800N07658261EA0266102709
B0835324307801N07658268EA0266002708
B0835334307801N07658276EA0265802706
B0835344307802N07658284EA0265702705
B0835354307803N07658292EA0265602704
B0835364307804N07658300EA0265502703
B0835374307805N07658307EA0265402702
B0835384307806N07658315EA0265202700
B0835394307807N07658323EA0265102699
B0835404307808N07658331EA0265002698
B0835414307809N07658339EA0264902697
B0835424307810N07658347EA0264802696
B0835434307811N07658354EA0264602694
B0835444307812N07658362EA0264502693
B0835454307813N07658370EA0264402692
B0835464307814N07658378EA0264302691
B0835474307815N07658386EA0264202690
B0835484307816N07658394EA0264002688
B0835494307817N07658401EA0263902687
B0835504307818N07658409EA0263802686
B0835514307819N07658417EA0263702685
B0835524307820N07658425EA0263602684
B0835534307821N07658433EA0263402682
B0835544307822N07658441EA0263302681
B0835554307823N07658448EA0263202680
B0835564307824N07658456EA0263102679
B0835574307825N07658464EA0263002678
B0835584307826N07658472EA0262802676
B0835594307827N07658480EA0262702675
B0836004307828N07658488EA0262602674
B0836014307829N07658495EA0262502673
B0836024307830N07658503EA0262402672
B0836034307831N07658511EA0262202670
B0836044307832N07658519EA0262102669
B0836054307833N07658527EA0262002668
B0836064307834N07658534EA0261902667
B0836074307834N07658542EA0261802666
B0836084307835N07658550EA0261602664
B0836094307836N07658558EA0261502663
B0836104307837N07658566EA0261402662
B0836114307838N07658574EA0261302661
B0836124307839N07658581EA0261202660
B0836134307840N07658589EA0261002658
B0836144307841N07658597EA0260902657
B0836154307842N07658605EA0260802656
B0836164307843N07658613EA0260702655
B0836174307844N07658621EA0260602654
B0836184307845N07658628EA0260402652
B0836194307846N07658636EA0260302651
B0836204307847N07658644EA0260202650
B0836214307848N07658652EA0260102649
B0836224307849N07658660EA0260002648
B0836234307850N07658668EA0259802646
B0836244307851N07658675EA0259702645
B0836254307852N07658683EA0259602644
B0836264307853N07658691EA0259502643
B0836274307854N07658699EA0259402642
B0836284307855N07658707EA0259202640
B0836294307856N07658715EA0259102639
B0836304307857N07658722EA0259002638
B0836314307858N07658730EA0258902637
B0836324307859N07658738EA0258802636
B0836334307860N07658746EA0258602634
B0836344307861N07658754EA0258502633
B0836354307862N07658762EA0258402632
B0836364307863N07658769EA0258302631
B0836374307864N07658777EA0258202630
B0836384307865N07658785EA0258002628
B0836394307866N07658793EA0257902627
B0836404307866N07658801EA0257802626
B0836414307867N07658808EA0257702625
B0836424307868N07658816EA0257602624
B0836434307869N07658824EA0257402622
B0836444307870N07658832EA0257302621
B0836454307871N07658840EA0257202620
B0836464307872N07658848EA0257102619
B0836474307873N07658855EA0257002618
B0836484307874N07658863EA0256802616
B0836494307875N07658871EA0256702615
B0836504307876N07658879EA0256602614
B0836514307877N07658887EA0256502613
B0836524307878N07658895EA0256402612
B0836534307879N07658902EA0256202610
B0836544307880N07658910EA0256102609
B0836554307881N07658918EA0256002608
B0836564307882N07658926EA0255902607
B0836574307883N07658934EA0255802606
B0836584307884N07658942EA0255602604
B0836594307885N07658949EA0255502603
B0837004307886N07658957EA0255402602
B0837014307887N07658965EA0255302601
B0837024307888N07658973EA0255202600
B0837034307889N07658981EA0255002598
B0837044307890N07658989EA0254902597
B0837054307891N07658996EA0254802596
B0837064307892N07659004EA0254702595
B0837074307893N07659012EA0254602594
B0837084307894N07659020EA0254402592
B0837094307895N07659028EA0254302591
B0837104307896N07659036EA0254202590
B0837114307897N07659043EA0254102589
B0837124307898N07659051EA0254002588
B0837134307899N07659059EA0253802586
B0837144307899N07659067EA0253702585
B0837154307900N07659075EA0253602584
B0837164307901N07659082EA0253502583
B0837174307902N07659090EA0253402582
B0837184307903N07659098EA0253202580
B0837194307904N07659106EA0253102579
B0837204307905N07659114EA0253002578
B0837214307906N07659122EA0252902577
B0837224307907N07659129EA0252802576
B0837234307908N07659137EA0252602574
B0837244307909N07659145EA0252502573
B0837254307910N07659153EA0252402572
B0837264307911N07659161EA0252302571
B0837274307912N07659169EA0252202570
B0837284307913N07659176EA0252002568
B0837294307914N07659184EA0251902567
B0837304307915N07659192EA0251802566
B0837314307916N07659200EA0251702565
B0837324307917N07659208EA0251602564
B0837334307918N07659216EA0251402562
B0837344307919N07659223EA0251302561
B0837354307920N07659231EA0251202560
B0837364307921N07659239EA0251102559
B0837374307922N07659247EA0251002558
B0837384307923N07659255EA0250802556
B0837394307924N07659263EA0250702555
B0837404307925N07659270EA0250602554
B0837414307926N07659278EA0250502553
B0837424307927N07659286EA0250402552
B0837434307928N07659294EA0250202550
B0837444307929N07659302EA0250102549
B0837454307930N07659309EA0250002548
B0837464307931N07659317EA0249902547
B0837474307931N07659325EA0249802546
B0837484307932N07659333EA0249602544
B0837494307933N07659341EA0249502543
B0837504307934N07659349EA0249402542
B0837514307935N07659356EA0249302541
B0837524307936N07659364EA0249202540
B0837534307937N07659372EA0249002538
B0837544307938N07659380EA0248902537
B0837554307939N07659388EA0248802536
B0837564307940N07659396EA0248702535
B0837574307941N07659403EA0248602534
B0837584307942N07659411EA0248402532
B0837594307943N07659419EA0248302531
LSKY Generated fixture  do not edit by hand
GDEADBEEF00000000000000000000000000000000
