AXCT Skyline fixture generator
HFDTE150726
HFPLTPILOTINCHARGE:Test Pilot
HFGTYGLIDERTYPE:Ozone Zeno 2
HFGIDGLIDERID:FIXTURE
HFDTM100GPSDATUM:WGS-1984
HFFTYFRTYPE:Skyline,Fixture
I043638FXA3940SIU4144GSP4547ENL
B1600004307680N07657300EA0235002398012090385000
B1600014307679N07657315EA0235202400012090385000
B1600024307674N07657329EA0235402402012090385000
B1600034307667N07657340EA0235502403012090385000
B1600044307658N07657348EA0235702405012090385000
B1600054307648N07657351EA0235902407012090385000
B1600064307638N07657350EA0236102409012090385000
B1600074307629N07657344EA0236202410012090385000
B1600084307622N07657335EA0236402412012090385000
B1600094307617N07657323EA0236602414012090385000
B1600104307616N07657310EA0236802416012090385000
B1600114307618N07657297EA0236902417012090385000
B1600124307623N07657285EA0237102419012090385000
B1600134307630N07657276EA0237302421012090385000
B1600144307640N07657271EA0237502423012090385000
B1600154307651N07657270EA0237602424012090385000
B1600164307661N07657273EA0237802426012090385000
B1600174307671N07657281EA0238002428012090385000
B1600184307678N07657292EA0238202430012090385000
B1600194307683N07657305EA0238302431012090385000
B1600204307685N07657321EA0238502433012090385000
B1600214307684N07657336EA0238702435012090385000
B1600224307680N07657350EA0238902437012090385000
B1600234307672N07657361EA0239002438012090385000
B1600244307663N07657368EA0239202440012090385000
B1600254307653N07657372EA0239402442012090385000
B1600264307643N07657370EA0239602444012090385000
B1600274307634N07657365EA0239702445012090385000
B1600284307627N07657356EA0239902447012090385000
B1600294307623N07657344EA0240102449012090385000
B1600304307621N07657331EA0240302451012090385000
B1600314307623N07657318EA0240402452012090385000
B1600324307628N07657306EA0240602454012090385000
B1600334307636N07657297EA0240802456012090385000
B1600344307645N07657292EA0241002458012090385000
B1600354307656N07657290EA0241102459012090385000
B1600364307667N07657294EA0241302461012090385000
B1600374307676N07657301EA0241502463012090385000
B1600384307684N07657312EA0241702465012090385000
B1600394307689N07657326EA0241802466012090385000
B1600404307691N07657341EA0242002468012090385000
B1600414307689N07657357EA0242202470012090385000
B1600424307685N07657370EA0242402472012090385000
B1600434307678N07657382EA0242502473012090385000
B1600444307669N07657389EA0242702475012090385000
B1600454307659N07657392EA0242902477012090385000
B1600464307649N07657391EA0243102479012090385000
B1600474307640N07657386EA0243202480012090385000
B1600484307632N07657377EA0243402482012090385000
B1600494307628N07657365EA0243602484012090385000
B1600504307627N07657352EA0243802486012090385000
B1600514307629N07657339EA0243902487012090385000
B1600524307634N07657327EA0244102489012090385000
B1600534307641N07657318EA0244302491012090385000
B1600544307651N07657312EA0244502493012090385000
B1600554307661N07657311EA0244602494012090385000
B1600564307672N07657314EA0244802496012090385000
B1600574307682N07657322EA0245002498012090385000
B1600584307689N07657333EA0245202500012090385000
B1600594307694N07657347EA0245302501012090385000
B1601004307696N07657362EA0245502503012090385000
B1601014307695N07657377EA0245702505012090385000
B1601024307690N07657391EA0245902507012090385000
B1601034307683N07657402EA0246002508012090385000
B1601044307674N07657410EA0246202510012090385000
B1601054307664N07657413EA0246402512012090385000
B1601064307654N07657412EA0246602514012090385000
B1601074307645N07657406EA0246702515012090385000
B1601084307638N07657397EA0246902517012090385000
B1601094307633N07657385EA0247102519012090385000
B1601104307632N07657372EA0247302521012090385000
B1601114307634N07657359EA0247402522012090385000
B1601124307639N07657348EA0247602524012090385000
B1601134307647N07657338EA0247802526012090385000
B1601144307656N07657333EA0248002528012090385000
B1601154307667N07657332EA0248102529012090385000
B1601164307677N07657335EA0248302531012090385000
B1601174307687N07657343EA0248502533012090385000
B1601184307695N07657354EA0248702535012090385000
B1601194307700N07657368EA0248802536012090385000
B1601204307702N07657383EA0249002538012090385000
B1601214307700N07657398EA0249202540012090385000
B1601224307696N07657412EA0249402542012090385000
B1601234307689N07657423EA0249502543012090385000
B1601244307680N07657430EA0249702545012090385000
B1601254307669N07657434EA0249902547012090385000
B1601264307659N07657432EA0250102549012090385000
B1601274307650N07657427EA0250202550012090385000
B1601284307643N07657418EA0250402552012090385000
B1601294307639N07657406EA0250602554012090385000
B1601304307637N07657393EA0250802556012090385000
B1601314307639N07657380EA0250902557012090385000
B1601324307644N07657368EA0251102559012090385000
B1601334307652N07657359EA0251302561012090385000
B1601344307662N07657354EA0251502563012090385000
B1601354307672N07657352EA0251602564012090385000
B1601364307683N07657356EA0251802566012090385000
B1601374307692N07657363EA0252002568012090385000
B1601384307700N07657374EA0252202570012090385000
B1601394307705N07657388EA0252302571012090385000
B1601404307707N07657403EA0252502573012090385000
B1601414307706N07657419EA0252702575012090385000
B1601424307701N07657432EA0252902577012090385000
B1601434307694N07657444EA0253002578012090385000
B1601444307685N07657451EA0253202580012090385000
B1601454307675N07657454EA0253402582012090385000
B1601464307665N07657453EA0253602584012090385000
B1601474307656N07657448EA0253702585012090385000
B1601484307649N07657439EA0253902587012090385000
B1601494307644N07657427EA0254102589012090385000
B1601504307643N07657414EA0254302591012090385000
B1601514307645N07657401EA0254402592012090385000
B1601524307650N07657389EA0254602594012090385000
B1601534307657N07657380EA0254802596012090385000
B1601544307667N07657374EA0255002598012090385000
B1601554307678N07657373EA0255102599012090385000
B1601564307688N07657376EA0255302601012090385000
B1601574307698N07657384EA0255502603012090385000
B1601584307705N07657395EA0255702605012090385000
B1601594307710N07657409EA0255802606012090385000
B1602004307712N07657424EA0256002608012090385000
B1602014307711N07657439EA0256202610012090385000
B1602024307706N07657453EA0256402612012090385000
B1602034307699N07657464EA0256502613012090385000
B1602044307690N07657472EA0256702615012090385000
B1602054307680N07657475EA0256902617012090385000
B1602064307670N07657474EA0257102619012090385000
B1602074307661N07657468EA0257202620012090385000
B1602084307654N07657459EA0257402622012090385000
B1602094307650N07657448EA0257602624012090385000
B1602104307648N07657434EA0257802626012090385000
B1602114307650N07657421EA0257902627012090385000
B1602124307655N07657410EA0258102629012090385000
B1602134307663N07657400EA0258302631012090385000
B1602144307672N07657395EA0258502633012090385000
B1602154307683N07657394EA0258602634012090385000
B1602164307694N07657397EA0258802636012090385000
B1602174307703N07657405EA0259002638012090385000
B1602184307711N07657416EA0259202640012090385000
B1602194307716N07657430EA0259302641012090385000
B1602204307718N07657445EA0259502643012090385000
B1602214307716N07657460EA0259702645012090385000
B1602224307712N07657474EA0259902647012090385000
B1602234307705N07657485EA0260002648012090385000
B1602244307696N07657492EA0260202650012090385000
B1602254307686N07657496EA0260402652012090385000
B1602264307676N07657494EA0260602654012090385000
B1602274307667N07657489EA0260702655012090385000
B1602284307659N07657480EA0260902657012090385000
B1602294307655N07657468EA0261102659012090385000
B1602304307654N07657455EA0261302661012090385000
B1602314307655N07657442EA0261402662012090385000
B1602324307661N07657430EA0261602664012090385000
B1602334307668N07657421EA0261802666012090385000
B1602344307678N07657416EA0262002668012090385000
B1602354307688N07657414EA0262102669012090385000
B1602364307699N07657418EA0262302671012090385000
B1602374307709N07657425EA0262502673012090385000
B1602384307716N07657436EA0262702675012090385000
B1602394307721N07657450EA0262802676012090385000
B1602404307723N07657465EA0263002678012090385000
B1602414307722N07657481EA0263202680012090385000
B1602424307717N07657494EA0263402682012090385000
B1602434307710N07657506EA0263502683012090385000
B1602444307701N07657513EA0263702685012090385000
B1602454307691N07657516EA0263902687012090385000
B1602464307681N07657515EA0264102689012090385000
B1602474307672N07657510EA0264202690012090385000
B1602484307665N07657501EA0264402692012090385000
B1602494307660N07657489EA0264602694012090385000
B1602504307659N07657476EA0264802696012090385000
B1602514307661N07657463EA0264902697012090385000
B1602524307666N07657451EA0265102699012090385000
B1602534307674N07657442EA0265302701012090385000
B1602544307683N07657436EA0265502703012090385000
B1602554307694N07657435EA0265602704012090385000
B1602564307704N07657438EA0265802706012090385000
B1602574307714N07657446EA0266002708012090385000
B1602584307722N07657457EA0266202710012090385000
B1602594307727N07657471EA0266302711012090385000
B1603004307729N07657486EA0266502713012090385000
B1603014307727N07657501EA0266702715012090385000
B1603024307723N07657515EA0266902717012090385000
B1603034307716N07657526EA0267002718012090385000
B1603044307706N07657534EA0267202720012090385000
B1603054307696N07657537EA0267402722012090385000
B1603064307686N07657536EA0267602724012090385000
B1603074307677N07657530EA0267702725012090385000
B1603084307670N07657521EA0267902727012090385000
B1603094307666N07657510EA0268102729012090385000
B1603104307664N07657496EA0268302731012090385000
B1603114307666N07657483EA0268402732012090385000
B1603124307671N07657472EA0268602734012090385000
B1603134307679N07657463EA0268802736012090385000
B1603144307689N07657457EA0269002738012090385000
B1603154307699N07657456EA0269102739012090385000
B1603164307710N07657459EA0269302741012090385000
B1603174307719N07657467EA0269502743012090385000
B1603184307727N07657478EA0269702745012090385000
B1603194307732N07657492EA0269802746012090385000
B1603204307734N07657507EA0270002748012090385000
B1603214307733N07657522EA0270202750012090385000
B1603224307728N07657536EA0270402752012090385000
B1603234307721N07657547EA0270502753012090385000
B1603244307712N07657554EA0270702755012090385000
B1603254307702N07657558EA0270902757012090385000
B1603264307692N07657557EA0271102759012090385000
B1603274307683N07657551EA0271202760012090385000
B1603284307676N07657542EA0271402762012090385000
B1603294307671N07657530EA0271602764012090385000
B1603304307670N07657517EA0271802766012090385000
B1603314307672N07657504EA0271902767012090385000
B1603324307677N07657492EA0272102769012090385000
B1603334307684N07657483EA0272302771012090385000
B1603344307694N07657478EA0272502773012090385000
B1603354307705N07657477EA0272602774012090385000
B1603364307715N07657480EA0272802776012090385000
B1603374307725N07657487EA0273002778012090385000
B1603384307732N07657498EA0273202780012090385000
B1603394307737N07657512EA0273302781012090385000
B1603404307739N07657527EA0273502783012090385000
B1603414307738N07657543EA0273702785012090385000
B1603424307733N07657556EA0273902787012090385000
B1603434307726N07657568EA0274002788012090385000
B1603444307717N07657575EA0274202790012090385000
B1603454307707N07657578EA0274402792012090385000
B1603464307697N07657577EA0274602794012090385000
B1603474307688N07657572EA0274702795012090385000
B1603484307681N07657563EA0274902797012090385000
B1603494307677N07657551EA0275102799012090385000
B1603504307675N07657538EA0275302801012090385000
B1603514307677N07657525EA0275402802012090385000
B1603524307682N07657513EA0275602804012090385000
B1603534307690N07657504EA0275802806012090385000
B1603544307699N07657498EA0276002808012090385000
B1603554307710N07657497EA0276102809012090385000
B1603564307721N07657500EA0276302811012090385000
B1603574307730N07657508EA0276502813012090385000
B1603584307738N07657519EA0276702815012090385000
B1603594307743N07657533EA0276802816012090385000
B1604004307711N07657548EA0277002818012090385000
B1604014307712N07657556EA0276902817012090385000
B1604024307713N07657564EA0276802816012090385000
B1604034307714N07657572EA0276602814012090385000
B1604044307715N07657579EA0276502813012090385000
B1604054307716N07657587EA0276402812012090385000
B1604064307717N07657595EA0276302811012090385000
B1604074307718N07657603EA0276202810012090385000
B1604084307719N07657611EA0276002808012090385000
B1604094307720N07657619EA0275902807012090385000
B1604104307721N07657626EA0275802806012090385000
B1604114307722N07657634EA0275702805012090385000
B1604124307723N07657642EA0275602804012090385000
B1604134307724N07657650EA0275402802012090385000
B1604144307725N07657658EA0275302801012090385000
B1604154307726N07657666EA0275202800012090385000
B1604164307727N07657673EA0275102799012090385000
B1604174307728N07657681EA0275002798012090385000
B1604184307729N07657689EA0274802796012090385000
B1604194307730N07657697EA0274702795012090385000
B1604204307731N07657705EA0274602794012090385000
B1604214307732N07657713EA0274502793012090385000
B1604224307733N07657720EA0274402792012090385000
B1604234307734N07657728EA0274202790012090385000
B1604244307735N07657736EA0274102789012090385000
B1604254307736N07657744EA0274002788012090385000
B1604264307736N07657752EA0273902787012090385000
B1604274307737N07657760EA0273802786012090385000
B1604284307738N07657767EA0273602784012090385000
B1604294307739N07657775EA0273502783012090385000
B1604304307740N07657783EA0273402782012090385000
B1604314307741N07657791EA0273302781012090385000
B1604324307742N07657799EA0273202780012090385000
B1604334307743N07657806EA0273002778012090385000
B1604344307744N07657814EA0272902777012090385000
B1604354307745N07657822EA0272802776012090385000
B1604364307746N07657830EA0272702775012090385000
B1604374307747N07657838EA0272602774012090385000
B1604384307748N07657846EA0272402772012090385000
B1604394307749N07657853EA0272302771012090385000
B1604404307750N07657861EA0272202770012090385000
B1604414307751N07657869EA0272102769012090385000
B1604424307752N07657877EA0272002768012090385000
B1604434307753N07657885EA0271802766012090385000
B1604444307754N07657893EA0271702765012090385000
B1604454307755N07657900EA0271602764012090385000
B1604464307756N07657908EA0271502763012090385000
B1604474307757N07657916EA0271402762012090385000
B1604484307758N07657924EA0271202760012090385000
B1604494307759N07657932EA0271102759012090385000
B1604504307760N07657940EA0271002758012090385000
B1604514307761N07657947EA0270902757012090385000
B1604524307762N07657955EA0270802756012090385000
B1604534307763N07657963EA0270602754012090385000
B1604544307764N07657971EA0270502753012090385000
B1604554307765N07657979EA0270402752012090385000
B1604564307766N07657987EA0270302751012090385000
B1604574307767N07657994EA0270202750012090385000
B1604584307768N07658002EA0270002748012090385000
B1604594307769N07658010EA0269902747012090385000
B1605004307769N07658018EA0269802746012090385000
B1605014307770N07658026EA0269702745012090385000
B1605024307771N07658033EA0269602744012090385000
B1605034307772N07658041EA0269402742012090385000
B1605044307773N07658049EA0269302741012090385000
B1605054307774N07658057EA0269202740012090385000
B1605064307775N07658065EA0269102739012090385000
B1605074307776N07658073EA0269002738012090385000
B1605084307777N07658080EA0268802736012090385000
B1605094307778N07658088EA0268702735012090385000
B1605104307779N07658096EA0268602734012090385000
B1605114307780N07658104EA0268502733012090385000
B1605124307781N07658112EA0268402732012090385000
B1605134307782N07658120EA0268202730012090385000
B1605144307783N07658127EA0268102729012090385000
B1605154307784N07658135EA0268002728012090385000
B1605164307785N07658143EA0267902727012090385000
B1605174307786N07658151EA0267802726012090385000
B1605184307787N07658159EA0267602724012090385000
B1605194307788N07658167EA0267502723012090385000
B1605204307789N07658174EA0267402722012090385000
B1605214307790N07658182EA0267302721012090385000
B1605224307791N07658190EA0267202720012090385000
B1605234307792N07658198EA0267002718012090385000
B1605244307793N07658206EA0266902717012090385000
B1605254307794N07658214EA0266802716012090385000
B1605264307795N07658221EA0266702715012090385000
B1605274307796N07658229EA0266602714012090385000
B1605284307797N07658237EA0266402712012090385000
B1605294307798N07658245EA0266302711012090385000
B1605304307799N07658253EA0266202710012090385000
B1605314307800N07658261EA0266102709012090385000
B1605324307801N07658268EA0266002708012090385000
B1605334307801N07658276EA0265802706012090385000
B1605344307802N07658284EA0265702705012090385000
B1605354307803N07658292EA0265602704012090385000
B1605364307804N07658300EA0265502703012090385000
B1605374307805N07658307EA0265402702012090385000
B1605384307806N07658315EA0265202700012090385000
B1605394307807N07658323EA0265102699012090385000
B1605404307808N07658331EA0265002698012090385000
B1605414307809N07658339EA0264902697012090385000
B1605424307810N07658347EA0264802696012090385000
B1605434307811N07658354EA0264602694012090385000
B1605444307812N07658362EA0264502693012090385000
B1605454307813N07658370EA0264402692012090385000
B1605464307814N07658378EA0264302691012090385000
B1605474307815N07658386EA0264202690012090385000
B1605484307816N07658394EA0264002688012090385000
B1605494307817N07658401EA0263902687012090385000
B1605504307818N07658409EA0263802686012090385000
B1605514307819N07658417EA0263702685012090385000
B1605524307820N07658425EA0263602684012090385000
B1605534307821N07658433EA0263402682012090385000
B1605544307822N07658441EA0263302681012090385000
B1605554307823N07658448EA0263202680012090385000
B1605564307824N07658456EA0263102679012090385000
B1605574307825N07658464EA0263002678012090385000
B1605584307826N07658472EA0262802676012090385000
B1605594307827N07658480EA0262702675012090385000
B1606004307828N07658488EA0262602674012090385000
B1606014307829N07658495EA0262502673012090385000
B1606024307830N07658503EA0262402672012090385000
B1606034307831N07658511EA0262202670012090385000
B1606044307832N07658519EA0262102669012090385000
B1606054307833N07658527EA0262002668012090385000
B1606064307834N07658534EA0261902667012090385000
B1606074307834N07658542EA0261802666012090385000
B1606084307835N07658550EA0261602664012090385000
B1606094307836N07658558EA0261502663012090385000
B1606104307837N07658566EA0261402662012090385000
B1606114307838N07658574EA0261302661012090385000
B1606124307839N07658581EA0261202660012090385000
B1606134307840N07658589EA0261002658012090385000
B1606144307841N07658597EA0260902657012090385000
B1606154307842N07658605EA0260802656012090385000
B1606164307843N07658613EA0260702655012090385000
B1606174307844N07658621EA0260602654012090385000
B1606184307845N07658628EA0260402652012090385000
B1606194307846N07658636EA0260302651012090385000
B1606204307847N07658644EA0260202650012090385000
B1606214307848N07658652EA0260102649012090385000
B1606224307849N07658660EA0260002648012090385000
B1606234307850N07658668EA0259802646012090385000
B1606244307851N07658675EA0259702645012090385000
B1606254307852N07658683EA0259602644012090385000
B1606264307853N07658691EA0259502643012090385000
B1606274307854N07658699EA0259402642012090385000
B1606284307855N07658707EA0259202640012090385000
B1606294307856N07658715EA0259102639012090385000
B1606304307857N07658722EA0259002638012090385000
B1606314307858N07658730EA0258902637012090385000
B1606324307859N07658738EA0258802636012090385000
B1606334307860N07658746EA0258602634012090385000
B1606344307861N07658754EA0258502633012090385000
B1606354307862N07658762EA0258402632012090385000
B1606364307863N07658769EA0258302631012090385000
B1606374307864N07658777EA0258202630012090385000
B1606384307865N07658785EA0258002628012090385000
B1606394307866N07658793EA0257902627012090385000
B1606404307866N07658801EA0257802626012090385000
B1606414307867N07658808EA0257702625012090385000
B1606424307868N07658816EA0257602624012090385000
B1606434307869N07658824EA0257402622012090385000
B1606444307870N07658832EA0257302621012090385000
B1606454307871N07658840EA0257202620012090385000
B1606464307872N07658848EA0257102619012090385000
B1606474307873N07658855EA0257002618012090385000
B1606484307874N07658863EA0256802616012090385000
B1606494307875N07658871EA0256702615012090385000
B1606504307876N07658879EA0256602614012090385000
B1606514307877N07658887EA0256502613012090385000
B1606524307878N07658895EA0256402612012090385000
B1606534307879N07658902EA0256202610012090385000
B1606544307880N07658910EA0256102609012090385000
B1606554307881N07658918EA0256002608012090385000
B1606564307882N07658926EA0255902607012090385000
B1606574307883N07658934EA0255802606012090385000
B1606584307884N07658942EA0255602604012090385000
B1606594307885N07658949EA0255502603012090385000
B1607004307886N07658957EA0255402602012090385000
B1607014307887N07658965EA0255302601012090385000
B1607024307888N07658973EA0255202600012090385000
B1607034307889N07658981EA0255002598012090385000
B1607044307890N07658989EA0254902597012090385000
B1607054307891N07658996EA0254802596012090385000
B1607064307892N07659004EA0254702595012090385000
B1607074307893N07659012EA0254602594012090385000
B1607084307894N07659020EA0254402592012090385000
B1607094307895N07659028EA0254302591012090385000
B1607104307896N07659036EA0254202590012090385000
B1607114307897N07659043EA0254102589012090385000
B1607124307898N07659051EA0254002588012090385000
B1607134307899N07659059EA0253802586012090385000
B1607144307899N07659067EA0253702585012090385000
B1607154307900N07659075EA0253602584012090385000
B1607164307901N07659082EA0253502583012090385000
B1607174307902N07659090EA0253402582012090385000
B1607184307903N07659098EA0253202580012090385000
B1607194307904N07659106EA0253102579012090385000
B1607204307905N07659114EA0253002578012090385000
B1607214307906N07659122EA0252902577012090385000
B1607224307907N07659129EA0252802576012090385000
B1607234307908N07659137EA0252602574012090385000
B1607244307909N07659145EA0252502573012090385000
B1607254307910N07659153EA0252402572012090385000
B1607264307911N07659161EA0252302571012090385000
B1607274307912N07659169EA0252202570012090385000
B1607284307913N07659176EA0252002568012090385000
B1607294307914N07659184EA0251902567012090385000
B1607304307915N07659192EA0251802566012090385000
B1607314307916N07659200EA0251702565012090385000
B1607324307917N07659208EA0251602564012090385000
B1607334307918N07659216EA0251402562012090385000
B1607344307919N07659223EA0251302561012090385000
B1607354307920N07659231EA0251202560012090385000
B1607364307921N07659239EA0251102559012090385000
B1607374307922N07659247EA0251002558012090385000
B1607384307923N07659255EA0250802556012090385000
B1607394307924N07659263EA0250702555012090385000
B1607404307925N07659270EA0250602554012090385000
B1607414307926N07659278EA0250502553012090385000
B1607424307927N07659286EA0250402552012090385000
B1607434307928N07659294EA0250202550012090385000
B1607444307929N07659302EA0250102549012090385000
B1607454307930N07659309EA0250002548012090385000
B1607464307931N07659317EA0249902547012090385000
B1607474307931N07659325EA0249802546012090385000
B1607484307932N07659333EA0249602544012090385000
B1607494307933N07659341EA0249502543012090385000
B1607504307934N07659349EA0249402542012090385000
B1607514307935N07659356EA0249302541012090385000
B1607524307936N07659364EA0249202540012090385000
B1607534307937N07659372EA0249002538012090385000
B1607544307938N07659380EA0248902537012090385000
B1607554307939N07659388EA0248802536012090385000
B1607564307940N07659396EA0248702535012090385000
B1607574307941N07659403EA0248602534012090385000
B1607584307942N07659411EA0248402532012090385000
B1607594307943N07659419EA0248302531012090385000
LSKY Generated fixture  do not edit by hand
GDEADBEEF00000000000000000000000000000000
