AXCT Skyline fixture generator
HFDTE150726
HFPLTPILOTINCHARGE:Test Pilot
HFGTYGLIDERTYPE:Ozone Zeno 2
HFGIDGLIDERID:FIXTURE
HFDTM100GPSDATUM:WGS-1984
HFFTYFRTYPE:Skyline,Fixture
B1100004307680N07657300EA0235002398
B1100014307679N07657315EA0235202400
B1100024307674N07657329EA0235402402
B1100034307667N07657340EA0235502403
B1100044307658N07657348EA0235702405
B1100054307648N07657351EA0235902407
B1100064307638N07657350EA0236102409
B1100074307629N07657344EA0236202410
B1100084307622N07657335EA0236402412
B1100094307617N07657323EA0236602414
B1100104307616N07657310EA0236802416
B1100114307618N07657297EA0236902417
B1100124307623N07657285EA0237102419
B1100134307630N07657276EA0237302421
B1100144307640N07657271EA0237502423
B1100154307651N07657270EA0237602424
B1100164307661N07657273EA0237802426
B1100174307671N07657281EA0238002428
B1100184307678N07657292EA0238202430
B1100194307683N07657305EA0238302431
B1100204307685N07657321EA0238502433
B1100214307684N07657336EA0238702435
B1100224307680N07657350EA0238902437
B1100234307672N07657361EA0239002438
B1100244307663N07657368EA0239202440
B1100254307653N07657372EA0239402442
B1100264307643N07657370EA0239602444
B1100274307634N07657365EA0239702445
B1100284307627N07657356EA0239902447
B1100294307623N07657344EA0240102449
B1100304307621N07657331EA0240302451
B1100314307623N07657318EA0240402452
B1100324307628N07657306EA0240602454
B1100334307636N07657297EA0240802456
B1100344307645N07657292EA0241002458
B1100354307656N07657290EA0241102459
B1100364307667N07657294EA0241302461
B1100374307676N07657301EA0241502463
B1100384307684N07657312EA0241702465
B1100394307689N07657326EA0241802466
B1100404307691N07657341EA0242002468
B1100414307689N07657357EA0242202470
B1100424307685N07657370EA0242402472
B1100434307678N07657382EA0242502473
B1100444307669N07657389EA0242702475
B1100454307659N07657392EA0242902477
B1100464307649N07657391EA0243102479
B1100474307640N07657386EA0243202480
B1100484307632N07657377EA0243402482
B1100494307628N07657365EA0243602484
B1100504307627N07657352EA0243802486
B1100514307629N07657339EA0243902487
B1100524307634N07657327EA0244102489
B1100534307641N07657318EA0244302491
B1100544307651N07657312EA0244502493
B1100554307661N07657311EA0244602494
B1100564307672N07657314EA0244802496
B1100574307682N07657322EA0245002498
B1100584307689N07657333EA0245202500
B1100594307694N07657347EA0245302501
B1101004307696N07657362EA0245502503
B1101014307695N07657377EA0245702505
B1101024307690N07657391EA0245902507
B1101034307683N07657402EA0246002508
B1101044307674N07657410EA0246202510
B1101054307664N07657413EA0246402512
B1101064307654N07657412EA0246602514
B1101074307645N07657406EA0246702515
B1101084307638N07657397EA0246902517
B1101094307633N07657385EA0247102519
B1101104307632N07657372EA0247302521
B1101114307634N07657359EA0247402522
B1101124307639N07657348EA0247602524
B1101134307647N07657338EA0247802526
B1101144307656N07657333EA0248002528
B1101154307667N07657332EA0248102529
B1101164307677N07657335EA0248302531
B1101174307687N07657343EA0248502533
B1101184307695N07657354EA0248702535
B1101194307700N07657368EA0248802536
B1101204307702N07657383EA0249002538
B1101214307700N07657398EA0249202540
B1101224307696N07657412EA0249402542
B1101234307689N07657423EA0249502543
B1101244307680N07657430EA0249702545
B1101254307669N07657434EA0249902547
B1101264307659N07657432EA0250102549
B1101274307650N07657427EA0250202550
B1101284307643N07657418EA0250402552
B1101294307639N07657406EA0250602554
B1101304307637N07657393EA0250802556
B1101314307639N07657380EA0250902557
B1101324307644N07657368EA0251102559
B1101334307652N07657359EA0251302561
B1101344307662N07657354EA0251502563
B1101354307672N07657352EA0251602564
B1101364307683N07657356EA0251802566
B1101374307692N07657363EA0252002568
B1101384307700N07657374EA0252202570
B1101394307705N07657388EA0252302571
B1101404307707N07657403EA0252502573
B1101414307706N07657419EA0252702575
B1101424307701N07657432EA0252902577
B1101434307694N07657444EA0253002578
B1101444307685N07657451EA0253202580
B1101454307675N07657454EA0253402582
B1101464307665N07657453EA0253602584
B1101474307656N07657448EA0253702585
B1101484307649N07657439EA0253902587
B1101494307644N07657427EA0254102589
B1101504307643N07657414EA0254302591
B1101514307645N07657401EA0254402592
B1101524307650N07657389EA0254602594
B1101534307657N07657380EA0254802596
B1101544307667N07657374EA0255002598
B1101554307678N07657373EA0255102599
B1101564307688N07657376EA0255302601
B1101574307698N07657384EA0255502603
B1101584307705N07657395EA0255702605
B1101594307710N07657409EA0255802606
B1102004307712N07657424EA0256002608
B1102014307711N07657439EA0256202610
B1102024307706N07657453EA0256402612
B1102034307699N07657464EA0256502613
B1102044307690N07657472EA0256702615
B1102054307680N07657475EA0256902617
B1102064307670N07657474EA0257102619
B1102074307661N07657468EA0257202620
B1102084307654N07657459EA0257402622
B1102094307650N07657448EA0257602624
B1102104307648N07657434EA0257802626
B1102114307650N07657421EA0257902627
B1102124307655N07657410EA0258102629
B1102134307663N07657400EA0258302631
B1102144307672N07657395EA0258502633
B1102154307683N07657394EA0258602634
B1102164307694N07657397EA0258802636
B1102174307703N07657405EA0259002638
B1102184307711N07657416EA0259202640
B1102194307716N07657430EA0259302641
B1102204307718N07657445EA0259502643
B1102214307716N07657460EA0259702645
B1102224307712N07657474EA0259902647
B1102234307705N07657485EA0260002648
B1102244307696N07657492EA0260202650
B1102254307686N07657496EA0260402652
B1102264307676N07657494EA0260602654
B1102274307667N07657489EA0260702655
B1102284307659N07657480EA0260902657
B1102294307655N07657468EA0261102659
B1102304307654N07657455EA0261302661
B1102314307655N07657442EA0261402662
B1102324307661N07657430EA0261602664
B1102334307668N07657421EA0261802666
B1102344307678N07657416EA0262002668
B1102354307688N07657414EA0262102669
B1102364307699N07657418EA0262302671
B1102374307709N07657425EA0262502673
B1102384307716N07657436EA0262702675
B1102394307721N07657450EA0262802676
B1102404307723N07657465EA0263002678
B1102414307722N07657481EA0263202680
B1102424307717N07657494EA0263402682
B1102434307710N07657506EA0263502683
B1102444307701N07657513EA0263702685
B1102454307691N07657516EA0263902687
B1102464307681N07657515EA0264102689
B1102474307672N07657510EA0264202690
B1102484307665N07657501EA0264402692
B1102494307660N07657489EA0264602694
B1102504307659N07657476EA0264802696
B1102514307661N07657463EA0264902697
B1102524307666N07657451EA0265102699
B1102534307674N07657442EA0265302701
B1102544307683N07657436EA0265502703
B1102554307694N07657435EA0265602704
B1102564307704N07657438EA0265802706
B1102574307714N07657446EA0266002708
B1102584307722N07657457EA0266202710
B1102594307727N07657471EA0266302711
B1103004307729N07657486EA0266502713
B1103014307727N07657501EA0266702715
B1103024307723N07657515EA0266902717
B1103034307716N07657526EA0267002718
B1103044307706N07657534EA0267202720
B1103054307696N07657537EA0267402722
B1103064307686N07657536EA0267602724
B1103074307677N07657530EA0267702725
B1103084307670N07657521EA0267902727
B1103094307666N07657510EA0268102729
B1103104307664N07657496EA0268302731
B1103114307666N07657483EA0268402732
B1103124307671N07657472EA0268602734
B1103134307679N07657463EA0268802736
B1103144307689N07657457EA0269002738
B1103154307699N07657456EA0269102739
B1103164307710N07657459EA0269302741
B1103174307719N07657467EA0269502743
B1103184307727N07657478EA0269702745
B1103194307732N07657492EA0269802746
B1104504307734N07657507EA0270002748
B1104514307733N07657522EA0270202750
B1104524307728N07657536EA0270402752
B1104534307721N07657547EA0270502753
B1104544307712N07657554EA0270702755
B1104554307702N07657558EA0270902757
B1104564307692N07657557EA0271102759
B1104574307683N07657551EA0271202760
B1104584307676N07657542EA0271402762
B1104594307671N07657530EA0271602764
B1105004307670N07657517EA0271802766
B1105014307672N07657504EA0271902767
B1105024307677N07657492EA0272102769
B1105034307684N07657483EA0272302771
B1105044307694N07657478EA0272502773
B1105054307705N07657477EA0272602774
B1105064307715N07657480EA0272802776
B1105074307725N07657487EA0273002778
B1105084307732N07657498EA0273202780
B1105094307737N07657512EA0273302781
B1105104307739N07657527EA0273502783
B1105114307738N07657543EA0273702785
B1105124307733N07657556EA0273902787
B1105134307726N07657568EA0274002788
B1105144307717N07657575EA0274202790
B1105154307707N07657578EA0274402792
B1105164307697N07657577EA0274602794
B1105174307688N07657572EA0274702795
B1105184307681N07657563EA0274902797
B1105194307677N07657551EA0275102799
B1105204307675N07657538EA0275302801
B1105214307677N07657525EA0275402802
B1105224307682N07657513EA0275602804
B1105234307690N07657504EA0275802806
B1105244307699N07657498EA0276002808
B1105254307710N07657497EA0276102809
B1105264307721N07657500EA0276302811
B1105274307730N07657508EA0276502813
B1105284307738N07657519EA0276702815
B1105294307743N07657533EA0276802816
B1105304307711N07657548EA0277002818
B1105314307712N07657556EA0276902817
B1105324307713N07657564EA0276802816
B1105334307714N07657572EA0276602814
B1105344307715N07657579EA0276502813
B1105354307716N07657587EA0276402812
B1105364307717N07657595EA0276302811
B1105374307718N07657603EA0276202810
B1105384307719N07657611EA0276002808
B1105394307720N07657619EA0275902807
B1105404307721N07657626EA0275802806
B1105414307722N07657634EA0275702805
B1105424307723N07657642EA0275602804
B1105434307724N07657650EA0275402802
B1105444307725N07657658EA0275302801
B1105454307726N07657666EA0275202800
B1105464307727N07657673EA0275102799
B1105474307728N07657681EA0275002798
B1105484307729N07657689EA0274802796
B1105494307730N07657697EA0274702795
B1105504307731N07657705EA0274602794
B1105514307732N07657713EA0274502793
B1105524307733N07657720EA0274402792
B1105534307734N07657728EA0274202790
B1105544307735N07657736EA0274102789
B1105554307736N07657744EA0274002788
B1105564307736N07657752EA0273902787
B1105574307737N07657760EA0273802786
B1105584307738N07657767EA0273602784
B1105594307739N07657775EA0273502783
B1106004307740N07657783EA0273402782
B1106014307741N07657791EA0273302781
B1106024307742N07657799EA0273202780
B1106034307743N07657806EA0273002778
B1106044307744N07657814EA0272902777
B1106054307745N07657822EA0272802776
B1106064307746N07657830EA0272702775
B1106074307747N07657838EA0272602774
B1106084307748N07657846EA0272402772
B1106094307749N07657853EA0272302771
B1106104307750N07657861EA0272202770
B1106114307751N07657869EA0272102769
B1106124307752N07657877EA0272002768
B1106134307753N07657885EA0271802766
B1106144307754N07657893EA0271702765
B1106154307755N07657900EA0271602764
B1106164307756N07657908EA0271502763
B1106174307757N07657916EA0271402762
B1106184307758N07657924EA0271202760
B1106194307759N07657932EA0271102759
B1106204307760N07657940EA0271002758
B1106214307761N07657947EA0270902757
B1106224307762N07657955EA0270802756
B1106234307763N07657963EA0270602754
B1106244307764N07657971EA0270502753
B1106254307765N07657979EA0270402752
B1106264307766N07657987EA0270302751
B1106274307767N07657994EA0270202750
B1106284307768N07658002EA0270002748
B1106294307769N07658010EA0269902747
B1106304307769N07658018EA0269802746
B1106314307770N07658026EA0269702745
B1106324307771N07658033EA0269602744
B1106334307772N07658041EA0269402742
B1106344307773N07658049EA0269302741
B1106354307774N07658057EA0269202740
B1106364307775N07658065EA0269102739
B1106374307776N07658073EA0269002738
B1106384307777N07658080EA0268802736
B1106394307778N07658088EA0268702735
B1106404307779N07658096EA0268602734
B1106414307780N07658104EA0268502733
B1106424307781N07658112EA0268402732
B1106434307782N07658120EA0268202730
B1106444307783N07658127EA0268102729
B1106454307784N07658135EA0268002728
B1106464307785N07658143EA0267902727
B1106474307786N07658151EA0267802726
B1106484307787N07658159EA0267602724
B1106494307788N07658167EA0267502723
B1106504307789N07658174EA0267402722
B1106514307790N07658182EA0267302721
B1106524307791N07658190EA0267202720
B1106534307792N07658198EA0267002718
B1106544307793N07658206EA0266902717
B1106554307794N07658214EA0266802716
B1106564307795N07658221EA0266702715
B1106574307796N07658229EA0266602714
B1106584307797N07658237EA0266402712
B1106594307798N07658245EA0266302711
B1107004307799N07658253EA0266202710
B1107014307800N07658261EA0266102709
B1107024307801N07658268EA0266002708
B1107034307801N07658276EA0265802706
B1107044307802N07658284EA0265702705
B1107054307803N07658292EA0265602704
B1107064307804N07658300EA0265502703
B1107074307805N07658307EA0265402702
B1107084307806N07658315EA0265202700
B1107094307807N07658323EA0265102699
B1107104307808N07658331EA0265002698
B1107114307809N07658339EA0264902697
B1107124307810N07658347EA0264802696
B1107134307811N07658354EA0264602694
B1107144307812N07658362EA0264502693
B1107154307813N07658370EA0264402692
B1107164307814N07658378EA0264302691
B1107174307815N07658386EA0264202690
B1107184307816N07658394EA0264002688
B1107194307817N07658401EA0263902687
B1107204307818N07658409EA0263802686
B1107214307819N07658417EA0263702685
B1107224307820N07658425EA0263602684
B1107234307821N07658433EA0263402682
B1107244307822N07658441EA0263302681
B1107254307823N07658448EA0263202680
B1107264307824N07658456EA0263102679
B1107274307825N07658464EA0263002678
B1107284307826N07658472EA0262802676
B1107294307827N07658480EA0262702675
B1107304307828N07658488EA0262602674
B1107314307829N07658495EA0262502673
B1107324307830N07658503EA0262402672
B1107334307831N07658511EA0262202670
B1107344307832N07658519EA0262102669
B1107354307833N07658527EA0262002668
B1107364307834N07658534EA0261902667
B1107374307834N07658542EA0261802666
B1107384307835N07658550EA0261602664
B1107394307836N07658558EA0261502663
B1107404307837N07658566EA0261402662
B1107414307838N07658574EA0261302661
B1107424307839N07658581EA0261202660
B1107434307840N07658589EA0261002658
B1107444307841N07658597EA0260902657
B1107454307842N07658605EA0260802656
B1107464307843N07658613EA0260702655
B1107474307844N07658621EA0260602654
B1107484307845N07658628EA0260402652
B1107494307846N07658636EA0260302651
B1107504307847N07658644EA0260202650
B1107514307848N07658652EA0260102649
B1107524307849N07658660EA0260002648
B1107534307850N07658668EA0259802646
B1107544307851N07658675EA0259702645
B1107554307852N07658683EA0259602644
B1107564307853N07658691EA0259502643
B1107574307854N07658699EA0259402642
B1107584307855N07658707EA0259202640
B1107594307856N07658715EA0259102639
B1108004307857N07658722EA0259002638
B1108014307858N07658730EA0258902637
B1108024307859N07658738EA0258802636
B1108034307860N07658746EA0258602634
B1108044307861N07658754EA0258502633
B1108054307862N07658762EA0258402632
B1108064307863N07658769EA0258302631
B1108074307864N07658777EA0258202630
B1108084307865N07658785EA0258002628
B1108094307866N07658793EA0257902627
B1108104307866N07658801EA0257802626
B1108114307867N07658808EA0257702625
B1108124307868N07658816EA0257602624
B1108134307869N07658824EA0257402622
B1108144307870N07658832EA0257302621
B1108154307871N07658840EA0257202620
B1108164307872N07658848EA0257102619
B1108174307873N07658855EA0257002618
B1108184307874N07658863EA0256802616
B1108194307875N07658871EA0256702615
B1108204307876N07658879EA0256602614
B1108214307877N07658887EA0256502613
B1108224307878N07658895EA0256402612
B1108234307879N07658902EA0256202610
B1108244307880N07658910EA0256102609
B1108254307881N07658918EA0256002608
B1108264307882N07658926EA0255902607
B1108274307883N07658934EA0255802606
B1108284307884N07658942EA0255602604
B1108294307885N07658949EA0255502603
B1108304307886N07658957EA0255402602
B1108314307887N07658965EA0255302601
B1108324307888N07658973EA0255202600
B1108334307889N07658981EA0255002598
B1108344307890N07658989EA0254902597
B1108354307891N07658996EA0254802596
B1108364307892N07659004EA0254702595
B1108374307893N07659012EA0254602594
B1108384307894N07659020EA0254402592
B1108394307895N07659028EA0254302591
B1108404307896N07659036EA0254202590
B1108414307897N07659043EA0254102589
B1108424307898N07659051EA0254002588
B1108434307899N07659059EA0253802586
B1108444307899N07659067EA0253702585
B1108454307900N07659075EA0253602584
B1108464307901N07659082EA0253502583
B1108474307902N07659090EA0253402582
B1108484307903N07659098EA0253202580
B1108494307904N07659106EA0253102579
B1108504307905N07659114EA0253002578
B1108514307906N07659122EA0252902577
B1108524307907N07659129EA0252802576
B1108534307908N07659137EA0252602574
B1108544307909N07659145EA0252502573
B1108554307910N07659153EA0252402572
B1108564307911N07659161EA0252302571
B1108574307912N07659169EA0252202570
B1108584307913N07659176EA0252002568
B1108594307914N07659184EA0251902567
B1109004307915N07659192EA0251802566
B1109014307916N07659200EA0251702565
B1109024307917N07659208EA0251602564
B1109034307918N07659216EA0251402562
B1109044307919N07659223EA0251302561
B1109054307920N07659231EA0251202560
B1109064307921N07659239EA0251102559
B1109074307922N07659247EA0251002558
B1109084307923N07659255EA0250802556
B1109094307924N07659263EA0250702555
B1109104307925N07659270EA0250602554
B1109114307926N07659278EA0250502553
B1109124307927N07659286EA0250402552
B1109134307928N07659294EA0250202550
B1109144307929N07659302EA0250102549
B1109154307930N07659309EA0250002548
B1109164307931N07659317EA0249902547
B1109174307931N07659325EA0249802546
B1109184307932N07659333EA0249602544
B1109194307933N07659341EA0249502543
B1109204307934N07659349EA0249402542
B1109214307935N07659356EA0249302541
B1109224307936N07659364EA0249202540
B1109234307937N07659372EA0249002538
B1109244307938N07659380EA0248902537
B1109254307939N07659388EA0248802536
B1109264307940N07659396EA0248702535
B1109274307941N07659403EA0248602534
B1109284307942N07659411EA0248402532
B1109294307943N07659419EA0248302531
B1109304308165N07701288EA0277002818
B1109314308164N07701303EA0277202820
B1109324308159N07701317EA0277402822
B1109334308152N07701328EA0277502823
B1109344308143N07701336EA0277702825
B1109354308133N07701339EA0277902827
B1109364308123N07701338EA0278102829
B1109374308114N07701332EA0278202830
B1109384308107N07701323EA0278402832
B1109394308102N07701311EA0278602834
B1109404308101N07701298EA0278802836
B1109414308103N07701285EA0278902837
B1109424308108N07701273EA0279102839
B1109434308116N07701264EA0279302841
B1109444308125N07701259EA0279502843
B1109454308136N07701258EA0279602844
B1109464308146N07701261EA0279802846
B1109474308156N07701268EA0280002848
B1109484308164N07701280EA0280202850
B1109494308169N07701293EA0280302851
B1121504308170N07701309EA0280502853
B1121514308169N07701324EA0280702855
B1121524308165N07701338EA0280902857
B1121534308158N07701349EA0281002858
B1121544308148N07701356EA0281202860
B1121554308138N07701360EA0281402862
B1121564308128N07701358EA0281602864
B1121574308119N07701353EA0281702865
B1121584308112N07701344EA0281902867
B1121594308108N07701332EA0282102869
B1122004308106N07701319EA0282302871
B1122014308108N07701306EA0282402872
B1122024308113N07701294EA0282602874
B1122034308121N07701285EA0282802876
B1122044308131N07701280EA0283002878
B1122054308141N07701278EA0283102879
B1122064308152N07701282EA0283302881
B1122074308161N07701289EA0283502883
B1122084308169N07701300EA0283702885
B1122094308174N07701314EA0283802886
B1122104308176N07701329EA0284002888
B1122114308175N07701345EA0284202890
B1122124308170N07701358EA0284402892
B1122134308163N07701369EA0284502893
B1122144308154N07701377EA0284702895
B1122154308144N07701380EA0284902897
B1122164308134N07701379EA0285102899
B1122174308125N07701374EA0285202900
B1122184308118N07701365EA0285402902
B1122194308113N07701353EA0285602904
B1122204308112N07701340EA0285802906
B1122214308114N07701327EA0285902907
B1122224308119N07701315EA0286102909
B1122234308126N07701306EA0286302911
B1122244308136N07701300EA0286502913
B1122254308146N07701299EA0286602914
B1122264308157N07701302EA0286802916
B1122274308167N07701310EA0287002918
B1122284308174N07701321EA0287202920
B1122294308179N07701335EA0287302921
B1122304308181N07701350EA0287502923
B1122314308180N07701365EA0287702925
B1122324308175N07701379EA0287902927
B1122334308168N07701390EA0288002928
B1122344308159N07701398EA0288202930
B1122354308149N07701401EA0288402932
B1122364308139N07701400EA0288602934
B1122374308130N07701394EA0288702935
B1122384308123N07701385EA0288902937
B1122394308118N07701373EA0289102939
B1122404308117N07701360EA0289302941
B1122414308119N07701347EA0289402942
B1122424308124N07701335EA0289602944
B1122434308132N07701326EA0289802946
B1122444308141N07701321EA0290002948
B1122454308152N07701320EA0290102949
B1122464308162N07701323EA0290302951
B1122474308172N07701331EA0290502953
B1122484308180N07701342EA0290702955
B1122494308185N07701355EA0290802956
B1122504308187N07701371EA0291002958
B1122514308185N07701386EA0291202960
B1122524308181N07701400EA0291402962
B1122534308174N07701411EA0291502963
B1122544308165N07701418EA0291702965
B1122554308155N07701422EA0291902967
B1122564308145N07701420EA0292102969
B1122574308135N07701415EA0292202970
B1122584308128N07701406EA0292402972
B1122594308124N07701394EA0292602974
B1123004308123N07701381EA0292802976
B1123014308124N07701368EA0292902977
B1123024308129N07701356EA0293102979
B1123034308137N07701347EA0293302981
B1123044308147N07701342EA0293502983
B1123054308157N07701340EA0293602984
B1123064308168N07701344EA0293802986
B1123074308177N07701351EA0294002988
B1123084308185N07701362EA0294202990
B1123094308190N07701376EA0294302991
B1123104308192N07701391EA0294502993
B1123114308191N07701407EA0294702995
B1123124308186N07701420EA0294902997
B1123134308179N07701431EA0295002998
B1123144308170N07701439EA0295203000
B1123154308160N07701442EA0295403002
B1123164308150N07701441EA0295603004
B1123174308141N07701436EA0295703005
B1123184308134N07701427EA0295903007
B1123194308129N07701415EA0296103009
B1123204308128N07701402EA0296303011
B1123214308130N07701389EA0296403012
B1123224308135N07701377EA0296603014
B1123234308142N07701368EA0296803016
B1123244308152N07701362EA0297003018
B1123254308163N07701361EA0297103019
B1123264308173N07701364EA0297303021
B1123274308183N07701372EA0297503023
B1123284308191N07701383EA0297703025
B1123294308196N07701397EA0297803026
B1123304308197N07701412EA0298003028
B1123314308196N07701427EA0298203030
B1123324308192N07701441EA0298403032
B1123334308184N07701452EA0298503033
B1123344308175N07701460EA0298703035
B1123354308165N07701463EA0298903037
B1123364308155N07701462EA0299103039
B1123374308146N07701456EA0299203040
B1123384308139N07701447EA0299403042
B1123394308135N07701435EA0299603044
B1123404308133N07701422EA0299803046
B1123414308135N07701409EA0299903047
B1123424308140N07701398EA0300103049
B1123434308148N07701388EA0300303051
B1123444308157N07701383EA0300503053
B1123454308168N07701382EA0300603054
B1123464308179N07701385EA0300803056
B1123474308188N07701393EA0301003058
B1123484308196N07701404EA0301203060
B1123494308201N07701418EA0301303061
B1123504308203N07701433EA0301503063
B1123514308201N07701448EA0301703065
B1123524308197N07701462EA0301903067
B1123534308190N07701473EA0302003068
B1123544308181N07701480EA0302203070
B1123554308171N07701484EA0302403072
B1123564308161N07701482EA0302603074
B1123574308152N07701477EA0302703075
B1123584308145N07701468EA0302903077
B1123594308140N07701456EA0303103079
B1124004308139N07701443EA0303303081
B1124014308141N07701430EA0303403082
B1124024308146N07701418EA0303603084
B1124034308153N07701409EA0303803086
B1124044308163N07701404EA0304003088
B1124054308173N07701402EA0304103089
B1124064308184N07701406EA0304303091
B1124074308194N07701413EA0304503093
B1124084308201N07701424EA0304703095
B1124094308206N07701438EA0304803096
B1124104308208N07701453EA0305003098
B1124114308207N07701469EA0305203100
B1124124308202N07701482EA0305403102
B1124134308195N07701494EA0305503103
B1124144308186N07701501EA0305703105
B1124154308176N07701504EA0305903107
B1124164308166N07701503EA0306103109
B1124174308157N07701498EA0306203110
B1124184308150N07701489EA0306403112
B1124194308145N07701477EA0306603114
B1124204308144N07701464EA0306803116
B1124214308146N07701451EA0306903117
B1124224308151N07701439EA0307103119
B1124234308159N07701430EA0307303121
B1124244308168N07701424EA0307503123
B1124254308179N07701423EA0307603124
B1124264308189N07701426EA0307803126
B1124274308199N07701434EA0308003128
B1124284308207N07701445EA0308203130
B1124294308212N07701459EA0308303131
B1124304308214N07701474EA0308503133
B1124314308212N07701489EA0308703135
B1124324308208N07701503EA0308903137
B1124334308201N07701514EA0309003138
B1124344308192N07701522EA0309203140
B1124354308182N07701525EA0309403142
B1124364308171N07701524EA0309603144
B1124374308162N07701518EA0309703145
B1124384308155N07701509EA0309903147
B1124394308151N07701498EA0310103149
B1124404308149N07701484EA0310303151
B1124414308151N07701471EA0310403152
B1124424308156N07701460EA0310603154
B1124434308164N07701450EA0310803156
B1124444308174N07701445EA0311003158
B1124454308184N07701444EA0311103159
B1124464308195N07701447EA0311303161
B1124474308204N07701455EA0311503163
B1124484308212N07701466EA0311703165
B1124494308217N07701480EA0311803166
B1124504308219N07701495EA0312003168
B1124514308218N07701510EA0312203170
B1124524308213N07701524EA0312403172
B1124534308206N07701535EA0312503173
B1124544308197N07701542EA0312703175
B1124554308187N07701546EA0312903177
B1124564308177N07701544EA0313103179
B1124574308168N07701539EA0313203180
B1124584308161N07701530EA0313403182
B1124594308156N07701518EA0313603184
B1125004308155N07701505EA0313803186
B1125014308157N07701492EA0313903187
B1125024308162N07701480EA0314103189
B1125034308169N07701471EA0314303191
B1125044308179N07701466EA0314503193
B1125054308190N07701464EA0314603194
B1125064308200N07701468EA0314803196
B1125074308210N07701475EA0315003198
B1125084308217N07701486EA0315203200
B1125094308222N07701500EA0315303201
B1125104308224N07701515EA0315503203
B1125114308223N07701531EA0315703205
B1125124308219N07701544EA0315903207
B1125134308211N07701556EA0316003208
B1125144308202N07701563EA0316203210
B1125154308192N07701566EA0316403212
B1125164308182N07701565EA0316603214
B1125174308173N07701560EA0316703215
B1125184308166N07701551EA0316903217
B1125194308162N07701539EA0317103219
B1125204308160N07701526EA0317303221
B1125214308162N07701513EA0317403222
B1125224308167N07701501EA0317603224
B1125234308175N07701492EA0317803226
B1125244308184N07701486EA0318003228
B1125254308195N07701485EA0318103229
B1125264308206N07701488EA0318303231
B1125274308215N07701496EA0318503233
B1125284308223N07701507EA0318703235
B1125294308228N07701521EA0318803236
LSKY Generated fixture  do not edit by hand
GDEADBEEF00000000000000000000000000000000
