<?xml version="1.0" encoding="UTF-8"?>
<kml xmlns="http://www.opengis.net/kml/2.2" xmlns:gx="http://www.google.com/kml/ext/2.2">
<Document>
  <name>Skyline fixture</name>
  <Placemark>
    <name>Трек</name>
    <gx:Track>
      <altitudeMode>absolute</altitudeMode>
      <when>2026-07-15T15:00:00Z</when>
      <when>2026-07-15T15:00:01Z</when>
      <when>2026-07-15T15:00:02Z</when>
      <when>2026-07-15T15:00:03Z</when>
      <when>2026-07-15T15:00:04Z</when>
      <when>2026-07-15T15:00:05Z</when>
      <when>2026-07-15T15:00:06Z</when>
      <when>2026-07-15T15:00:07Z</when>
      <when>2026-07-15T15:00:08Z</when>
      <when>2026-07-15T15:00:09Z</when>
      <when>2026-07-15T15:00:10Z</when>
      <when>2026-07-15T15:00:11Z</when>
      <when>2026-07-15T15:00:12Z</when>
      <when>2026-07-15T15:00:13Z</when>
      <when>2026-07-15T15:00:14Z</when>
      <when>2026-07-15T15:00:15Z</when>
      <when>2026-07-15T15:00:16Z</when>
      <when>2026-07-15T15:00:17Z</when>
      <when>2026-07-15T15:00:18Z</when>
      <when>2026-07-15T15:00:19Z</when>
      <when>2026-07-15T15:00:20Z</when>
      <when>2026-07-15T15:00:21Z</when>
      <when>2026-07-15T15:00:22Z</when>
      <when>2026-07-15T15:00:23Z</when>
      <when>2026-07-15T15:00:24Z</when>
      <when>2026-07-15T15:00:25Z</when>
      <when>2026-07-15T15:00:26Z</when>
      <when>2026-07-15T15:00:27Z</when>
      <when>2026-07-15T15:00:28Z</when>
      <when>2026-07-15T15:00:29Z</when>
      <when>2026-07-15T15:00:30Z</when>
      <when>2026-07-15T15:00:31Z</when>
      <when>2026-07-15T15:00:32Z</when>
      <when>2026-07-15T15:00:33Z</when>
      <when>2026-07-15T15:00:34Z</when>
      <when>2026-07-15T15:00:35Z</when>
      <when>2026-07-15T15:00:36Z</when>
      <when>2026-07-15T15:00:37Z</when>
      <when>2026-07-15T15:00:38Z</when>
      <when>2026-07-15T15:00:39Z</when>
      <when>2026-07-15T15:00:40Z</when>
      <when>2026-07-15T15:00:41Z</when>
      <when>2026-07-15T15:00:42Z</when>
      <when>2026-07-15T15:00:43Z</when>
      <when>2026-07-15T15:00:44Z</when>
      <when>2026-07-15T15:00:45Z</when>
      <when>2026-07-15T15:00:46Z</when>
      <when>2026-07-15T15:00:47Z</when>
      <when>2026-07-15T15:00:48Z</when>
      <when>2026-07-15T15:00:49Z</when>
      <when>2026-07-15T15:00:50Z</when>
      <when>2026-07-15T15:00:51Z</when>
      <when>2026-07-15T15:00:52Z</when>
      <when>2026-07-15T15:00:53Z</when>
      <when>2026-07-15T15:00:54Z</when>
      <when>2026-07-15T15:00:55Z</when>
      <when>2026-07-15T15:00:56Z</when>
      <when>2026-07-15T15:00:57Z</when>
      <when>2026-07-15T15:00:58Z</when>
      <when>2026-07-15T15:00:59Z</when>
      <when>2026-07-15T15:01:00Z</when>
      <when>2026-07-15T15:01:01Z</when>
      <when>2026-07-15T15:01:02Z</when>
      <when>2026-07-15T15:01:03Z</when>
      <when>2026-07-15T15:01:04Z</when>
      <when>2026-07-15T15:01:05Z</when>
      <when>2026-07-15T15:01:06Z</when>
      <when>2026-07-15T15:01:07Z</when>
      <when>2026-07-15T15:01:08Z</when>
      <when>2026-07-15T15:01:09Z</when>
      <when>2026-07-15T15:01:10Z</when>
      <when>2026-07-15T15:01:11Z</when>
      <when>2026-07-15T15:01:12Z</when>
      <when>2026-07-15T15:01:13Z</when>
      <when>2026-07-15T15:01:14Z</when>
      <when>2026-07-15T15:01:15Z</when>
      <when>2026-07-15T15:01:16Z</when>
      <when>2026-07-15T15:01:17Z</when>
      <when>2026-07-15T15:01:18Z</when>
      <when>2026-07-15T15:01:19Z</when>
      <when>2026-07-15T15:01:20Z</when>
      <when>2026-07-15T15:01:21Z</when>
      <when>2026-07-15T15:01:22Z</when>
      <when>2026-07-15T15:01:23Z</when>
      <when>2026-07-15T15:01:24Z</when>
      <when>2026-07-15T15:01:25Z</when>
      <when>2026-07-15T15:01:26Z</when>
      <when>2026-07-15T15:01:27Z</when>
      <when>2026-07-15T15:01:28Z</when>
      <when>2026-07-15T15:01:29Z</when>
      <when>2026-07-15T15:01:30Z</when>
      <when>2026-07-15T15:01:31Z</when>
      <when>2026-07-15T15:01:32Z</when>
      <when>2026-07-15T15:01:33Z</when>
      <when>2026-07-15T15:01:34Z</when>
      <when>2026-07-15T15:01:35Z</when>
      <when>2026-07-15T15:01:36Z</when>
      <when>2026-07-15T15:01:37Z</when>
      <when>2026-07-15T15:01:38Z</when>
      <when>2026-07-15T15:01:39Z</when>
      <when>2026-07-15T15:01:40Z</when>
      <when>2026-07-15T15:01:41Z</when>
      <when>2026-07-15T15:01:42Z</when>
      <when>2026-07-15T15:01:43Z</when>
      <when>2026-07-15T15:01:44Z</when>
      <when>2026-07-15T15:01:45Z</when>
      <when>2026-07-15T15:01:46Z</when>
      <when>2026-07-15T15:01:47Z</when>
      <when>2026-07-15T15:01:48Z</when>
      <when>2026-07-15T15:01:49Z</when>
      <when>2026-07-15T15:01:50Z</when>
      <when>2026-07-15T15:01:51Z</when>
      <when>2026-07-15T15:01:52Z</when>
      <when>2026-07-15T15:01:53Z</when>
      <when>2026-07-15T15:01:54Z</when>
      <when>2026-07-15T15:01:55Z</when>
      <when>2026-07-15T15:01:56Z</when>
      <when>2026-07-15T15:01:57Z</when>
      <when>2026-07-15T15:01:58Z</when>
      <when>2026-07-15T15:01:59Z</when>
      <when>2026-07-15T15:02:00Z</when>
      <when>2026-07-15T15:02:01Z</when>
      <when>2026-07-15T15:02:02Z</when>
      <when>2026-07-15T15:02:03Z</when>
      <when>2026-07-15T15:02:04Z</when>
      <when>2026-07-15T15:02:05Z</when>
      <when>2026-07-15T15:02:06Z</when>
      <when>2026-07-15T15:02:07Z</when>
      <when>2026-07-15T15:02:08Z</when>
      <when>2026-07-15T15:02:09Z</when>
      <when>2026-07-15T15:02:10Z</when>
      <when>2026-07-15T15:02:11Z</when>
      <when>2026-07-15T15:02:12Z</when>
      <when>2026-07-15T15:02:13Z</when>
      <when>2026-07-15T15:02:14Z</when>
      <when>2026-07-15T15:02:15Z</when>
      <when>2026-07-15T15:02:16Z</when>
      <when>2026-07-15T15:02:17Z</when>
      <when>2026-07-15T15:02:18Z</when>
      <when>2026-07-15T15:02:19Z</when>
      <when>2026-07-15T15:02:20Z</when>
      <when>2026-07-15T15:02:21Z</when>
      <when>2026-07-15T15:02:22Z</when>
      <when>2026-07-15T15:02:23Z</when>
      <when>2026-07-15T15:02:24Z</when>
      <when>2026-07-15T15:02:25Z</when>
      <when>2026-07-15T15:02:26Z</when>
      <when>2026-07-15T15:02:27Z</when>
      <when>2026-07-15T15:02:28Z</when>
      <when>2026-07-15T15:02:29Z</when>
      <when>2026-07-15T15:02:30Z</when>
      <when>2026-07-15T15:02:31Z</when>
      <when>2026-07-15T15:02:32Z</when>
      <when>2026-07-15T15:02:33Z</when>
      <when>2026-07-15T15:02:34Z</when>
      <when>2026-07-15T15:02:35Z</when>
      <when>2026-07-15T15:02:36Z</when>
      <when>2026-07-15T15:02:37Z</when>
      <when>2026-07-15T15:02:38Z</when>
      <when>2026-07-15T15:02:39Z</when>
      <when>2026-07-15T15:02:40Z</when>
      <when>2026-07-15T15:02:41Z</when>
      <when>2026-07-15T15:02:42Z</when>
      <when>2026-07-15T15:02:43Z</when>
      <when>2026-07-15T15:02:44Z</when>
      <when>2026-07-15T15:02:45Z</when>
      <when>2026-07-15T15:02:46Z</when>
      <when>2026-07-15T15:02:47Z</when>
      <when>2026-07-15T15:02:48Z</when>
      <when>2026-07-15T15:02:49Z</when>
      <when>2026-07-15T15:02:50Z</when>
      <when>2026-07-15T15:02:51Z</when>
      <when>2026-07-15T15:02:52Z</when>
      <when>2026-07-15T15:02:53Z</when>
      <when>2026-07-15T15:02:54Z</when>
      <when>2026-07-15T15:02:55Z</when>
      <when>2026-07-15T15:02:56Z</when>
      <when>2026-07-15T15:02:57Z</when>
      <when>2026-07-15T15:02:58Z</when>
      <when>2026-07-15T15:02:59Z</when>
      <when>2026-07-15T15:03:00Z</when>
      <when>2026-07-15T15:03:01Z</when>
      <when>2026-07-15T15:03:02Z</when>
      <when>2026-07-15T15:03:03Z</when>
      <when>2026-07-15T15:03:04Z</when>
      <when>2026-07-15T15:03:05Z</when>
      <when>2026-07-15T15:03:06Z</when>
      <when>2026-07-15T15:03:07Z</when>
      <when>2026-07-15T15:03:08Z</when>
      <when>2026-07-15T15:03:09Z</when>
      <when>2026-07-15T15:03:10Z</when>
      <when>2026-07-15T15:03:11Z</when>
      <when>2026-07-15T15:03:12Z</when>
      <when>2026-07-15T15:03:13Z</when>
      <when>2026-07-15T15:03:14Z</when>
      <when>2026-07-15T15:03:15Z</when>
      <when>2026-07-15T15:03:16Z</when>
      <when>2026-07-15T15:03:17Z</when>
      <when>2026-07-15T15:03:18Z</when>
      <when>2026-07-15T15:03:19Z</when>
      <when>2026-07-15T15:03:20Z</when>
      <when>2026-07-15T15:03:21Z</when>
      <when>2026-07-15T15:03:22Z</when>
      <when>2026-07-15T15:03:23Z</when>
      <when>2026-07-15T15:03:24Z</when>
      <when>2026-07-15T15:03:25Z</when>
      <when>2026-07-15T15:03:26Z</when>
      <when>2026-07-15T15:03:27Z</when>
      <when>2026-07-15T15:03:28Z</when>
      <when>2026-07-15T15:03:29Z</when>
      <when>2026-07-15T15:03:30Z</when>
      <when>2026-07-15T15:03:31Z</when>
      <when>2026-07-15T15:03:32Z</when>
      <when>2026-07-15T15:03:33Z</when>
      <when>2026-07-15T15:03:34Z</when>
      <when>2026-07-15T15:03:35Z</when>
      <when>2026-07-15T15:03:36Z</when>
      <when>2026-07-15T15:03:37Z</when>
      <when>2026-07-15T15:03:38Z</when>
      <when>2026-07-15T15:03:39Z</when>
      <when>2026-07-15T15:03:40Z</when>
      <when>2026-07-15T15:03:41Z</when>
      <when>2026-07-15T15:03:42Z</when>
      <when>2026-07-15T15:03:43Z</when>
      <when>2026-07-15T15:03:44Z</when>
      <when>2026-07-15T15:03:45Z</when>
      <when>2026-07-15T15:03:46Z</when>
      <when>2026-07-15T15:03:47Z</when>
      <when>2026-07-15T15:03:48Z</when>
      <when>2026-07-15T15:03:49Z</when>
      <when>2026-07-15T15:03:50Z</when>
      <when>2026-07-15T15:03:51Z</when>
      <when>2026-07-15T15:03:52Z</when>
      <when>2026-07-15T15:03:53Z</when>
      <when>2026-07-15T15:03:54Z</when>
      <when>2026-07-15T15:03:55Z</when>
      <when>2026-07-15T15:03:56Z</when>
      <when>2026-07-15T15:03:57Z</when>
      <when>2026-07-15T15:03:58Z</when>
      <when>2026-07-15T15:03:59Z</when>
      <when>2026-07-15T15:04:00Z</when>
      <when>2026-07-15T15:04:01Z</when>
      <when>2026-07-15T15:04:02Z</when>
      <when>2026-07-15T15:04:03Z</when>
      <when>2026-07-15T15:04:04Z</when>
      <when>2026-07-15T15:04:05Z</when>
      <when>2026-07-15T15:04:06Z</when>
      <when>2026-07-15T15:04:07Z</when>
      <when>2026-07-15T15:04:08Z</when>
      <when>2026-07-15T15:04:09Z</when>
      <when>2026-07-15T15:04:10Z</when>
      <when>2026-07-15T15:04:11Z</when>
      <when>2026-07-15T15:04:12Z</when>
      <when>2026-07-15T15:04:13Z</when>
      <when>2026-07-15T15:04:14Z</when>
      <when>2026-07-15T15:04:15Z</when>
      <when>2026-07-15T15:04:16Z</when>
      <when>2026-07-15T15:04:17Z</when>
      <when>2026-07-15T15:04:18Z</when>
      <when>2026-07-15T15:04:19Z</when>
      <when>2026-07-15T15:04:20Z</when>
      <when>2026-07-15T15:04:21Z</when>
      <when>2026-07-15T15:04:22Z</when>
      <when>2026-07-15T15:04:23Z</when>
      <when>2026-07-15T15:04:24Z</when>
      <when>2026-07-15T15:04:25Z</when>
      <when>2026-07-15T15:04:26Z</when>
      <when>2026-07-15T15:04:27Z</when>
      <when>2026-07-15T15:04:28Z</when>
      <when>2026-07-15T15:04:29Z</when>
      <when>2026-07-15T15:04:30Z</when>
      <when>2026-07-15T15:04:31Z</when>
      <when>2026-07-15T15:04:32Z</when>
      <when>2026-07-15T15:04:33Z</when>
      <when>2026-07-15T15:04:34Z</when>
      <when>2026-07-15T15:04:35Z</when>
      <when>2026-07-15T15:04:36Z</when>
      <when>2026-07-15T15:04:37Z</when>
      <when>2026-07-15T15:04:38Z</when>
      <when>2026-07-15T15:04:39Z</when>
      <when>2026-07-15T15:04:40Z</when>
      <when>2026-07-15T15:04:41Z</when>
      <when>2026-07-15T15:04:42Z</when>
      <when>2026-07-15T15:04:43Z</when>
      <when>2026-07-15T15:04:44Z</when>
      <when>2026-07-15T15:04:45Z</when>
      <when>2026-07-15T15:04:46Z</when>
      <when>2026-07-15T15:04:47Z</when>
      <when>2026-07-15T15:04:48Z</when>
      <when>2026-07-15T15:04:49Z</when>
      <when>2026-07-15T15:04:50Z</when>
      <when>2026-07-15T15:04:51Z</when>
      <when>2026-07-15T15:04:52Z</when>
      <when>2026-07-15T15:04:53Z</when>
      <when>2026-07-15T15:04:54Z</when>
      <when>2026-07-15T15:04:55Z</when>
      <when>2026-07-15T15:04:56Z</when>
      <when>2026-07-15T15:04:57Z</when>
      <when>2026-07-15T15:04:58Z</when>
      <when>2026-07-15T15:04:59Z</when>
      <when>2026-07-15T15:05:00Z</when>
      <when>2026-07-15T15:05:01Z</when>
      <when>2026-07-15T15:05:02Z</when>
      <when>2026-07-15T15:05:03Z</when>
      <when>2026-07-15T15:05:04Z</when>
      <when>2026-07-15T15:05:05Z</when>
      <when>2026-07-15T15:05:06Z</when>
      <when>2026-07-15T15:05:07Z</when>
      <when>2026-07-15T15:05:08Z</when>
      <when>2026-07-15T15:05:09Z</when>
      <when>2026-07-15T15:05:10Z</when>
      <when>2026-07-15T15:05:11Z</when>
      <when>2026-07-15T15:05:12Z</when>
      <when>2026-07-15T15:05:13Z</when>
      <when>2026-07-15T15:05:14Z</when>
      <when>2026-07-15T15:05:15Z</when>
      <when>2026-07-15T15:05:16Z</when>
      <when>2026-07-15T15:05:17Z</when>
      <when>2026-07-15T15:05:18Z</when>
      <when>2026-07-15T15:05:19Z</when>
      <when>2026-07-15T15:05:20Z</when>
      <when>2026-07-15T15:05:21Z</when>
      <when>2026-07-15T15:05:22Z</when>
      <when>2026-07-15T15:05:23Z</when>
      <when>2026-07-15T15:05:24Z</when>
      <when>2026-07-15T15:05:25Z</when>
      <when>2026-07-15T15:05:26Z</when>
      <when>2026-07-15T15:05:27Z</when>
      <when>2026-07-15T15:05:28Z</when>
      <when>2026-07-15T15:05:29Z</when>
      <when>2026-07-15T15:05:30Z</when>
      <when>2026-07-15T15:05:31Z</when>
      <when>2026-07-15T15:05:32Z</when>
      <when>2026-07-15T15:05:33Z</when>
      <when>2026-07-15T15:05:34Z</when>
      <when>2026-07-15T15:05:35Z</when>
      <when>2026-07-15T15:05:36Z</when>
      <when>2026-07-15T15:05:37Z</when>
      <when>2026-07-15T15:05:38Z</when>
      <when>2026-07-15T15:05:39Z</when>
      <when>2026-07-15T15:05:40Z</when>
      <when>2026-07-15T15:05:41Z</when>
      <when>2026-07-15T15:05:42Z</when>
      <when>2026-07-15T15:05:43Z</when>
      <when>2026-07-15T15:05:44Z</when>
      <when>2026-07-15T15:05:45Z</when>
      <when>2026-07-15T15:05:46Z</when>
      <when>2026-07-15T15:05:47Z</when>
      <when>2026-07-15T15:05:48Z</when>
      <when>2026-07-15T15:05:49Z</when>
      <when>2026-07-15T15:05:50Z</when>
      <when>2026-07-15T15:05:51Z</when>
      <when>2026-07-15T15:05:52Z</when>
      <when>2026-07-15T15:05:53Z</when>
      <when>2026-07-15T15:05:54Z</when>
      <when>2026-07-15T15:05:55Z</when>
      <when>2026-07-15T15:05:56Z</when>
      <when>2026-07-15T15:05:57Z</when>
      <when>2026-07-15T15:05:58Z</when>
      <when>2026-07-15T15:05:59Z</when>
      <when>2026-07-15T15:06:00Z</when>
      <when>2026-07-15T15:06:01Z</when>
      <when>2026-07-15T15:06:02Z</when>
      <when>2026-07-15T15:06:03Z</when>
      <when>2026-07-15T15:06:04Z</when>
      <when>2026-07-15T15:06:05Z</when>
      <when>2026-07-15T15:06:06Z</when>
      <when>2026-07-15T15:06:07Z</when>
      <when>2026-07-15T15:06:08Z</when>
      <when>2026-07-15T15:06:09Z</when>
      <when>2026-07-15T15:06:10Z</when>
      <when>2026-07-15T15:06:11Z</when>
      <when>2026-07-15T15:06:12Z</when>
      <when>2026-07-15T15:06:13Z</when>
      <when>2026-07-15T15:06:14Z</when>
      <when>2026-07-15T15:06:15Z</when>
      <when>2026-07-15T15:06:16Z</when>
      <when>2026-07-15T15:06:17Z</when>
      <when>2026-07-15T15:06:18Z</when>
      <when>2026-07-15T15:06:19Z</when>
      <when>2026-07-15T15:06:20Z</when>
      <when>2026-07-15T15:06:21Z</when>
      <when>2026-07-15T15:06:22Z</when>
      <when>2026-07-15T15:06:23Z</when>
      <when>2026-07-15T15:06:24Z</when>
      <when>2026-07-15T15:06:25Z</when>
      <when>2026-07-15T15:06:26Z</when>
      <when>2026-07-15T15:06:27Z</when>
      <when>2026-07-15T15:06:28Z</when>
      <when>2026-07-15T15:06:29Z</when>
      <when>2026-07-15T15:06:30Z</when>
      <when>2026-07-15T15:06:31Z</when>
      <when>2026-07-15T15:06:32Z</when>
      <when>2026-07-15T15:06:33Z</when>
      <when>2026-07-15T15:06:34Z</when>
      <when>2026-07-15T15:06:35Z</when>
      <when>2026-07-15T15:06:36Z</when>
      <when>2026-07-15T15:06:37Z</when>
      <when>2026-07-15T15:06:38Z</when>
      <when>2026-07-15T15:06:39Z</when>
      <when>2026-07-15T15:06:40Z</when>
      <when>2026-07-15T15:06:41Z</when>
      <when>2026-07-15T15:06:42Z</when>
      <when>2026-07-15T15:06:43Z</when>
      <when>2026-07-15T15:06:44Z</when>
      <when>2026-07-15T15:06:45Z</when>
      <when>2026-07-15T15:06:46Z</when>
      <when>2026-07-15T15:06:47Z</when>
      <when>2026-07-15T15:06:48Z</when>
      <when>2026-07-15T15:06:49Z</when>
      <when>2026-07-15T15:06:50Z</when>
      <when>2026-07-15T15:06:51Z</when>
      <when>2026-07-15T15:06:52Z</when>
      <when>2026-07-15T15:06:53Z</when>
      <when>2026-07-15T15:06:54Z</when>
      <when>2026-07-15T15:06:55Z</when>
      <when>2026-07-15T15:06:56Z</when>
      <when>2026-07-15T15:06:57Z</when>
      <when>2026-07-15T15:06:58Z</when>
      <when>2026-07-15T15:06:59Z</when>
      <when>2026-07-15T15:07:00Z</when>
      <when>2026-07-15T15:07:01Z</when>
      <when>2026-07-15T15:07:02Z</when>
      <when>2026-07-15T15:07:03Z</when>
      <when>2026-07-15T15:07:04Z</when>
      <when>2026-07-15T15:07:05Z</when>
      <when>2026-07-15T15:07:06Z</when>
      <when>2026-07-15T15:07:07Z</when>
      <when>2026-07-15T15:07:08Z</when>
      <when>2026-07-15T15:07:09Z</when>
      <when>2026-07-15T15:07:10Z</when>
      <when>2026-07-15T15:07:11Z</when>
      <when>2026-07-15T15:07:12Z</when>
      <when>2026-07-15T15:07:13Z</when>
      <when>2026-07-15T15:07:14Z</when>
      <when>2026-07-15T15:07:15Z</when>
      <when>2026-07-15T15:07:16Z</when>
      <when>2026-07-15T15:07:17Z</when>
      <when>2026-07-15T15:07:18Z</when>
      <when>2026-07-15T15:07:19Z</when>
      <when>2026-07-15T15:07:20Z</when>
      <when>2026-07-15T15:07:21Z</when>
      <when>2026-07-15T15:07:22Z</when>
      <when>2026-07-15T15:07:23Z</when>
      <when>2026-07-15T15:07:24Z</when>
      <when>2026-07-15T15:07:25Z</when>
      <when>2026-07-15T15:07:26Z</when>
      <when>2026-07-15T15:07:27Z</when>
      <when>2026-07-15T15:07:28Z</when>
      <when>2026-07-15T15:07:29Z</when>
      <when>2026-07-15T15:07:30Z</when>
      <when>2026-07-15T15:07:31Z</when>
      <when>2026-07-15T15:07:32Z</when>
      <when>2026-07-15T15:07:33Z</when>
      <when>2026-07-15T15:07:34Z</when>
      <when>2026-07-15T15:07:35Z</when>
      <when>2026-07-15T15:07:36Z</when>
      <when>2026-07-15T15:07:37Z</when>
      <when>2026-07-15T15:07:38Z</when>
      <when>2026-07-15T15:07:39Z</when>
      <when>2026-07-15T15:07:40Z</when>
      <when>2026-07-15T15:07:41Z</when>
      <when>2026-07-15T15:07:42Z</when>
      <when>2026-07-15T15:07:43Z</when>
      <when>2026-07-15T15:07:44Z</when>
      <when>2026-07-15T15:07:45Z</when>
      <when>2026-07-15T15:07:46Z</when>
      <when>2026-07-15T15:07:47Z</when>
      <when>2026-07-15T15:07:48Z</when>
      <when>2026-07-15T15:07:49Z</when>
      <when>2026-07-15T15:07:50Z</when>
      <when>2026-07-15T15:07:51Z</when>
      <when>2026-07-15T15:07:52Z</when>
      <when>2026-07-15T15:07:53Z</when>
      <when>2026-07-15T15:07:54Z</when>
      <when>2026-07-15T15:07:55Z</when>
      <when>2026-07-15T15:07:56Z</when>
      <when>2026-07-15T15:07:57Z</when>
      <when>2026-07-15T15:07:58Z</when>
      <when>2026-07-15T15:07:59Z</when>
      <when>2026-07-15T15:08:00Z</when>
      <when>2026-07-15T15:08:01Z</when>
      <when>2026-07-15T15:08:02Z</when>
      <when>2026-07-15T15:08:03Z</when>
      <when>2026-07-15T15:08:04Z</when>
      <when>2026-07-15T15:08:05Z</when>
      <when>2026-07-15T15:08:06Z</when>
      <when>2026-07-15T15:08:07Z</when>
      <when>2026-07-15T15:08:08Z</when>
      <when>2026-07-15T15:08:09Z</when>
      <when>2026-07-15T15:08:10Z</when>
      <when>2026-07-15T15:08:11Z</when>
      <when>2026-07-15T15:08:12Z</when>
      <when>2026-07-15T15:08:13Z</when>
      <when>2026-07-15T15:08:14Z</when>
      <when>2026-07-15T15:08:15Z</when>
      <when>2026-07-15T15:08:16Z</when>
      <when>2026-07-15T15:08:17Z</when>
      <when>2026-07-15T15:08:18Z</when>
      <when>2026-07-15T15:08:19Z</when>
      <when>2026-07-15T15:08:20Z</when>
      <when>2026-07-15T15:08:21Z</when>
      <when>2026-07-15T15:08:22Z</when>
      <when>2026-07-15T15:08:23Z</when>
      <when>2026-07-15T15:08:24Z</when>
      <when>2026-07-15T15:08:25Z</when>
      <when>2026-07-15T15:08:26Z</when>
      <when>2026-07-15T15:08:27Z</when>
      <when>2026-07-15T15:08:28Z</when>
      <when>2026-07-15T15:08:29Z</when>
      <when>2026-07-15T15:08:30Z</when>
      <when>2026-07-15T15:08:31Z</when>
      <when>2026-07-15T15:08:32Z</when>
      <when>2026-07-15T15:08:33Z</when>
      <when>2026-07-15T15:08:34Z</when>
      <when>2026-07-15T15:08:35Z</when>
      <when>2026-07-15T15:08:36Z</when>
      <when>2026-07-15T15:08:37Z</when>
      <when>2026-07-15T15:08:38Z</when>
      <when>2026-07-15T15:08:39Z</when>
      <when>2026-07-15T15:08:40Z</when>
      <when>2026-07-15T15:08:41Z</when>
      <when>2026-07-15T15:08:42Z</when>
      <when>2026-07-15T15:08:43Z</when>
      <when>2026-07-15T15:08:44Z</when>
      <when>2026-07-15T15:08:45Z</when>
      <when>2026-07-15T15:08:46Z</when>
      <when>2026-07-15T15:08:47Z</when>
      <when>2026-07-15T15:08:48Z</when>
      <when>2026-07-15T15:08:49Z</when>
      <when>2026-07-15T15:08:50Z</when>
      <when>2026-07-15T15:08:51Z</when>
      <when>2026-07-15T15:08:52Z</when>
      <when>2026-07-15T15:08:53Z</when>
      <when>2026-07-15T15:08:54Z</when>
      <when>2026-07-15T15:08:55Z</when>
      <when>2026-07-15T15:08:56Z</when>
      <when>2026-07-15T15:08:57Z</when>
      <when>2026-07-15T15:08:58Z</when>
      <when>2026-07-15T15:08:59Z</when>
      <when>2026-07-15T15:09:00Z</when>
      <when>2026-07-15T15:09:01Z</when>
      <when>2026-07-15T15:09:02Z</when>
      <when>2026-07-15T15:09:03Z</when>
      <when>2026-07-15T15:09:04Z</when>
      <when>2026-07-15T15:09:05Z</when>
      <when>2026-07-15T15:09:06Z</when>
      <when>2026-07-15T15:09:07Z</when>
      <when>2026-07-15T15:09:08Z</when>
      <when>2026-07-15T15:09:09Z</when>
      <when>2026-07-15T15:09:10Z</when>
      <when>2026-07-15T15:09:11Z</when>
      <when>2026-07-15T15:09:12Z</when>
      <when>2026-07-15T15:09:13Z</when>
      <when>2026-07-15T15:09:14Z</when>
      <when>2026-07-15T15:09:15Z</when>
      <when>2026-07-15T15:09:16Z</when>
      <when>2026-07-15T15:09:17Z</when>
      <when>2026-07-15T15:09:18Z</when>
      <when>2026-07-15T15:09:19Z</when>
      <when>2026-07-15T15:09:20Z</when>
      <when>2026-07-15T15:09:21Z</when>
      <when>2026-07-15T15:09:22Z</when>
      <when>2026-07-15T15:09:23Z</when>
      <when>2026-07-15T15:09:24Z</when>
      <when>2026-07-15T15:09:25Z</when>
      <when>2026-07-15T15:09:26Z</when>
      <when>2026-07-15T15:09:27Z</when>
      <when>2026-07-15T15:09:28Z</when>
      <when>2026-07-15T15:09:29Z</when>
      <when>2026-07-15T15:09:30Z</when>
      <when>2026-07-15T15:09:31Z</when>
      <when>2026-07-15T15:09:32Z</when>
      <when>2026-07-15T15:09:33Z</when>
      <when>2026-07-15T15:09:34Z</when>
      <when>2026-07-15T15:09:35Z</when>
      <when>2026-07-15T15:09:36Z</when>
      <when>2026-07-15T15:09:37Z</when>
      <when>2026-07-15T15:09:38Z</when>
      <when>2026-07-15T15:09:39Z</when>
      <when>2026-07-15T15:09:40Z</when>
      <when>2026-07-15T15:09:41Z</when>
      <when>2026-07-15T15:09:42Z</when>
      <when>2026-07-15T15:09:43Z</when>
      <when>2026-07-15T15:09:44Z</when>
      <when>2026-07-15T15:09:45Z</when>
      <when>2026-07-15T15:09:46Z</when>
      <when>2026-07-15T15:09:47Z</when>
      <when>2026-07-15T15:09:48Z</when>
      <when>2026-07-15T15:09:49Z</when>
      <when>2026-07-15T15:09:50Z</when>
      <when>2026-07-15T15:09:51Z</when>
      <when>2026-07-15T15:09:52Z</when>
      <when>2026-07-15T15:09:53Z</when>
      <when>2026-07-15T15:09:54Z</when>
      <when>2026-07-15T15:09:55Z</when>
      <when>2026-07-15T15:09:56Z</when>
      <when>2026-07-15T15:09:57Z</when>
      <when>2026-07-15T15:09:58Z</when>
      <when>2026-07-15T15:09:59Z</when>
      <gx:coord>76.9550000 43.1280000 2350.0</gx:coord>
      <gx:coord>76.9552531 43.1279772 2351.8</gx:coord>
      <gx:coord>76.9554830 43.1279026 2353.5</gx:coord>
      <gx:coord>76.9556691 43.1277839 2355.3</gx:coord>
      <gx:coord>76.9557947 43.1276331 2357.0</gx:coord>
      <gx:coord>76.9558493 43.1274655 2358.8</gx:coord>
      <gx:coord>76.9558292 43.1272979 2360.5</gx:coord>
      <gx:coord>76.9557380 43.1271471 2362.3</gx:coord>
      <gx:coord>76.9555864 43.1270284 2364.0</gx:coord>
      <gx:coord>76.9553909 43.1269538 2365.8</gx:coord>
      <gx:coord>76.9551723 43.1269310 2367.5</gx:coord>
      <gx:coord>76.9549537 43.1269628 2369.3</gx:coord>
      <gx:coord>76.9547582 43.1270464 2371.0</gx:coord>
      <gx:coord>76.9546066 43.1271741 2372.8</gx:coord>
      <gx:coord>76.9545155 43.1273338 2374.5</gx:coord>
      <gx:coord>76.9544954 43.1275104 2376.3</gx:coord>
      <gx:coord>76.9545499 43.1276870 2378.0</gx:coord>
      <gx:coord>76.9546756 43.1278468 2379.8</gx:coord>
      <gx:coord>76.9548616 43.1279745 2381.5</gx:coord>
      <gx:coord>76.9550916 43.1280581 2383.3</gx:coord>
      <gx:coord>76.9553446 43.1280898 2385.0</gx:coord>
      <gx:coord>76.9555977 43.1280671 2386.8</gx:coord>
      <gx:coord>76.9558277 43.1279924 2388.5</gx:coord>
      <gx:coord>76.9560137 43.1278737 2390.3</gx:coord>
      <gx:coord>76.9561393 43.1277230 2392.0</gx:coord>
      <gx:coord>76.9561939 43.1275553 2393.8</gx:coord>
      <gx:coord>76.9561738 43.1273877 2395.5</gx:coord>
      <gx:coord>76.9560826 43.1272370 2397.3</gx:coord>
      <gx:coord>76.9559311 43.1271182 2399.0</gx:coord>
      <gx:coord>76.9557355 43.1270436 2400.8</gx:coord>
      <gx:coord>76.9555170 43.1270208 2402.5</gx:coord>
      <gx:coord>76.9552984 43.1270526 2404.3</gx:coord>
      <gx:coord>76.9551029 43.1271362 2406.0</gx:coord>
      <gx:coord>76.9549513 43.1272639 2407.8</gx:coord>
      <gx:coord>76.9548601 43.1274237 2409.5</gx:coord>
      <gx:coord>76.9548400 43.1276003 2411.3</gx:coord>
      <gx:coord>76.9548946 43.1277769 2413.0</gx:coord>
      <gx:coord>76.9550202 43.1279366 2414.8</gx:coord>
      <gx:coord>76.9552063 43.1280643 2416.5</gx:coord>
      <gx:coord>76.9554362 43.1281479 2418.3</gx:coord>
      <gx:coord>76.9556893 43.1281797 2420.0</gx:coord>
      <gx:coord>76.9559423 43.1281569 2421.8</gx:coord>
      <gx:coord>76.9561723 43.1280823 2423.5</gx:coord>
      <gx:coord>76.9563584 43.1279636 2425.3</gx:coord>
      <gx:coord>76.9564840 43.1278128 2427.0</gx:coord>
      <gx:coord>76.9565386 43.1276452 2428.8</gx:coord>
      <gx:coord>76.9565184 43.1274776 2430.5</gx:coord>
      <gx:coord>76.9564273 43.1273268 2432.3</gx:coord>
      <gx:coord>76.9562757 43.1272081 2434.0</gx:coord>
      <gx:coord>76.9560802 43.1271334 2435.8</gx:coord>
      <gx:coord>76.9558616 43.1271107 2437.5</gx:coord>
      <gx:coord>76.9556430 43.1271424 2439.3</gx:coord>
      <gx:coord>76.9554475 43.1272260 2441.0</gx:coord>
      <gx:coord>76.9552959 43.1273537 2442.8</gx:coord>
      <gx:coord>76.9552047 43.1275135 2444.5</gx:coord>
      <gx:coord>76.9551846 43.1276901 2446.3</gx:coord>
      <gx:coord>76.9552392 43.1278667 2448.0</gx:coord>
      <gx:coord>76.9553648 43.1280264 2449.8</gx:coord>
      <gx:coord>76.9555509 43.1281541 2451.5</gx:coord>
      <gx:coord>76.9557809 43.1282377 2453.3</gx:coord>
      <gx:coord>76.9560339 43.1282695 2455.0</gx:coord>
      <gx:coord>76.9562870 43.1282467 2456.8</gx:coord>
      <gx:coord>76.9565169 43.1281721 2458.5</gx:coord>
      <gx:coord>76.9567030 43.1280534 2460.3</gx:coord>
      <gx:coord>76.9568286 43.1279026 2462.0</gx:coord>
      <gx:coord>76.9568832 43.1277350 2463.8</gx:coord>
      <gx:coord>76.9568631 43.1275674 2465.5</gx:coord>
      <gx:coord>76.9567719 43.1274166 2467.3</gx:coord>
      <gx:coord>76.9566203 43.1272979 2469.0</gx:coord>
      <gx:coord>76.9564248 43.1272233 2470.8</gx:coord>
      <gx:coord>76.9562062 43.1272005 2472.5</gx:coord>
      <gx:coord>76.9559876 43.1272323 2474.3</gx:coord>
      <gx:coord>76.9557921 43.1273159 2476.0</gx:coord>
      <gx:coord>76.9556405 43.1274436 2477.8</gx:coord>
      <gx:coord>76.9555494 43.1276033 2479.5</gx:coord>
      <gx:coord>76.9555293 43.1277799 2481.3</gx:coord>
      <gx:coord>76.9555838 43.1279565 2483.0</gx:coord>
      <gx:coord>76.9557095 43.1281163 2484.8</gx:coord>
      <gx:coord>76.9558955 43.1282440 2486.5</gx:coord>
      <gx:coord>76.9561255 43.1283276 2488.3</gx:coord>
      <gx:coord>76.9563786 43.1283593 2490.0</gx:coord>
      <gx:coord>76.9566316 43.1283366 2491.8</gx:coord>
      <gx:coord>76.9568616 43.1282619 2493.5</gx:coord>
      <gx:coord>76.9570476 43.1281432 2495.3</gx:coord>
      <gx:coord>76.9571733 43.1279924 2497.0</gx:coord>
      <gx:coord>76.9572278 43.1278248 2498.8</gx:coord>
      <gx:coord>76.9572077 43.1276572 2500.5</gx:coord>
      <gx:coord>76.9571166 43.1275064 2502.3</gx:coord>
      <gx:coord>76.9569650 43.1273877 2504.0</gx:coord>
      <gx:coord>76.9567695 43.1273131 2505.8</gx:coord>
      <gx:coord>76.9565509 43.1272903 2507.5</gx:coord>
      <gx:coord>76.9563323 43.1273221 2509.3</gx:coord>
      <gx:coord>76.9561368 43.1274057 2511.0</gx:coord>
      <gx:coord>76.9559852 43.1275334 2512.8</gx:coord>
      <gx:coord>76.9558940 43.1276931 2514.5</gx:coord>
      <gx:coord>76.9558739 43.1278697 2516.3</gx:coord>
      <gx:coord>76.9559285 43.1280463 2518.0</gx:coord>
      <gx:coord>76.9560541 43.1282061 2519.8</gx:coord>
      <gx:coord>76.9562402 43.1283338 2521.5</gx:coord>
      <gx:coord>76.9564701 43.1284174 2523.3</gx:coord>
      <gx:coord>76.9567232 43.1284492 2525.0</gx:coord>
      <gx:coord>76.9569762 43.1284264 2526.8</gx:coord>
      <gx:coord>76.9572062 43.1283518 2528.5</gx:coord>
      <gx:coord>76.9573923 43.1282330 2530.3</gx:coord>
      <gx:coord>76.9575179 43.1280823 2532.0</gx:coord>
      <gx:coord>76.9575725 43.1279147 2533.8</gx:coord>
      <gx:coord>76.9575524 43.1277470 2535.5</gx:coord>
      <gx:coord>76.9574612 43.1275963 2537.3</gx:coord>
      <gx:coord>76.9573096 43.1274776 2539.0</gx:coord>
      <gx:coord>76.9571141 43.1274029 2540.8</gx:coord>
      <gx:coord>76.9568955 43.1273802 2542.5</gx:coord>
      <gx:coord>76.9566769 43.1274119 2544.3</gx:coord>
      <gx:coord>76.9564814 43.1274955 2546.0</gx:coord>
      <gx:coord>76.9563298 43.1276232 2547.8</gx:coord>
      <gx:coord>76.9562387 43.1277830 2549.5</gx:coord>
      <gx:coord>76.9562185 43.1279596 2551.3</gx:coord>
      <gx:coord>76.9562731 43.1281362 2553.0</gx:coord>
      <gx:coord>76.9563988 43.1282959 2554.8</gx:coord>
      <gx:coord>76.9565848 43.1284236 2556.5</gx:coord>
      <gx:coord>76.9568148 43.1285072 2558.3</gx:coord>
      <gx:coord>76.9570678 43.1285390 2560.0</gx:coord>
      <gx:coord>76.9573209 43.1285162 2561.8</gx:coord>
      <gx:coord>76.9575509 43.1284416 2563.5</gx:coord>
      <gx:coord>76.9577369 43.1283229 2565.3</gx:coord>
      <gx:coord>76.9578625 43.1281721 2567.0</gx:coord>
      <gx:coord>76.9579171 43.1280045 2568.8</gx:coord>
      <gx:coord>76.9578970 43.1278369 2570.5</gx:coord>
      <gx:coord>76.9578058 43.1276861 2572.3</gx:coord>
      <gx:coord>76.9576542 43.1275674 2574.0</gx:coord>
      <gx:coord>76.9574587 43.1274928 2575.8</gx:coord>
      <gx:coord>76.9572402 43.1274700 2577.5</gx:coord>
      <gx:coord>76.9570216 43.1275017 2579.3</gx:coord>
      <gx:coord>76.9568261 43.1275853 2581.0</gx:coord>
      <gx:coord>76.9566745 43.1277131 2582.8</gx:coord>
      <gx:coord>76.9565833 43.1278728 2584.5</gx:coord>
      <gx:coord>76.9565632 43.1280494 2586.3</gx:coord>
      <gx:coord>76.9566178 43.1282260 2588.0</gx:coord>
      <gx:coord>76.9567434 43.1283858 2589.8</gx:coord>
      <gx:coord>76.9569295 43.1285135 2591.5</gx:coord>
      <gx:coord>76.9571594 43.1285971 2593.3</gx:coord>
      <gx:coord>76.9574125 43.1286288 2595.0</gx:coord>
      <gx:coord>76.9576655 43.1286061 2596.8</gx:coord>
      <gx:coord>76.9578955 43.1285314 2598.5</gx:coord>
      <gx:coord>76.9580816 43.1284127 2600.3</gx:coord>
      <gx:coord>76.9582072 43.1282619 2602.0</gx:coord>
      <gx:coord>76.9582618 43.1280943 2603.8</gx:coord>
      <gx:coord>76.9582416 43.1279267 2605.5</gx:coord>
      <gx:coord>76.9581505 43.1277759 2607.3</gx:coord>
      <gx:coord>76.9579989 43.1276572 2609.0</gx:coord>
      <gx:coord>76.9578034 43.1275826 2610.8</gx:coord>
      <gx:coord>76.9575848 43.1275598 2612.5</gx:coord>
      <gx:coord>76.9573662 43.1275916 2614.3</gx:coord>
      <gx:coord>76.9571707 43.1276752 2616.0</gx:coord>
      <gx:coord>76.9570191 43.1278029 2617.8</gx:coord>
      <gx:coord>76.9569279 43.1279626 2619.5</gx:coord>
      <gx:coord>76.9569078 43.1281392 2621.3</gx:coord>
      <gx:coord>76.9569624 43.1283158 2623.0</gx:coord>
      <gx:coord>76.9570880 43.1284756 2624.8</gx:coord>
      <gx:coord>76.9572741 43.1286033 2626.5</gx:coord>
      <gx:coord>76.9575041 43.1286869 2628.3</gx:coord>
      <gx:coord>76.9577571 43.1287186 2630.0</gx:coord>
      <gx:coord>76.9580102 43.1286959 2631.8</gx:coord>
      <gx:coord>76.9582401 43.1286213 2633.5</gx:coord>
      <gx:coord>76.9584262 43.1285025 2635.3</gx:coord>
      <gx:coord>76.9585518 43.1283518 2637.0</gx:coord>
      <gx:coord>76.9586064 43.1281842 2638.8</gx:coord>
      <gx:coord>76.9585863 43.1280165 2640.5</gx:coord>
      <gx:coord>76.9584951 43.1278658 2642.3</gx:coord>
      <gx:coord>76.9583435 43.1277470 2644.0</gx:coord>
      <gx:coord>76.9581480 43.1276724 2645.8</gx:coord>
      <gx:coord>76.9579294 43.1276497 2647.5</gx:coord>
      <gx:coord>76.9577108 43.1276814 2649.3</gx:coord>
      <gx:coord>76.9575153 43.1277650 2651.0</gx:coord>
      <gx:coord>76.9573637 43.1278927 2652.8</gx:coord>
      <gx:coord>76.9572726 43.1280525 2654.5</gx:coord>
      <gx:coord>76.9572525 43.1282291 2656.3</gx:coord>
      <gx:coord>76.9573070 43.1284057 2658.0</gx:coord>
      <gx:coord>76.9574327 43.1285654 2659.8</gx:coord>
      <gx:coord>76.9576187 43.1286931 2661.5</gx:coord>
      <gx:coord>76.9578487 43.1287767 2663.3</gx:coord>
      <gx:coord>76.9581017 43.1288085 2665.0</gx:coord>
      <gx:coord>76.9583548 43.1287857 2666.8</gx:coord>
      <gx:coord>76.9585848 43.1287111 2668.5</gx:coord>
      <gx:coord>76.9587708 43.1285924 2670.3</gx:coord>
      <gx:coord>76.9588965 43.1284416 2672.0</gx:coord>
      <gx:coord>76.9589510 43.1282740 2673.8</gx:coord>
      <gx:coord>76.9589309 43.1281064 2675.5</gx:coord>
      <gx:coord>76.9588398 43.1279556 2677.3</gx:coord>
      <gx:coord>76.9586882 43.1278369 2679.0</gx:coord>
      <gx:coord>76.9584927 43.1277623 2680.8</gx:coord>
      <gx:coord>76.9582741 43.1277395 2682.5</gx:coord>
      <gx:coord>76.9580555 43.1277712 2684.3</gx:coord>
      <gx:coord>76.9578600 43.1278548 2686.0</gx:coord>
      <gx:coord>76.9577084 43.1279825 2687.8</gx:coord>
      <gx:coord>76.9576172 43.1281423 2689.5</gx:coord>
      <gx:coord>76.9575971 43.1283189 2691.3</gx:coord>
      <gx:coord>76.9576517 43.1284955 2693.0</gx:coord>
      <gx:coord>76.9577773 43.1286553 2694.8</gx:coord>
      <gx:coord>76.9579634 43.1287830 2696.5</gx:coord>
      <gx:coord>76.9581933 43.1288666 2698.3</gx:coord>
      <gx:coord>76.9584464 43.1288983 2700.0</gx:coord>
      <gx:coord>76.9586994 43.1288755 2701.8</gx:coord>
      <gx:coord>76.9589294 43.1288009 2703.5</gx:coord>
      <gx:coord>76.9591155 43.1286822 2705.3</gx:coord>
      <gx:coord>76.9592411 43.1285314 2707.0</gx:coord>
      <gx:coord>76.9592957 43.1283638 2708.8</gx:coord>
      <gx:coord>76.9592756 43.1281962 2710.5</gx:coord>
      <gx:coord>76.9591844 43.1280454 2712.3</gx:coord>
      <gx:coord>76.9590328 43.1279267 2714.0</gx:coord>
      <gx:coord>76.9588373 43.1278521 2715.8</gx:coord>
      <gx:coord>76.9586187 43.1278293 2717.5</gx:coord>
      <gx:coord>76.9584001 43.1278611 2719.3</gx:coord>
      <gx:coord>76.9582046 43.1279447 2721.0</gx:coord>
      <gx:coord>76.9580530 43.1280724 2722.8</gx:coord>
      <gx:coord>76.9579619 43.1282321 2724.5</gx:coord>
      <gx:coord>76.9579417 43.1284087 2726.3</gx:coord>
      <gx:coord>76.9579963 43.1285853 2728.0</gx:coord>
      <gx:coord>76.9581219 43.1287451 2729.8</gx:coord>
      <gx:coord>76.9583080 43.1288728 2731.5</gx:coord>
      <gx:coord>76.9585380 43.1289564 2733.3</gx:coord>
      <gx:coord>76.9587910 43.1289881 2735.0</gx:coord>
      <gx:coord>76.9590441 43.1289654 2736.8</gx:coord>
      <gx:coord>76.9592740 43.1288908 2738.5</gx:coord>
      <gx:coord>76.9594601 43.1287720 2740.3</gx:coord>
      <gx:coord>76.9595857 43.1286213 2742.0</gx:coord>
      <gx:coord>76.9596403 43.1284536 2743.8</gx:coord>
      <gx:coord>76.9596202 43.1282860 2745.5</gx:coord>
      <gx:coord>76.9595290 43.1281353 2747.3</gx:coord>
      <gx:coord>76.9593774 43.1280165 2749.0</gx:coord>
      <gx:coord>76.9591819 43.1279419 2750.8</gx:coord>
      <gx:coord>76.9589633 43.1279192 2752.5</gx:coord>
      <gx:coord>76.9587448 43.1279509 2754.3</gx:coord>
      <gx:coord>76.9585493 43.1280345 2756.0</gx:coord>
      <gx:coord>76.9583977 43.1281622 2757.8</gx:coord>
      <gx:coord>76.9583065 43.1283220 2759.5</gx:coord>
      <gx:coord>76.9582864 43.1284986 2761.3</gx:coord>
      <gx:coord>76.9583410 43.1286752 2763.0</gx:coord>
      <gx:coord>76.9584666 43.1288349 2764.8</gx:coord>
      <gx:coord>76.9586526 43.1289626 2766.5</gx:coord>
      <gx:coord>76.9588826 43.1290462 2768.3</gx:coord>
      <gx:coord>76.9591357 43.1285210 2770.0</gx:coord>
      <gx:coord>76.9592661 43.1285372 2768.8</gx:coord>
      <gx:coord>76.9593966 43.1285534 2767.6</gx:coord>
      <gx:coord>76.9595271 43.1285695 2766.4</gx:coord>
      <gx:coord>76.9596575 43.1285857 2765.2</gx:coord>
      <gx:coord>76.9597880 43.1286019 2764.0</gx:coord>
      <gx:coord>76.9599185 43.1286180 2762.8</gx:coord>
      <gx:coord>76.9600490 43.1286342 2761.6</gx:coord>
      <gx:coord>76.9601794 43.1286504 2760.4</gx:coord>
      <gx:coord>76.9603099 43.1286665 2759.2</gx:coord>
      <gx:coord>76.9604404 43.1286827 2758.0</gx:coord>
      <gx:coord>76.9605708 43.1286989 2756.8</gx:coord>
      <gx:coord>76.9607013 43.1287151 2755.6</gx:coord>
      <gx:coord>76.9608318 43.1287312 2754.4</gx:coord>
      <gx:coord>76.9609623 43.1287474 2753.2</gx:coord>
      <gx:coord>76.9610927 43.1287636 2752.0</gx:coord>
      <gx:coord>76.9612232 43.1287797 2750.8</gx:coord>
      <gx:coord>76.9613537 43.1287959 2749.6</gx:coord>
      <gx:coord>76.9614841 43.1288121 2748.4</gx:coord>
      <gx:coord>76.9616146 43.1288282 2747.2</gx:coord>
      <gx:coord>76.9617451 43.1288444 2746.0</gx:coord>
      <gx:coord>76.9618755 43.1288606 2744.8</gx:coord>
      <gx:coord>76.9620060 43.1288768 2743.6</gx:coord>
      <gx:coord>76.9621365 43.1288929 2742.4</gx:coord>
      <gx:coord>76.9622670 43.1289091 2741.2</gx:coord>
      <gx:coord>76.9623974 43.1289253 2740.0</gx:coord>
      <gx:coord>76.9625279 43.1289414 2738.8</gx:coord>
      <gx:coord>76.9626584 43.1289576 2737.6</gx:coord>
      <gx:coord>76.9627888 43.1289738 2736.4</gx:coord>
      <gx:coord>76.9629193 43.1289899 2735.2</gx:coord>
      <gx:coord>76.9630498 43.1290061 2734.0</gx:coord>
      <gx:coord>76.9631802 43.1290223 2732.8</gx:coord>
      <gx:coord>76.9633107 43.1290384 2731.6</gx:coord>
      <gx:coord>76.9634412 43.1290546 2730.4</gx:coord>
      <gx:coord>76.9635717 43.1290708 2729.2</gx:coord>
      <gx:coord>76.9637021 43.1290870 2728.0</gx:coord>
      <gx:coord>76.9638326 43.1291031 2726.8</gx:coord>
      <gx:coord>76.9639631 43.1291193 2725.6</gx:coord>
      <gx:coord>76.9640935 43.1291355 2724.4</gx:coord>
      <gx:coord>76.9642240 43.1291516 2723.2</gx:coord>
      <gx:coord>76.9643545 43.1291678 2722.0</gx:coord>
      <gx:coord>76.9644850 43.1291840 2720.8</gx:coord>
      <gx:coord>76.9646154 43.1292001 2719.6</gx:coord>
      <gx:coord>76.9647459 43.1292163 2718.4</gx:coord>
      <gx:coord>76.9648764 43.1292325 2717.2</gx:coord>
      <gx:coord>76.9650068 43.1292487 2716.0</gx:coord>
      <gx:coord>76.9651373 43.1292648 2714.8</gx:coord>
      <gx:coord>76.9652678 43.1292810 2713.6</gx:coord>
      <gx:coord>76.9653982 43.1292972 2712.4</gx:coord>
      <gx:coord>76.9655287 43.1293133 2711.2</gx:coord>
      <gx:coord>76.9656592 43.1293295 2710.0</gx:coord>
      <gx:coord>76.9657897 43.1293457 2708.8</gx:coord>
      <gx:coord>76.9659201 43.1293618 2707.6</gx:coord>
      <gx:coord>76.9660506 43.1293780 2706.4</gx:coord>
      <gx:coord>76.9661811 43.1293942 2705.2</gx:coord>
      <gx:coord>76.9663115 43.1294103 2704.0</gx:coord>
      <gx:coord>76.9664420 43.1294265 2702.8</gx:coord>
      <gx:coord>76.9665725 43.1294427 2701.6</gx:coord>
      <gx:coord>76.9667029 43.1294589 2700.4</gx:coord>
      <gx:coord>76.9668334 43.1294750 2699.2</gx:coord>
      <gx:coord>76.9669639 43.1294912 2698.0</gx:coord>
      <gx:coord>76.9670944 43.1295074 2696.8</gx:coord>
      <gx:coord>76.9672248 43.1295235 2695.6</gx:coord>
      <gx:coord>76.9673553 43.1295397 2694.4</gx:coord>
      <gx:coord>76.9674858 43.1295559 2693.2</gx:coord>
      <gx:coord>76.9676162 43.1295720 2692.0</gx:coord>
      <gx:coord>76.9677467 43.1295882 2690.8</gx:coord>
      <gx:coord>76.9678772 43.1296044 2689.6</gx:coord>
      <gx:coord>76.9680077 43.1296206 2688.4</gx:coord>
      <gx:coord>76.9681381 43.1296367 2687.2</gx:coord>
      <gx:coord>76.9682686 43.1296529 2686.0</gx:coord>
      <gx:coord>76.9683991 43.1296691 2684.8</gx:coord>
      <gx:coord>76.9685295 43.1296852 2683.6</gx:coord>
      <gx:coord>76.9686600 43.1297014 2682.4</gx:coord>
      <gx:coord>76.9687905 43.1297176 2681.2</gx:coord>
      <gx:coord>76.9689209 43.1297337 2680.0</gx:coord>
      <gx:coord>76.9690514 43.1297499 2678.8</gx:coord>
      <gx:coord>76.9691819 43.1297661 2677.6</gx:coord>
      <gx:coord>76.9693124 43.1297822 2676.4</gx:coord>
      <gx:coord>76.9694428 43.1297984 2675.2</gx:coord>
      <gx:coord>76.9695733 43.1298146 2674.0</gx:coord>
      <gx:coord>76.9697038 43.1298308 2672.8</gx:coord>
      <gx:coord>76.9698342 43.1298469 2671.6</gx:coord>
      <gx:coord>76.9699647 43.1298631 2670.4</gx:coord>
      <gx:coord>76.9700952 43.1298793 2669.2</gx:coord>
      <gx:coord>76.9702256 43.1298954 2668.0</gx:coord>
      <gx:coord>76.9703561 43.1299116 2666.8</gx:coord>
      <gx:coord>76.9704866 43.1299278 2665.6</gx:coord>
      <gx:coord>76.9706171 43.1299439 2664.4</gx:coord>
      <gx:coord>76.9707475 43.1299601 2663.2</gx:coord>
      <gx:coord>76.9708780 43.1299763 2662.0</gx:coord>
      <gx:coord>76.9710085 43.1299925 2660.8</gx:coord>
      <gx:coord>76.9711389 43.1300086 2659.6</gx:coord>
      <gx:coord>76.9712694 43.1300248 2658.4</gx:coord>
      <gx:coord>76.9713999 43.1300410 2657.2</gx:coord>
      <gx:coord>76.9715304 43.1300571 2656.0</gx:coord>
      <gx:coord>76.9716608 43.1300733 2654.8</gx:coord>
      <gx:coord>76.9717913 43.1300895 2653.6</gx:coord>
      <gx:coord>76.9719218 43.1301056 2652.4</gx:coord>
      <gx:coord>76.9720522 43.1301218 2651.2</gx:coord>
      <gx:coord>76.9721827 43.1301380 2650.0</gx:coord>
      <gx:coord>76.9723132 43.1301542 2648.8</gx:coord>
      <gx:coord>76.9724436 43.1301703 2647.6</gx:coord>
      <gx:coord>76.9725741 43.1301865 2646.4</gx:coord>
      <gx:coord>76.9727046 43.1302027 2645.2</gx:coord>
      <gx:coord>76.9728351 43.1302188 2644.0</gx:coord>
      <gx:coord>76.9729655 43.1302350 2642.8</gx:coord>
      <gx:coord>76.9730960 43.1302512 2641.6</gx:coord>
      <gx:coord>76.9732265 43.1302673 2640.4</gx:coord>
      <gx:coord>76.9733569 43.1302835 2639.2</gx:coord>
      <gx:coord>76.9734874 43.1302997 2638.0</gx:coord>
      <gx:coord>76.9736179 43.1303158 2636.8</gx:coord>
      <gx:coord>76.9737483 43.1303320 2635.6</gx:coord>
      <gx:coord>76.9738788 43.1303482 2634.4</gx:coord>
      <gx:coord>76.9740093 43.1303644 2633.2</gx:coord>
      <gx:coord>76.9741398 43.1303805 2632.0</gx:coord>
      <gx:coord>76.9742702 43.1303967 2630.8</gx:coord>
      <gx:coord>76.9744007 43.1304129 2629.6</gx:coord>
      <gx:coord>76.9745312 43.1304290 2628.4</gx:coord>
      <gx:coord>76.9746616 43.1304452 2627.2</gx:coord>
      <gx:coord>76.9747921 43.1304614 2626.0</gx:coord>
      <gx:coord>76.9749226 43.1304775 2624.8</gx:coord>
      <gx:coord>76.9750531 43.1304937 2623.6</gx:coord>
      <gx:coord>76.9751835 43.1305099 2622.4</gx:coord>
      <gx:coord>76.9753140 43.1305261 2621.2</gx:coord>
      <gx:coord>76.9754445 43.1305422 2620.0</gx:coord>
      <gx:coord>76.9755749 43.1305584 2618.8</gx:coord>
      <gx:coord>76.9757054 43.1305746 2617.6</gx:coord>
      <gx:coord>76.9758359 43.1305907 2616.4</gx:coord>
      <gx:coord>76.9759663 43.1306069 2615.2</gx:coord>
      <gx:coord>76.9760968 43.1306231 2614.0</gx:coord>
      <gx:coord>76.9762273 43.1306392 2612.8</gx:coord>
      <gx:coord>76.9763578 43.1306554 2611.6</gx:coord>
      <gx:coord>76.9764882 43.1306716 2610.4</gx:coord>
      <gx:coord>76.9766187 43.1306877 2609.2</gx:coord>
      <gx:coord>76.9767492 43.1307039 2608.0</gx:coord>
      <gx:coord>76.9768796 43.1307201 2606.8</gx:coord>
      <gx:coord>76.9770101 43.1307363 2605.6</gx:coord>
      <gx:coord>76.9771406 43.1307524 2604.4</gx:coord>
      <gx:coord>76.9772711 43.1307686 2603.2</gx:coord>
      <gx:coord>76.9774015 43.1307848 2602.0</gx:coord>
      <gx:coord>76.9775320 43.1308009 2600.8</gx:coord>
      <gx:coord>76.9776625 43.1308171 2599.6</gx:coord>
      <gx:coord>76.9777929 43.1308333 2598.4</gx:coord>
      <gx:coord>76.9779234 43.1308494 2597.2</gx:coord>
      <gx:coord>76.9780539 43.1308656 2596.0</gx:coord>
      <gx:coord>76.9781843 43.1308818 2594.8</gx:coord>
      <gx:coord>76.9783148 43.1308980 2593.6</gx:coord>
      <gx:coord>76.9784453 43.1309141 2592.4</gx:coord>
      <gx:coord>76.9785758 43.1309303 2591.2</gx:coord>
      <gx:coord>76.9787062 43.1309465 2590.0</gx:coord>
      <gx:coord>76.9788367 43.1309626 2588.8</gx:coord>
      <gx:coord>76.9789672 43.1309788 2587.6</gx:coord>
      <gx:coord>76.9790976 43.1309950 2586.4</gx:coord>
      <gx:coord>76.9792281 43.1310111 2585.2</gx:coord>
      <gx:coord>76.9793586 43.1310273 2584.0</gx:coord>
      <gx:coord>76.9794890 43.1310435 2582.8</gx:coord>
      <gx:coord>76.9796195 43.1310596 2581.6</gx:coord>
      <gx:coord>76.9797500 43.1310758 2580.4</gx:coord>
      <gx:coord>76.9798805 43.1310920 2579.2</gx:coord>
      <gx:coord>76.9800109 43.1311082 2578.0</gx:coord>
      <gx:coord>76.9801414 43.1311243 2576.8</gx:coord>
      <gx:coord>76.9802719 43.1311405 2575.6</gx:coord>
      <gx:coord>76.9804023 43.1311567 2574.4</gx:coord>
      <gx:coord>76.9805328 43.1311728 2573.2</gx:coord>
      <gx:coord>76.9806633 43.1311890 2572.0</gx:coord>
      <gx:coord>76.9807938 43.1312052 2570.8</gx:coord>
      <gx:coord>76.9809242 43.1312213 2569.6</gx:coord>
      <gx:coord>76.9810547 43.1312375 2568.4</gx:coord>
      <gx:coord>76.9811852 43.1312537 2567.2</gx:coord>
      <gx:coord>76.9813156 43.1312699 2566.0</gx:coord>
      <gx:coord>76.9814461 43.1312860 2564.8</gx:coord>
      <gx:coord>76.9815766 43.1313022 2563.6</gx:coord>
      <gx:coord>76.9817070 43.1313184 2562.4</gx:coord>
      <gx:coord>76.9818375 43.1313345 2561.2</gx:coord>
      <gx:coord>76.9819680 43.1313507 2560.0</gx:coord>
      <gx:coord>76.9820985 43.1313669 2558.8</gx:coord>
      <gx:coord>76.9822289 43.1313830 2557.6</gx:coord>
      <gx:coord>76.9823594 43.1313992 2556.4</gx:coord>
      <gx:coord>76.9824899 43.1314154 2555.2</gx:coord>
      <gx:coord>76.9826203 43.1314315 2554.0</gx:coord>
      <gx:coord>76.9827508 43.1314477 2552.8</gx:coord>
      <gx:coord>76.9828813 43.1314639 2551.6</gx:coord>
      <gx:coord>76.9830117 43.1314801 2550.4</gx:coord>
      <gx:coord>76.9831422 43.1314962 2549.2</gx:coord>
      <gx:coord>76.9832727 43.1315124 2548.0</gx:coord>
      <gx:coord>76.9834032 43.1315286 2546.8</gx:coord>
      <gx:coord>76.9835336 43.1315447 2545.6</gx:coord>
      <gx:coord>76.9836641 43.1315609 2544.4</gx:coord>
      <gx:coord>76.9837946 43.1315771 2543.2</gx:coord>
      <gx:coord>76.9839250 43.1315932 2542.0</gx:coord>
      <gx:coord>76.9840555 43.1316094 2540.8</gx:coord>
      <gx:coord>76.9841860 43.1316256 2539.6</gx:coord>
      <gx:coord>76.9843165 43.1316418 2538.4</gx:coord>
      <gx:coord>76.9844469 43.1316579 2537.2</gx:coord>
      <gx:coord>76.9845774 43.1316741 2536.0</gx:coord>
      <gx:coord>76.9847079 43.1316903 2534.8</gx:coord>
      <gx:coord>76.9848383 43.1317064 2533.6</gx:coord>
      <gx:coord>76.9849688 43.1317226 2532.4</gx:coord>
      <gx:coord>76.9850993 43.1317388 2531.2</gx:coord>
      <gx:coord>76.9852297 43.1317549 2530.0</gx:coord>
      <gx:coord>76.9853602 43.1317711 2528.8</gx:coord>
      <gx:coord>76.9854907 43.1317873 2527.6</gx:coord>
      <gx:coord>76.9856212 43.1318034 2526.4</gx:coord>
      <gx:coord>76.9857516 43.1318196 2525.2</gx:coord>
      <gx:coord>76.9858821 43.1318358 2524.0</gx:coord>
      <gx:coord>76.9860126 43.1318520 2522.8</gx:coord>
      <gx:coord>76.9861430 43.1318681 2521.6</gx:coord>
      <gx:coord>76.9862735 43.1318843 2520.4</gx:coord>
      <gx:coord>76.9864040 43.1319005 2519.2</gx:coord>
      <gx:coord>76.9865344 43.1319166 2518.0</gx:coord>
      <gx:coord>76.9866649 43.1319328 2516.8</gx:coord>
      <gx:coord>76.9867954 43.1319490 2515.6</gx:coord>
      <gx:coord>76.9869259 43.1319651 2514.4</gx:coord>
      <gx:coord>76.9870563 43.1319813 2513.2</gx:coord>
      <gx:coord>76.9871868 43.1319975 2512.0</gx:coord>
      <gx:coord>76.9873173 43.1320137 2510.8</gx:coord>
      <gx:coord>76.9874477 43.1320298 2509.6</gx:coord>
      <gx:coord>76.9875782 43.1320460 2508.4</gx:coord>
      <gx:coord>76.9877087 43.1320622 2507.2</gx:coord>
      <gx:coord>76.9878392 43.1320783 2506.0</gx:coord>
      <gx:coord>76.9879696 43.1320945 2504.8</gx:coord>
      <gx:coord>76.9881001 43.1321107 2503.6</gx:coord>
      <gx:coord>76.9882306 43.1321268 2502.4</gx:coord>
      <gx:coord>76.9883610 43.1321430 2501.2</gx:coord>
      <gx:coord>76.9884915 43.1321592 2500.0</gx:coord>
      <gx:coord>76.9886220 43.1321754 2498.8</gx:coord>
      <gx:coord>76.9887524 43.1321915 2497.6</gx:coord>
      <gx:coord>76.9888829 43.1322077 2496.4</gx:coord>
      <gx:coord>76.9890134 43.1322239 2495.2</gx:coord>
      <gx:coord>76.9891439 43.1322400 2494.0</gx:coord>
      <gx:coord>76.9892743 43.1322562 2492.8</gx:coord>
      <gx:coord>76.9894048 43.1322724 2491.6</gx:coord>
      <gx:coord>76.9895353 43.1322885 2490.4</gx:coord>
      <gx:coord>76.9896657 43.1323047 2489.2</gx:coord>
      <gx:coord>76.9897962 43.1323209 2488.0</gx:coord>
      <gx:coord>76.9899267 43.1323370 2486.8</gx:coord>
      <gx:coord>76.9900571 43.1323532 2485.6</gx:coord>
      <gx:coord>76.9901876 43.1323694 2484.4</gx:coord>
      <gx:coord>76.9903181 43.1323856 2483.2</gx:coord>
      <gx:coord>77.0214661 43.1360848 2770.0</gx:coord>
      <gx:coord>77.0217191 43.1360620 2771.8</gx:coord>
      <gx:coord>77.0219491 43.1359874 2773.5</gx:coord>
      <gx:coord>77.0221351 43.1358687 2775.3</gx:coord>
      <gx:coord>77.0222608 43.1357179 2777.0</gx:coord>
      <gx:coord>77.0223153 43.1355503 2778.8</gx:coord>
      <gx:coord>77.0222952 43.1353827 2780.5</gx:coord>
      <gx:coord>77.0222041 43.1352319 2782.3</gx:coord>
      <gx:coord>77.0220525 43.1351132 2784.0</gx:coord>
      <gx:coord>77.0218570 43.1350386 2785.8</gx:coord>
      <gx:coord>77.0216384 43.1350158 2787.5</gx:coord>
      <gx:coord>77.0214198 43.1350476 2789.3</gx:coord>
      <gx:coord>77.0212243 43.1351312 2791.0</gx:coord>
      <gx:coord>77.0210727 43.1352589 2792.8</gx:coord>
      <gx:coord>77.0209815 43.1354186 2794.5</gx:coord>
      <gx:coord>77.0209614 43.1355952 2796.3</gx:coord>
      <gx:coord>77.0210160 43.1357718 2798.0</gx:coord>
      <gx:coord>77.0211416 43.1359316 2799.8</gx:coord>
      <gx:coord>77.0213277 43.1360593 2801.5</gx:coord>
      <gx:coord>77.0215576 43.1361429 2803.3</gx:coord>
      <gx:coord>77.0218107 43.1361746 2805.0</gx:coord>
      <gx:coord>77.0220637 43.1361519 2806.8</gx:coord>
      <gx:coord>77.0222937 43.1360772 2808.5</gx:coord>
      <gx:coord>77.0224798 43.1359585 2810.3</gx:coord>
      <gx:coord>77.0226054 43.1358078 2812.0</gx:coord>
      <gx:coord>77.0226600 43.1356401 2813.8</gx:coord>
      <gx:coord>77.0226399 43.1354725 2815.5</gx:coord>
      <gx:coord>77.0225487 43.1353218 2817.3</gx:coord>
      <gx:coord>77.0223971 43.1352030 2819.0</gx:coord>
      <gx:coord>77.0222016 43.1351284 2820.8</gx:coord>
      <gx:coord>77.0219830 43.1351056 2822.5</gx:coord>
      <gx:coord>77.0217644 43.1351374 2824.3</gx:coord>
      <gx:coord>77.0215689 43.1352210 2826.0</gx:coord>
      <gx:coord>77.0214173 43.1353487 2827.8</gx:coord>
      <gx:coord>77.0213262 43.1355085 2829.5</gx:coord>
      <gx:coord>77.0213060 43.1356851 2831.3</gx:coord>
      <gx:coord>77.0213606 43.1358617 2833.0</gx:coord>
      <gx:coord>77.0214862 43.1360214 2834.8</gx:coord>
      <gx:coord>77.0216723 43.1361491 2836.5</gx:coord>
      <gx:coord>77.0219023 43.1362327 2838.3</gx:coord>
      <gx:coord>77.0221553 43.1362645 2840.0</gx:coord>
      <gx:coord>77.0224084 43.1362417 2841.8</gx:coord>
      <gx:coord>77.0226383 43.1361671 2843.5</gx:coord>
      <gx:coord>77.0228244 43.1360484 2845.3</gx:coord>
      <gx:coord>77.0229500 43.1358976 2847.0</gx:coord>
      <gx:coord>77.0230046 43.1357300 2848.8</gx:coord>
      <gx:coord>77.0229845 43.1355624 2850.5</gx:coord>
      <gx:coord>77.0228933 43.1354116 2852.3</gx:coord>
      <gx:coord>77.0227417 43.1352929 2854.0</gx:coord>
      <gx:coord>77.0225462 43.1352182 2855.8</gx:coord>
      <gx:coord>77.0223276 43.1351955 2857.5</gx:coord>
      <gx:coord>77.0221091 43.1352272 2859.3</gx:coord>
      <gx:coord>77.0219136 43.1353108 2861.0</gx:coord>
      <gx:coord>77.0217620 43.1354385 2862.8</gx:coord>
      <gx:coord>77.0216708 43.1355983 2864.5</gx:coord>
      <gx:coord>77.0216507 43.1357749 2866.3</gx:coord>
      <gx:coord>77.0217053 43.1359515 2868.0</gx:coord>
      <gx:coord>77.0218309 43.1361112 2869.8</gx:coord>
      <gx:coord>77.0220169 43.1362389 2871.5</gx:coord>
      <gx:coord>77.0222469 43.1363225 2873.3</gx:coord>
      <gx:coord>77.0225000 43.1363543 2875.0</gx:coord>
      <gx:coord>77.0227530 43.1363315 2876.8</gx:coord>
      <gx:coord>77.0229830 43.1362569 2878.5</gx:coord>
      <gx:coord>77.0231690 43.1361382 2880.3</gx:coord>
      <gx:coord>77.0232947 43.1359874 2882.0</gx:coord>
      <gx:coord>77.0233493 43.1358198 2883.8</gx:coord>
      <gx:coord>77.0233291 43.1356522 2885.5</gx:coord>
      <gx:coord>77.0232380 43.1355014 2887.3</gx:coord>
      <gx:coord>77.0230864 43.1353827 2889.0</gx:coord>
      <gx:coord>77.0228909 43.1353081 2890.8</gx:coord>
      <gx:coord>77.0226723 43.1352853 2892.5</gx:coord>
      <gx:coord>77.0224537 43.1353171 2894.3</gx:coord>
      <gx:coord>77.0222582 43.1354007 2896.0</gx:coord>
      <gx:coord>77.0221066 43.1355284 2897.8</gx:coord>
      <gx:coord>77.0220154 43.1356881 2899.5</gx:coord>
      <gx:coord>77.0219953 43.1358647 2901.3</gx:coord>
      <gx:coord>77.0220499 43.1360413 2903.0</gx:coord>
      <gx:coord>77.0221755 43.1362011 2904.8</gx:coord>
      <gx:coord>77.0223616 43.1363288 2906.5</gx:coord>
      <gx:coord>77.0225916 43.1364124 2908.3</gx:coord>
      <gx:coord>77.0228446 43.1364441 2910.0</gx:coord>
      <gx:coord>77.0230977 43.1364214 2911.8</gx:coord>
      <gx:coord>77.0233276 43.1363467 2913.5</gx:coord>
      <gx:coord>77.0235137 43.1362280 2915.3</gx:coord>
      <gx:coord>77.0236393 43.1360772 2917.0</gx:coord>
      <gx:coord>77.0236939 43.1359096 2918.8</gx:coord>
      <gx:coord>77.0236738 43.1357420 2920.5</gx:coord>
      <gx:coord>77.0235826 43.1355912 2922.3</gx:coord>
      <gx:coord>77.0234310 43.1354725 2924.0</gx:coord>
      <gx:coord>77.0232355 43.1353979 2925.8</gx:coord>
      <gx:coord>77.0230169 43.1353751 2927.5</gx:coord>
      <gx:coord>77.0227983 43.1354069 2929.3</gx:coord>
      <gx:coord>77.0226028 43.1354905 2931.0</gx:coord>
      <gx:coord>77.0224512 43.1356182 2932.8</gx:coord>
      <gx:coord>77.0223601 43.1357779 2934.5</gx:coord>
      <gx:coord>77.0223400 43.1359545 2936.3</gx:coord>
      <gx:coord>77.0223945 43.1361311 2938.0</gx:coord>
      <gx:coord>77.0225202 43.1362909 2939.8</gx:coord>
      <gx:coord>77.0227062 43.1364186 2941.5</gx:coord>
      <gx:coord>77.0229362 43.1365022 2943.3</gx:coord>
      <gx:coord>77.0231892 43.1365340 2945.0</gx:coord>
      <gx:coord>77.0234423 43.1365112 2946.8</gx:coord>
      <gx:coord>77.0236723 43.1364366 2948.5</gx:coord>
      <gx:coord>77.0238583 43.1363178 2950.3</gx:coord>
      <gx:coord>77.0239840 43.1361671 2952.0</gx:coord>
      <gx:coord>77.0240385 43.1359995 2953.8</gx:coord>
      <gx:coord>77.0240184 43.1358318 2955.5</gx:coord>
      <gx:coord>77.0239273 43.1356811 2957.3</gx:coord>
      <gx:coord>77.0237757 43.1355624 2959.0</gx:coord>
      <gx:coord>77.0235802 43.1354877 2960.8</gx:coord>
      <gx:coord>77.0233616 43.1354650 2962.5</gx:coord>
      <gx:coord>77.0231430 43.1354967 2964.3</gx:coord>
      <gx:coord>77.0229475 43.1355803 2966.0</gx:coord>
      <gx:coord>77.0227959 43.1357080 2967.8</gx:coord>
      <gx:coord>77.0227047 43.1358678 2969.5</gx:coord>
      <gx:coord>77.0226846 43.1360444 2971.3</gx:coord>
      <gx:coord>77.0227392 43.1362210 2973.0</gx:coord>
      <gx:coord>77.0228648 43.1363807 2974.8</gx:coord>
      <gx:coord>77.0230509 43.1365084 2976.5</gx:coord>
      <gx:coord>77.0232808 43.1365920 2978.3</gx:coord>
    </gx:Track>
  </Placemark>
</Document>
</kml>
