AXCT Skyline fixture generator
HFDTE150726
HFPLTPILOTINCHARGE:Test Pilot
HFGTYGLIDERTYPE:Ozone Zeno 2
HFGIDGLIDERID:FIXTURE
HFDTM100GPSDATUM:WGS-1984
HFFTYFRTYPE:Skyline,Fixture
I023637LAD3839LOD
B1200004307680N07657300EA02350023980000
B1200014307678N07657315EA02352024006318
B1200024307674N07657328EA02354024021698
B1200034307667N07657340EA02355024030314
B1200044307657N07657347EA02357024059968
B1200054307647N07657350EA02359024079396
B1200064307637N07657349EA02361024098775
B1200074307628N07657344EA02362024108328
B1200084307621N07657335EA02364024127018
B1200094307617N07657323EA02366024142345
B1200104307615N07657310EA02368024168634
B1200114307617N07657297EA02369024177722
B1200124307622N07657285EA02371024197849
B1200134307630N07657276EA02373024214440
B1200144307640N07657270EA02375024230393
B1200154307650N07657269EA02376024246372
B1200164307661N07657273EA02378024262200
B1200174307670N07657280EA02380024288153
B1200184307678N07657291EA02382024304770
B1200194307683N07657305EA02383024314850
B1200204307685N07657320EA02385024333968
B1200214307684N07657335EA02387024350286
B1200224307679N07657349EA02389024375566
B1200234307672N07657360EA02390024384282
B1200244307663N07657368EA02392024403836
B1200254307653N07657371EA02394024423264
B1200264307643N07657370EA02396024442643
B1200274307634N07657364EA02397024452296
B1200284307627N07657355EA02399024470986
B1200294307622N07657344EA02401024496213
B1200304307621N07657331EA02403024512502
B1200314307623N07657317EA02404024521690
B1200324307628N07657306EA02406024541717
B1200334307635N07657297EA02408024568308
B1200344307645N07657291EA02410024584261
B1200354307656N07657290EA02411024590240
B1200364307666N07657293EA02413024616167
B1200374307676N07657301EA02415024632021
B1200384307683N07657312EA02417024658638
B1200394307688N07657326EA02418024668717
B1200404307690N07657341EA02420024687836
B1200414307689N07657356EA02422024704154
B1200424307684N07657370EA02424024729434
B1200434307677N07657381EA02425024738150
B1200444307668N07657389EA02427024757704
B1200454307658N07657392EA02429024777131
B1200464307648N07657391EA02431024796511
B1200474307639N07657385EA02432024806164
B1200484307632N07657376EA02434024824854
B1200494307628N07657364EA02436024840181
B1200504307626N07657351EA02438024866470
B1200514307628N07657338EA02439024875558
B1200524307633N07657326EA02441024895685
B1200534307641N07657317EA02443024912275
B1200544307650N07657312EA02445024938128
B1200554307661N07657311EA02446024944008
B1200564307672N07657314EA02448024960035
B1200574307681N07657321EA02450024985989
B1200584307689N07657333EA02452025002505
B1200594307694N07657346EA02453025012685
B1201004307696N07657362EA02455025031703
B1201014307694N07657377EA02457025058022
B1201024307690N07657391EA02459025073302
B1201034307683N07657402EA02460025082018
B1201044307674N07657409EA02462025101672
B1201054307664N07657412EA02464025121099
B1201064307654N07657411EA02466025140479
B1201074307645N07657406EA02467025150032
B1201084307637N07657397EA02469025178722
B1201094307633N07657385EA02471025194049
B1201104307632N07657372EA02473025210337
B1201114307633N07657359EA02474025229426
B1201124307638N07657347EA02476025249553
B1201134307646N07657338EA02478025266143
B1201144307656N07657332EA02480025282096
B1201154307666N07657331EA02481025297976
B1201164307677N07657335EA02483025313903
B1201174307686N07657342EA02485025339857
B1201184307694N07657353EA02487025356473
B1201194307699N07657367EA02488025366553
B1201204307701N07657382EA02490025385671
B1201214307700N07657397EA02492025401990
B1201224307695N07657411EA02494025427269
B1201234307688N07657422EA02495025435986
B1201244307679N07657430EA02497025455540
B1201254307669N07657433EA02499025474967
B1201264307659N07657432EA02501025494346
B1201274307650N07657426EA02502025503999
B1201284307643N07657417EA02504025522690
B1201294307638N07657406EA02506025547917
B1201304307637N07657393EA02508025564205
B1201314307639N07657379EA02509025573394
B1201324307644N07657368EA02511025593421
B1201334307652N07657359EA02513025610011
B1201344307661N07657353EA02515025635964
B1201354307672N07657352EA02516025641843
B1201364307682N07657355EA02518025667871
B1201374307692N07657363EA02520025683725
B1201384307700N07657374EA02522025700341
B1201394307705N07657388EA02523025710421
B1201404307706N07657403EA02525025739539
B1201414307705N07657418EA02527025755857
B1201424307701N07657432EA02529025771137
B1201434307693N07657443EA02530025789854
B1201444307684N07657451EA02532025809407
B1201454307674N07657454EA02534025828835
B1201464307664N07657453EA02536025848214
B1201474307655N07657447EA02537025857867
B1201484307648N07657438EA02539025876558
B1201494307644N07657426EA02541025891885
B1201504307642N07657413EA02543025918173
B1201514307644N07657400EA02544025927162
B1201524307649N07657388EA02546025947389
B1201534307657N07657379EA02548025963979
B1201544307666N07657374EA02550025989832
B1201554307677N07657373EA02551025995711
B1201564307688N07657376EA02553026011739
B1201574307697N07657383EA02555026037693
B1201584307705N07657395EA02557026054209
B1201594307710N07657408EA02558026064389
B1202004307712N07657424EA02560026083407
B1202014307710N07657439EA02562026109725
B1202024307706N07657453EA02564026125005
B1202034307699N07657464EA02565026133721
B1202044307690N07657471EA02567026153375
B1202054307680N07657475EA02569026172703
B1202064307670N07657473EA02571026192182
B1202074307661N07657468EA02572026201735
B1202084307654N07657459EA02574026220425
B1202094307649N07657447EA02576026245752
B1202104307648N07657434EA02578026262041
B1202114307650N07657421EA02579026271029
B1202124307655N07657409EA02581026291256
B1202134307662N07657400EA02583026317847
B1202144307672N07657395EA02585026333700
B1202154307682N07657393EA02586026349679
B1202164307693N07657397EA02588026365607
B1202174307703N07657404EA02590026381560
B1202184307710N07657415EA02592026408177
B1202194307715N07657429EA02593026418257
B1202204307717N07657444EA02595026437375
B1202214307716N07657459EA02597026453693
B1202224307711N07657473EA02599026478973
B1202234307704N07657484EA02600026487689
B1202244307695N07657492EA02602026507243
B1202254307685N07657495EA02604026526671
B1202264307675N07657494EA02606026546050
B1202274307666N07657489EA02607026555603
B1202284307659N07657479EA02609026574393
B1202294307654N07657468EA02611026599620
B1202304307653N07657455EA02613026615909
B1202314307655N07657441EA02614026624997
B1202324307660N07657430EA02616026645124
B1202334307668N07657421EA02618026661715
B1202344307677N07657415EA02620026687668
B1202354307688N07657414EA02621026693547
B1202364307698N07657417EA02623026719574
B1202374307708N07657425EA02625026735428
B1202384307716N07657436EA02627026752045
B1202394307721N07657450EA02628026762124
B1202404307723N07657465EA02630026781243
B1202414307721N07657480EA02632026807561
B1202424307717N07657494EA02634026822841
B1202434307710N07657505EA02635026831557
B1202444307701N07657513EA02637026851111
B1202454307691N07657516EA02639026870538
B1202464307680N07657515EA02641026899918
B1202474307671N07657509EA02642026909571
B1202484307664N07657500EA02644026928261
B1202494307660N07657488EA02646026943588
B1202504307658N07657475EA02648026969877
B1202514307660N07657462EA02649026978865
B1202524307665N07657450EA02651026999092
B1202534307673N07657441EA02653027015682
B1202544307683N07657436EA02655027031535
B1202554307693N07657435EA02656027047415
B1202564307704N07657438EA02658027063442
B1202574307713N07657445EA02660027089396
B1202584307721N07657457EA02662027105912
B1202594307726N07657470EA02663027116092
B1203004307728N07657486EA02665027135110
B1203014307727N07657501EA02667027151429
B1203024307722N07657515EA02669027176709
B1203034307715N07657526EA02670027185425
B1203044307706N07657533EA02672027205079
B1203054307696N07657537EA02674027224406
B1203064307686N07657535EA02676027243886
B1203074307677N07657530EA02677027253439
B1203084307670N07657521EA02679027272129
B1203094307665N07657509EA02681027297456
B1203104307664N07657496EA02683027313744
B1203114307666N07657483EA02684027322733
B1203124307671N07657471EA02686027342960
B1203134307678N07657462EA02688027369550
B1203144307688N07657457EA02690027385403
B1203154307699N07657455EA02691027391383
B1203164307709N07657459EA02693027417310
B1203174307719N07657466EA02695027433264
B1203184307726N07657477EA02697027459880
B1203194307731N07657491EA02698027469960
B1203204307733N07657506EA02700027489078
B1203214307732N07657521EA02702027505397
B1203224307728N07657535EA02704027520676
B1203234307720N07657546EA02705027539393
B1203244307711N07657554EA02707027558947
B1203254307701N07657557EA02709027578374
B1203264307691N07657556EA02711027597753
B1203274307682N07657551EA02712027607306
B1203284307675N07657541EA02714027626097
B1203294307671N07657530EA02716027641324
B1203304307669N07657517EA02718027667612
B1203314307671N07657504EA02719027676601
B1203324307676N07657492EA02721027696828
B1203334307684N07657483EA02723027713418
B1203344307693N07657477EA02725027739371
B1203354307704N07657476EA02726027745250
B1203364307715N07657479EA02728027761278
B1203374307724N07657487EA02730027787132
B1203384307732N07657498EA02732027803748
B1203394307737N07657512EA02733027813828
B1203404307739N07657527EA02735027832946
B1203414307737N07657542EA02737027859264
B1203424307733N07657556EA02739027874544
B1203434307726N07657567EA02740027883261
B1203444307717N07657575EA02742027902814
B1203454307707N07657578EA02744027922242
B1203464307697N07657577EA02746027941621
B1203474307688N07657571EA02747027951274
B1203484307680N07657562EA02749027979965
B1203494307676N07657550EA02751027995292
B1203504307675N07657537EA02753028011580
B1203514307677N07657524EA02754028020569
B1203524307682N07657512EA02756028040796
B1203534307689N07657503EA02758028067386
B1203544307699N07657498EA02760028083239
B1203554307709N07657497EA02761028099118
B1203564307720N07657500EA02763028115146
B1203574307730N07657508EA02765028130900
B1203584307737N07657519EA02767028157616
B1203594307742N07657532EA02768028167796
B1204004307711N07657548EA02770028182614
B1204014307712N07657555EA02769028172397
B1204024307713N07657563EA02768028162080
B1204034307714N07657571EA02766028141762
B1204044307715N07657579EA02765028131445
B1204054307716N07657587EA02764028121128
B1204064307717N07657595EA02763028110811
B1204074307718N07657602EA02762028100594
B1204084307719N07657610EA02760028080277
B1204094307719N07657618EA02759028079959
B1204104307720N07657626EA02758028069642
B1204114307721N07657634EA02757028059325
B1204124307722N07657642EA02756028049008
B1204134307723N07657649EA02754028028791
B1204144307724N07657657EA02753028018474
B1204154307725N07657665EA02752028008156
B1204164307726N07657673EA02751027997839
B1204174307727N07657681EA02750027987522
B1204184307728N07657689EA02748027967205
B1204194307729N07657696EA02747027956988
B1204204307730N07657704EA02746027946670
B1204214307731N07657712EA02745027936353
B1204224307732N07657720EA02744027926136
B1204234307733N07657728EA02742027905819
B1204244307734N07657736EA02741027895502
B1204254307735N07657743EA02740027885285
B1204264307736N07657751EA02739027874967
B1204274307737N07657759EA02738027864650
B1204284307738N07657767EA02736027844333
B1204294307739N07657775EA02735027834016
B1204304307740N07657782EA02734027823799
B1204314307741N07657790EA02733027813481
B1204324307742N07657798EA02732027803164
B1204334307743N07657806EA02730027782847
B1204344307744N07657814EA02729027772530
B1204354307745N07657822EA02728027762213
B1204364307746N07657829EA02727027751996
B1204374307747N07657837EA02726027741678
B1204384307748N07657845EA02724027721361
B1204394307749N07657853EA02723027711044
B1204404307750N07657861EA02722027700727
B1204414307751N07657869EA02721027690410
B1204424307752N07657876EA02720027680193
B1204434307752N07657884EA02718027669875
B1204444307753N07657892EA02717027659558
B1204454307754N07657900EA02716027649241
B1204464307755N07657908EA02715027638924
B1204474307756N07657916EA02714027628607
B1204484307757N07657923EA02712027608389
B1204494307758N07657931EA02711027598072
B1204504307759N07657939EA02710027587755
B1204514307760N07657947EA02709027577438
B1204524307761N07657955EA02708027567121
B1204534307762N07657963EA02706027546804
B1204544307763N07657970EA02705027536586
B1204554307764N07657978EA02704027526269
B1204564307765N07657986EA02703027515952
B1204574307766N07657994EA02702027505635
B1204584307767N07658002EA02700027485318
B1204594307768N07658010EA02699027475001
B1205004307769N07658017EA02698027464783
B1205014307770N07658025EA02697027454466
B1205024307771N07658033EA02696027444149
B1205034307772N07658041EA02694027423832
B1205044307773N07658049EA02693027413515
B1205054307774N07658056EA02692027403297
B1205064307775N07658064EA02691027392980
B1205074307776N07658072EA02690027382663
B1205084307777N07658080EA02688027362346
B1205094307778N07658088EA02687027352029
B1205104307779N07658096EA02686027341712
B1205114307780N07658103EA02685027331494
B1205124307781N07658111EA02684027321177
B1205134307782N07658119EA02682027300860
B1205144307783N07658127EA02681027290543
B1205154307784N07658135EA02680027280226
B1205164307784N07658143EA02679027279908
B1205174307785N07658150EA02678027269691
B1205184307786N07658158EA02676027249374
B1205194307787N07658166EA02675027239157
B1205204307788N07658174EA02674027228840
B1205214307789N07658182EA02673027218523
B1205224307790N07658190EA02672027208205
B1205234307791N07658197EA02670027187988
B1205244307792N07658205EA02669027177671
B1205254307793N07658213EA02668027167354
B1205264307794N07658221EA02667027157037
B1205274307795N07658229EA02666027146720
B1205284307796N07658237EA02664027126402
B1205294307797N07658244EA02663027116185
B1205304307798N07658252EA02662027105868
B1205314307799N07658260EA02661027095551
B1205324307800N07658268EA02660027085234
B1205334307801N07658276EA02658027064916
B1205344307802N07658283EA02657027054699
B1205354307803N07658291EA02656027044382
B1205364307804N07658299EA02655027034065
B1205374307805N07658307EA02654027023748
B1205384307806N07658315EA02652027003431
B1205394307807N07658323EA02651026993113
B1205404307808N07658330EA02650026982896
B1205414307809N07658338EA02649026972579
B1205424307810N07658346EA02648026962262
B1205434307811N07658354EA02646026941945
B1205444307812N07658362EA02645026931628
B1205454307813N07658370EA02644026921310
B1205464307814N07658377EA02643026911093
B1205474307815N07658385EA02642026900776
B1205484307816N07658393EA02640026880459
B1205494307817N07658401EA02639026870142
B1205504307817N07658409EA02638026869824
B1205514307818N07658417EA02637026859507
B1205524307819N07658424EA02636026849290
B1205534307820N07658432EA02634026828973
B1205544307821N07658440EA02633026818656
B1205554307822N07658448EA02632026808339
B1205564307823N07658456EA02631026798021
B1205574307824N07658464EA02630026787704
B1205584307825N07658471EA02628026767487
B1205594307826N07658479EA02627026757170
B1206004307827N07658487EA02626026746853
B1206014307828N07658495EA02625026736535
B1206024307829N07658503EA02624026726218
B1206034307830N07658511EA02622026705901
B1206044307831N07658518EA02621026695684
B1206054307832N07658526EA02620026685367
B1206064307833N07658534EA02619026675050
B1206074307834N07658542EA02618026664732
B1206084307835N07658550EA02616026644415
B1206094307836N07658557EA02615026634198
B1206104307837N07658565EA02614026623881
B1206114307838N07658573EA02613026613564
B1206124307839N07658581EA02612026603247
B1206134307840N07658589EA02610026582929
B1206144307841N07658597EA02609026572612
B1206154307842N07658604EA02608026562395
B1206164307843N07658612EA02607026552178
B1206174307844N07658620EA02606026541861
B1206184307845N07658628EA02604026521543
B1206194307846N07658636EA02603026511226
B1206204307847N07658644EA02602026500909
B1206214307848N07658651EA02601026490692
B1206224307849N07658659EA02600026480375
B1206234307850N07658667EA02598026460058
B1206244307850N07658675EA02597026459740
B1206254307851N07658683EA02596026449423
B1206264307852N07658691EA02595026439106
B1206274307853N07658698EA02594026428889
B1206284307854N07658706EA02592026408572
B1206294307855N07658714EA02591026398255
B1206304307856N07658722EA02590026387937
B1206314307857N07658730EA02589026377620
B1206324307858N07658738EA02588026367303
B1206334307859N07658745EA02586026347086
B1206344307860N07658753EA02585026336769
B1206354307861N07658761EA02584026326451
B1206364307862N07658769EA02583026316134
B1206374307863N07658777EA02582026305817
B1206384307864N07658785EA02580026285500
B1206394307865N07658792EA02579026275283
B1206404307866N07658800EA02578026264966
B1206414307867N07658808EA02577026254648
B1206424307868N07658816EA02576026244331
B1206434307869N07658824EA02574026224014
B1206444307870N07658831EA02573026213797
B1206454307871N07658839EA02572026203480
B1206464307872N07658847EA02571026193163
B1206474307873N07658855EA02570026182845
B1206484307874N07658863EA02568026162528
B1206494307875N07658871EA02567026152211
B1206504307876N07658878EA02566026141994
B1206514307877N07658886EA02565026131677
B1206524307878N07658894EA02564026121359
B1206534307879N07658902EA02562026101042
B1206544307880N07658910EA02561026090725
B1206554307881N07658918EA02560026080408
B1206564307882N07658925EA02559026070191
B1206574307882N07658933EA02558026069874
B1206584307883N07658941EA02556026049556
B1206594307884N07658949EA02555026039239
B1207004307885N07658957EA02554026028922
B1207014307886N07658965EA02553026018605
B1207024307887N07658972EA02552026008388
B1207034307888N07658980EA02550025988070
B1207044307889N07658988EA02549025977753
B1207054307890N07658996EA02548025967436
B1207064307891N07659004EA02547025957119
B1207074307892N07659012EA02546025946802
B1207084307893N07659019EA02544025926585
B1207094307894N07659027EA02543025916267
B1207104307895N07659035EA02542025905950
B1207114307896N07659043EA02541025895633
B1207124307897N07659051EA02540025885416
B1207134307898N07659058EA02538025865199
B1207144307899N07659066EA02537025854882
B1207154307900N07659074EA02536025844564
B1207164307901N07659082EA02535025834247
B1207174307902N07659090EA02534025823930
B1207184307903N07659098EA02532025803613
B1207194307904N07659105EA02531025793396
B1207204307905N07659113EA02530025783078
B1207214307906N07659121EA02529025772761
B1207224307907N07659129EA02528025762444
B1207234307908N07659137EA02526025742127
B1207244307909N07659145EA02525025731810
B1207254307910N07659152EA02524025721593
B1207264307911N07659160EA02523025711275
B1207274307912N07659168EA02522025700958
B1207284307913N07659176EA02520025680641
B1207294307914N07659184EA02519025670324
B1207304307915N07659192EA02518025660007
B1207314307915N07659199EA02517025659790
B1207324307916N07659207EA02516025649472
B1207334307917N07659215EA02514025629155
B1207344307918N07659223EA02513025618838
B1207354307919N07659231EA02512025608521
B1207364307920N07659239EA02511025598204
B1207374307921N07659246EA02510025587986
B1207384307922N07659254EA02508025567669
B1207394307923N07659262EA02507025557352
B1207404307924N07659270EA02506025547035
B1207414307925N07659278EA02505025536718
B1207424307926N07659286EA02504025526401
B1207434307927N07659293EA02502025506183
B1207444307928N07659301EA02501025495866
B1207454307929N07659309EA02500025485549
B1207464307930N07659317EA02499025475232
B1207474307931N07659325EA02498025464915
B1207484307932N07659332EA02496025444697
B1207494307933N07659340EA02495025434380
B1207504307934N07659348EA02494025424063
B1207514307935N07659356EA02493025413746
B1207524307936N07659364EA02492025403429
B1207534307937N07659372EA02490025383112
B1207544307938N07659379EA02489025372894
B1207554307939N07659387EA02488025362577
B1207564307940N07659395EA02487025352260
B1207574307941N07659403EA02486025341943
B1207584307942N07659411EA02484025321626
B1207594307943N07659419EA02483025311309
LSKY Generated fixture  do not edit by hand
GDEADBEEF00000000000000000000000000000000
