<?xml version="1.0" encoding="UTF-8"?>
<kml xmlns="http://www.opengis.net/kml/2.2" xmlns:gx="http://www.google.com/kml/ext/2.2">
<Document>
  <name>Skyline fixture</name>
  <Placemark>
    <name>Старый прибор</name>
    <LineString>
      <altitudeMode>absolute</altitudeMode>
      <coordinates>
        76.9550000,43.1280000,2350.0
        76.9552531,43.1279772,2351.8
        76.9554830,43.1279026,2353.5
        76.9556691,43.1277839,2355.3
        76.9557947,43.1276331,2357.0
        76.9558493,43.1274655,2358.8
        76.9558292,43.1272979,2360.5
        76.9557380,43.1271471,2362.3
        76.9555864,43.1270284,2364.0
        76.9553909,43.1269538,2365.8
        76.9551723,43.1269310,2367.5
        76.9549537,43.1269628,2369.3
        76.9547582,43.1270464,2371.0
        76.9546066,43.1271741,2372.8
        76.9545155,43.1273338,2374.5
        76.9544954,43.1275104,2376.3
        76.9545499,43.1276870,2378.0
        76.9546756,43.1278468,2379.8
        76.9548616,43.1279745,2381.5
        76.9550916,43.1280581,2383.3
        76.9553446,43.1280898,2385.0
        76.9555977,43.1280671,2386.8
        76.9558277,43.1279924,2388.5
        76.9560137,43.1278737,2390.3
        76.9561393,43.1277230,2392.0
        76.9561939,43.1275553,2393.8
        76.9561738,43.1273877,2395.5
        76.9560826,43.1272370,2397.3
        76.9559311,43.1271182,2399.0
        76.9557355,43.1270436,2400.8
        76.9555170,43.1270208,2402.5
        76.9552984,43.1270526,2404.3
        76.9551029,43.1271362,2406.0
        76.9549513,43.1272639,2407.8
        76.9548601,43.1274237,2409.5
        76.9548400,43.1276003,2411.3
        76.9548946,43.1277769,2413.0
        76.9550202,43.1279366,2414.8
        76.9552063,43.1280643,2416.5
        76.9554362,43.1281479,2418.3
        76.9556893,43.1281797,2420.0
        76.9559423,43.1281569,2421.8
        76.9561723,43.1280823,2423.5
        76.9563584,43.1279636,2425.3
        76.9564840,43.1278128,2427.0
        76.9565386,43.1276452,2428.8
        76.9565184,43.1274776,2430.5
        76.9564273,43.1273268,2432.3
        76.9562757,43.1272081,2434.0
        76.9560802,43.1271334,2435.8
        76.9558616,43.1271107,2437.5
        76.9556430,43.1271424,2439.3
        76.9554475,43.1272260,2441.0
        76.9552959,43.1273537,2442.8
        76.9552047,43.1275135,2444.5
        76.9551846,43.1276901,2446.3
        76.9552392,43.1278667,2448.0
        76.9553648,43.1280264,2449.8
        76.9555509,43.1281541,2451.5
        76.9557809,43.1282377,2453.3
        76.9560339,43.1282695,2455.0
        76.9562870,43.1282467,2456.8
        76.9565169,43.1281721,2458.5
        76.9567030,43.1280534,2460.3
        76.9568286,43.1279026,2462.0
        76.9568832,43.1277350,2463.8
        76.9568631,43.1275674,2465.5
        76.9567719,43.1274166,2467.3
        76.9566203,43.1272979,2469.0
        76.9564248,43.1272233,2470.8
        76.9562062,43.1272005,2472.5
        76.9559876,43.1272323,2474.3
        76.9557921,43.1273159,2476.0
        76.9556405,43.1274436,2477.8
        76.9555494,43.1276033,2479.5
        76.9555293,43.1277799,2481.3
        76.9555838,43.1279565,2483.0
        76.9557095,43.1281163,2484.8
        76.9558955,43.1282440,2486.5
        76.9561255,43.1283276,2488.3
        76.9563786,43.1283593,2490.0
        76.9566316,43.1283366,2491.8
        76.9568616,43.1282619,2493.5
        76.9570476,43.1281432,2495.3
        76.9571733,43.1279924,2497.0
        76.9572278,43.1278248,2498.8
        76.9572077,43.1276572,2500.5
        76.9571166,43.1275064,2502.3
        76.9569650,43.1273877,2504.0
        76.9567695,43.1273131,2505.8
        76.9565509,43.1272903,2507.5
        76.9563323,43.1273221,2509.3
        76.9561368,43.1274057,2511.0
        76.9559852,43.1275334,2512.8
        76.9558940,43.1276931,2514.5
        76.9558739,43.1278697,2516.3
        76.9559285,43.1280463,2518.0
        76.9560541,43.1282061,2519.8
        76.9562402,43.1283338,2521.5
        76.9564701,43.1284174,2523.3
        76.9567232,43.1284492,2525.0
        76.9569762,43.1284264,2526.8
        76.9572062,43.1283518,2528.5
        76.9573923,43.1282330,2530.3
        76.9575179,43.1280823,2532.0
        76.9575725,43.1279147,2533.8
        76.9575524,43.1277470,2535.5
        76.9574612,43.1275963,2537.3
        76.9573096,43.1274776,2539.0
        76.9571141,43.1274029,2540.8
        76.9568955,43.1273802,2542.5
        76.9566769,43.1274119,2544.3
        76.9564814,43.1274955,2546.0
        76.9563298,43.1276232,2547.8
        76.9562387,43.1277830,2549.5
        76.9562185,43.1279596,2551.3
        76.9562731,43.1281362,2553.0
        76.9563988,43.1282959,2554.8
        76.9565848,43.1284236,2556.5
        76.9568148,43.1285072,2558.3
        76.9570678,43.1285390,2560.0
        76.9573209,43.1285162,2561.8
        76.9575509,43.1284416,2563.5
        76.9577369,43.1283229,2565.3
        76.9578625,43.1281721,2567.0
        76.9579171,43.1280045,2568.8
        76.9578970,43.1278369,2570.5
        76.9578058,43.1276861,2572.3
        76.9576542,43.1275674,2574.0
        76.9574587,43.1274928,2575.8
        76.9572402,43.1274700,2577.5
        76.9570216,43.1275017,2579.3
        76.9568261,43.1275853,2581.0
        76.9566745,43.1277131,2582.8
        76.9565833,43.1278728,2584.5
        76.9565632,43.1280494,2586.3
        76.9566178,43.1282260,2588.0
        76.9567434,43.1283858,2589.8
        76.9569295,43.1285135,2591.5
        76.9571594,43.1285971,2593.3
        76.9574125,43.1286288,2595.0
        76.9576655,43.1286061,2596.8
        76.9578955,43.1285314,2598.5
        76.9580816,43.1284127,2600.3
        76.9582072,43.1282619,2602.0
        76.9582618,43.1280943,2603.8
        76.9582416,43.1279267,2605.5
        76.9581505,43.1277759,2607.3
        76.9579989,43.1276572,2609.0
        76.9578034,43.1275826,2610.8
        76.9575848,43.1275598,2612.5
        76.9573662,43.1275916,2614.3
        76.9571707,43.1276752,2616.0
        76.9570191,43.1278029,2617.8
        76.9569279,43.1279626,2619.5
        76.9569078,43.1281392,2621.3
        76.9569624,43.1283158,2623.0
        76.9570880,43.1284756,2624.8
        76.9572741,43.1286033,2626.5
        76.9575041,43.1286869,2628.3
        76.9577571,43.1287186,2630.0
        76.9580102,43.1286959,2631.8
        76.9582401,43.1286213,2633.5
        76.9584262,43.1285025,2635.3
        76.9585518,43.1283518,2637.0
        76.9586064,43.1281842,2638.8
        76.9585863,43.1280165,2640.5
        76.9584951,43.1278658,2642.3
        76.9583435,43.1277470,2644.0
        76.9581480,43.1276724,2645.8
        76.9579294,43.1276497,2647.5
        76.9577108,43.1276814,2649.3
        76.9575153,43.1277650,2651.0
        76.9573637,43.1278927,2652.8
        76.9572726,43.1280525,2654.5
        76.9572525,43.1282291,2656.3
        76.9573070,43.1284057,2658.0
        76.9574327,43.1285654,2659.8
        76.9576187,43.1286931,2661.5
        76.9578487,43.1287767,2663.3
        76.9581017,43.1288085,2665.0
        76.9583548,43.1287857,2666.8
        76.9585848,43.1287111,2668.5
        76.9587708,43.1285924,2670.3
        76.9588965,43.1284416,2672.0
        76.9589510,43.1282740,2673.8
        76.9589309,43.1281064,2675.5
        76.9588398,43.1279556,2677.3
        76.9586882,43.1278369,2679.0
        76.9584927,43.1277623,2680.8
        76.9582741,43.1277395,2682.5
        76.9580555,43.1277712,2684.3
        76.9578600,43.1278548,2686.0
        76.9577084,43.1279825,2687.8
        76.9576172,43.1281423,2689.5
        76.9575971,43.1283189,2691.3
        76.9576517,43.1284955,2693.0
        76.9577773,43.1286553,2694.8
        76.9579634,43.1287830,2696.5
        76.9581933,43.1288666,2698.3
        76.9584464,43.1288983,2700.0
        76.9586994,43.1288755,2701.8
        76.9589294,43.1288009,2703.5
        76.9591155,43.1286822,2705.3
        76.9592411,43.1285314,2707.0
        76.9592957,43.1283638,2708.8
        76.9592756,43.1281962,2710.5
        76.9591844,43.1280454,2712.3
        76.9590328,43.1279267,2714.0
        76.9588373,43.1278521,2715.8
        76.9586187,43.1278293,2717.5
        76.9584001,43.1278611,2719.3
        76.9582046,43.1279447,2721.0
        76.9580530,43.1280724,2722.8
        76.9579619,43.1282321,2724.5
        76.9579417,43.1284087,2726.3
        76.9579963,43.1285853,2728.0
        76.9581219,43.1287451,2729.8
        76.9583080,43.1288728,2731.5
        76.9585380,43.1289564,2733.3
        76.9587910,43.1289881,2735.0
        76.9590441,43.1289654,2736.8
        76.9592740,43.1288908,2738.5
        76.9594601,43.1287720,2740.3
        76.9595857,43.1286213,2742.0
        76.9596403,43.1284536,2743.8
        76.9596202,43.1282860,2745.5
        76.9595290,43.1281353,2747.3
        76.9593774,43.1280165,2749.0
        76.9591819,43.1279419,2750.8
        76.9589633,43.1279192,2752.5
        76.9587448,43.1279509,2754.3
        76.9585493,43.1280345,2756.0
        76.9583977,43.1281622,2757.8
        76.9583065,43.1283220,2759.5
        76.9582864,43.1284986,2761.3
        76.9583410,43.1286752,2763.0
        76.9584666,43.1288349,2764.8
        76.9586526,43.1289626,2766.5
        76.9588826,43.1290462,2768.3
        76.9591357,43.1285210,2770.0
        76.9592661,43.1285372,2768.8
        76.9593966,43.1285534,2767.6
        76.9595271,43.1285695,2766.4
        76.9596575,43.1285857,2765.2
        76.9597880,43.1286019,2764.0
        76.9599185,43.1286180,2762.8
        76.9600490,43.1286342,2761.6
        76.9601794,43.1286504,2760.4
        76.9603099,43.1286665,2759.2
        76.9604404,43.1286827,2758.0
        76.9605708,43.1286989,2756.8
        76.9607013,43.1287151,2755.6
        76.9608318,43.1287312,2754.4
        76.9609623,43.1287474,2753.2
        76.9610927,43.1287636,2752.0
        76.9612232,43.1287797,2750.8
        76.9613537,43.1287959,2749.6
        76.9614841,43.1288121,2748.4
        76.9616146,43.1288282,2747.2
        76.9617451,43.1288444,2746.0
        76.9618755,43.1288606,2744.8
        76.9620060,43.1288768,2743.6
        76.9621365,43.1288929,2742.4
        76.9622670,43.1289091,2741.2
        76.9623974,43.1289253,2740.0
        76.9625279,43.1289414,2738.8
        76.9626584,43.1289576,2737.6
        76.9627888,43.1289738,2736.4
        76.9629193,43.1289899,2735.2
        76.9630498,43.1290061,2734.0
        76.9631802,43.1290223,2732.8
        76.9633107,43.1290384,2731.6
        76.9634412,43.1290546,2730.4
        76.9635717,43.1290708,2729.2
        76.9637021,43.1290870,2728.0
        76.9638326,43.1291031,2726.8
        76.9639631,43.1291193,2725.6
        76.9640935,43.1291355,2724.4
        76.9642240,43.1291516,2723.2
        76.9643545,43.1291678,2722.0
        76.9644850,43.1291840,2720.8
        76.9646154,43.1292001,2719.6
        76.9647459,43.1292163,2718.4
        76.9648764,43.1292325,2717.2
        76.9650068,43.1292487,2716.0
        76.9651373,43.1292648,2714.8
        76.9652678,43.1292810,2713.6
        76.9653982,43.1292972,2712.4
        76.9655287,43.1293133,2711.2
        76.9656592,43.1293295,2710.0
        76.9657897,43.1293457,2708.8
        76.9659201,43.1293618,2707.6
        76.9660506,43.1293780,2706.4
        76.9661811,43.1293942,2705.2
        76.9663115,43.1294103,2704.0
        76.9664420,43.1294265,2702.8
        76.9665725,43.1294427,2701.6
        76.9667029,43.1294589,2700.4
        76.9668334,43.1294750,2699.2
      </coordinates>
    </LineString>
    <TimeSpan><begin>2026-07-15T17:00:00Z</begin><end>2026-07-15T17:04:59Z</end></TimeSpan>
  </Placemark>
</Document>
</kml>
