AXCT Skyline fixture generator
HFDTE150726
HFPLTPILOTINCHARGE:Test Pilot
HFGTYGLIDERTYPE:Ozone Zeno 2
HFGIDGLIDERID:FIXTURE
HFDTM100GPSDATUM:WGS-1984
HFFTYFRTYPE:Skyline,Fixture
B2350004307680N07657300EA0235002398
B2350014307679N07657315EA0235202400
B2350024307674N07657329EA0235402402
B2350034307667N07657340EA0235502403
B2350044307658N07657348EA0235702405
B2350054307648N07657351EA0235902407
B2350064307638N07657350EA0236102409
B2350074307629N07657344EA0236202410
B2350084307622N07657335EA0236402412
B2350094307617N07657323EA0236602414
B2350104307616N07657310EA0236802416
B2350114307618N07657297EA0236902417
B2350124307623N07657285EA0237102419
B2350134307630N07657276EA0237302421
B2350144307640N07657271EA0237502423
B2350154307651N07657270EA0237602424
B2350164307661N07657273EA0237802426
B2350174307671N07657281EA0238002428
B2350184307678N07657292EA0238202430
B2350194307683N07657305EA0238302431
B2350204307685N07657321EA0238502433
B2350214307684N07657336EA0238702435
B2350224307680N07657350EA0238902437
B2350234307672N07657361EA0239002438
B2350244307663N07657368EA0239202440
B2350254307653N07657372EA0239402442
B2350264307643N07657370EA0239602444
B2350274307634N07657365EA0239702445
B2350284307627N07657356EA0239902447
B2350294307623N07657344EA0240102449
B2350304307621N07657331EA0240302451
B2350314307623N07657318EA0240402452
B2350324307628N07657306EA0240602454
B2350334307636N07657297EA0240802456
B2350344307645N07657292EA0241002458
B2350354307656N07657290EA0241102459
B2350364307667N07657294EA0241302461
B2350374307676N07657301EA0241502463
B2350384307684N07657312EA0241702465
B2350394307689N07657326EA0241802466
B2350404307691N07657341EA0242002468
B2350414307689N07657357EA0242202470
B2350424307685N07657370EA0242402472
B2350434307678N07657382EA0242502473
B2350444307669N07657389EA0242702475
B2350454307659N07657392EA0242902477
B2350464307649N07657391EA0243102479
B2350474307640N07657386EA0243202480
B2350484307632N07657377EA0243402482
B2350494307628N07657365EA0243602484
B2350504307627N07657352EA0243802486
B2350514307629N07657339EA0243902487
B2350524307634N07657327EA0244102489
B2350534307641N07657318EA0244302491
B2350544307651N07657312EA0244502493
B2350554307661N07657311EA0244602494
B2350564307672N07657314EA0244802496
B2350574307682N07657322EA0245002498
B2350584307689N07657333EA0245202500
B2350594307694N07657347EA0245302501
B2351004307696N07657362EA0245502503
B2351014307695N07657377EA0245702505
B2351024307690N07657391EA0245902507
B2351034307683N07657402EA0246002508
B2351044307674N07657410EA0246202510
B2351054307664N07657413EA0246402512
B2351064307654N07657412EA0246602514
B2351074307645N07657406EA0246702515
B2351084307638N07657397EA0246902517
B2351094307633N07657385EA0247102519
B2351104307632N07657372EA0247302521
B2351114307634N07657359EA0247402522
B2351124307639N07657348EA0247602524
B2351134307647N07657338EA0247802526
B2351144307656N07657333EA0248002528
B2351154307667N07657332EA0248102529
B2351164307677N07657335EA0248302531
B2351174307687N07657343EA0248502533
B2351184307695N07657354EA0248702535
B2351194307700N07657368EA0248802536
B2351204307702N07657383EA0249002538
B2351214307700N07657398EA0249202540
B2351224307696N07657412EA0249402542
B2351234307689N07657423EA0249502543
B2351244307680N07657430EA0249702545
B2351254307669N07657434EA0249902547
B2351264307659N07657432EA0250102549
B2351274307650N07657427EA0250202550
B2351284307643N07657418EA0250402552
B2351294307639N07657406EA0250602554
B2351304307637N07657393EA0250802556
B2351314307639N07657380EA0250902557
B2351324307644N07657368EA0251102559
B2351334307652N07657359EA0251302561
B2351344307662N07657354EA0251502563
B2351354307672N07657352EA0251602564
B2351364307683N07657356EA0251802566
B2351374307692N07657363EA0252002568
B2351384307700N07657374EA0252202570
B2351394307705N07657388EA0252302571
B2351404307707N07657403EA0252502573
B2351414307706N07657419EA0252702575
B2351424307701N07657432EA0252902577
B2351434307694N07657444EA0253002578
B2351444307685N07657451EA0253202580
B2351454307675N07657454EA0253402582
B2351464307665N07657453EA0253602584
B2351474307656N07657448EA0253702585
B2351484307649N07657439EA0253902587
B2351494307644N07657427EA0254102589
B2351504307643N07657414EA0254302591
B2351514307645N07657401EA0254402592
B2351524307650N07657389EA0254602594
B2351534307657N07657380EA0254802596
B2351544307667N07657374EA0255002598
B2351554307678N07657373EA0255102599
B2351564307688N07657376EA0255302601
B2351574307698N07657384EA0255502603
B2351584307705N07657395EA0255702605
B2351594307710N07657409EA0255802606
B2352004307712N07657424EA0256002608
B2352014307711N07657439EA0256202610
B2352024307706N07657453EA0256402612
B2352034307699N07657464EA0256502613
B2352044307690N07657472EA0256702615
B2352054307680N07657475EA0256902617
B2352064307670N07657474EA0257102619
B2352074307661N07657468EA0257202620
B2352084307654N07657459EA0257402622
B2352094307650N07657448EA0257602624
B2352104307648N07657434EA0257802626
B2352114307650N07657421EA0257902627
B2352124307655N07657410EA0258102629
B2352134307663N07657400EA0258302631
B2352144307672N07657395EA0258502633
B2352154307683N07657394EA0258602634
B2352164307694N07657397EA0258802636
B2352174307703N07657405EA0259002638
B2352184307711N07657416EA0259202640
B2352194307716N07657430EA0259302641
B2352204307718N07657445EA0259502643
B2352214307716N07657460EA0259702645
B2352224307712N07657474EA0259902647
B2352234307705N07657485EA0260002648
B2352244307696N07657492EA0260202650
B2352254307686N07657496EA0260402652
B2352264307676N07657494EA0260602654
B2352274307667N07657489EA0260702655
B2352284307659N07657480EA0260902657
B2352294307655N07657468EA0261102659
B2352304307654N07657455EA0261302661
B2352314307655N07657442EA0261402662
B2352324307661N07657430EA0261602664
B2352334307668N07657421EA0261802666
B2352344307678N07657416EA0262002668
B2352354307688N07657414EA0262102669
B2352364307699N07657418EA0262302671
B2352374307709N07657425EA0262502673
B2352384307716N07657436EA0262702675
B2352394307721N07657450EA0262802676
B2352404307723N07657465EA0263002678
B2352414307722N07657481EA0263202680
B2352424307717N07657494EA0263402682
B2352434307710N07657506EA0263502683
B2352444307701N07657513EA0263702685
B2352454307691N07657516EA0263902687
B2352464307681N07657515EA0264102689
B2352474307672N07657510EA0264202690
B2352484307665N07657501EA0264402692
B2352494307660N07657489EA0264602694
B2352504307659N07657476EA0264802696
B2352514307661N07657463EA0264902697
B2352524307666N07657451EA0265102699
B2352534307674N07657442EA0265302701
B2352544307683N07657436EA0265502703
B2352554307694N07657435EA0265602704
B2352564307704N07657438EA0265802706
B2352574307714N07657446EA0266002708
B2352584307722N07657457EA0266202710
B2352594307727N07657471EA0266302711
B2353004307729N07657486EA0266502713
B2353014307727N07657501EA0266702715
B2353024307723N07657515EA0266902717
B2353034307716N07657526EA0267002718
B2353044307706N07657534EA0267202720
B2353054307696N07657537EA0267402722
B2353064307686N07657536EA0267602724
B2353074307677N07657530EA0267702725
B2353084307670N07657521EA0267902727
B2353094307666N07657510EA0268102729
B2353104307664N07657496EA0268302731
B2353114307666N07657483EA0268402732
B2353124307671N07657472EA0268602734
B2353134307679N07657463EA0268802736
B2353144307689N07657457EA0269002738
B2353154307699N07657456EA0269102739
B2353164307710N07657459EA0269302741
B2353174307719N07657467EA0269502743
B2353184307727N07657478EA0269702745
B2353194307732N07657492EA0269802746
B2353204307734N07657507EA0270002748
B2353214307733N07657522EA0270202750
B2353224307728N07657536EA0270402752
B2353234307721N07657547EA0270502753
B2353244307712N07657554EA0270702755
B2353254307702N07657558EA0270902757
B2353264307692N07657557EA0271102759
B2353274307683N07657551EA0271202760
B2353284307676N07657542EA0271402762
B2353294307671N07657530EA0271602764
B2353304307670N07657517EA0271802766
B2353314307672N07657504EA0271902767
B2353324307677N07657492EA0272102769
B2353334307684N07657483EA0272302771
B2353344307694N07657478EA0272502773
B2353354307705N07657477EA0272602774
B2353364307715N07657480EA0272802776
B2353374307725N07657487EA0273002778
B2353384307732N07657498EA0273202780
B2353394307737N07657512EA0273302781
B2353404307739N07657527EA0273502783
B2353414307738N07657543EA0273702785
B2353424307733N07657556EA0273902787
B2353434307726N07657568EA0274002788
B2353444307717N07657575EA0274202790
B2353454307707N07657578EA0274402792
B2353464307697N07657577EA0274602794
B2353474307688N07657572EA0274702795
B2353484307681N07657563EA0274902797
B2353494307677N07657551EA0275102799
B2353504307675N07657538EA0275302801
B2353514307677N07657525EA0275402802
B2353524307682N07657513EA0275602804
B2353534307690N07657504EA0275802806
B2353544307699N07657498EA0276002808
B2353554307710N07657497EA0276102809
B2353564307721N07657500EA0276302811
B2353574307730N07657508EA0276502813
B2353584307738N07657519EA0276702815
B2353594307743N07657533EA0276802816
B2354004307711N07657548EA0277002818
B2354014307712N07657556EA0276902817
B2354024307713N07657564EA0276802816
B2354034307714N07657572EA0276602814
B2354044307715N07657579EA0276502813
B2354054307716N07657587EA0276402812
B2354064307717N07657595EA0276302811
B2354074307718N07657603EA0276202810
B2354084307719N07657611EA0276002808
B2354094307720N07657619EA0275902807
B2354104307721N07657626EA0275802806
B2354114307722N07657634EA0275702805
B2354124307723N07657642EA0275602804
B2354134307724N07657650EA0275402802
B2354144307725N07657658EA0275302801
B2354154307726N07657666EA0275202800
B2354164307727N07657673EA0275102799
B2354174307728N07657681EA0275002798
B2354184307729N07657689EA0274802796
B2354194307730N07657697EA0274702795
B2354204307731N07657705EA0274602794
B2354214307732N07657713EA0274502793
B2354224307733N07657720EA0274402792
B2354234307734N07657728EA0274202790
B2354244307735N07657736EA0274102789
B2354254307736N07657744EA0274002788
B2354264307736N07657752EA0273902787
B2354274307737N07657760EA0273802786
B2354284307738N07657767EA0273602784
B2354294307739N07657775EA0273502783
B2354304307740N07657783EA0273402782
B2354314307741N07657791EA0273302781
B2354324307742N07657799EA0273202780
B2354334307743N07657806EA0273002778
B2354344307744N07657814EA0272902777
B2354354307745N07657822EA0272802776
B2354364307746N07657830EA0272702775
B2354374307747N07657838EA0272602774
B2354384307748N07657846EA0272402772
B2354394307749N07657853EA0272302771
B2354404307750N07657861EA0272202770
B2354414307751N07657869EA0272102769
B2354424307752N07657877EA0272002768
B2354434307753N07657885EA0271802766
B2354444307754N07657893EA0271702765
B2354454307755N07657900EA0271602764
B2354464307756N07657908EA0271502763
B2354474307757N07657916EA0271402762
B2354484307758N07657924EA0271202760
B2354494307759N07657932EA0271102759
B2354504307760N07657940EA0271002758
B2354514307761N07657947EA0270902757
B2354524307762N07657955EA0270802756
B2354534307763N07657963EA0270602754
B2354544307764N07657971EA0270502753
B2354554307765N07657979EA0270402752
B2354564307766N07657987EA0270302751
B2354574307767N07657994EA0270202750
B2354584307768N07658002EA0270002748
B2354594307769N07658010EA0269902747
B2355004307769N07658018EA0269802746
B2355014307770N07658026EA0269702745
B2355024307771N07658033EA0269602744
B2355034307772N07658041EA0269402742
B2355044307773N07658049EA0269302741
B2355054307774N07658057EA0269202740
B2355064307775N07658065EA0269102739
B2355074307776N07658073EA0269002738
B2355084307777N07658080EA0268802736
B2355094307778N07658088EA0268702735
B2355104307779N07658096EA0268602734
B2355114307780N07658104EA0268502733
B2355124307781N07658112EA0268402732
B2355134307782N07658120EA0268202730
B2355144307783N07658127EA0268102729
B2355154307784N07658135EA0268002728
B2355164307785N07658143EA0267902727
B2355174307786N07658151EA0267802726
B2355184307787N07658159EA0267602724
B2355194307788N07658167EA0267502723
B2355204307789N07658174EA0267402722
B2355214307790N07658182EA0267302721
B2355224307791N07658190EA0267202720
B2355234307792N07658198EA0267002718
B2355244307793N07658206EA0266902717
B2355254307794N07658214EA0266802716
B2355264307795N07658221EA0266702715
B2355274307796N07658229EA0266602714
B2355284307797N07658237EA0266402712
B2355294307798N07658245EA0266302711
B2355304307799N07658253EA0266202710
B2355314307800N07658261EA0266102709
B2355324307801N07658268EA0266002708
B2355334307801N07658276EA0265802706
B2355344307802N07658284EA0265702705
B2355354307803N07658292EA0265602704
B2355364307804N07658300EA0265502703
B2355374307805N07658307EA0265402702
B2355384307806N07658315EA0265202700
B2355394307807N07658323EA0265102699
B2355404307808N07658331EA0265002698
B2355414307809N07658339EA0264902697
B2355424307810N07658347EA0264802696
B2355434307811N07658354EA0264602694
B2355444307812N07658362EA0264502693
B2355454307813N07658370EA0264402692
B2355464307814N07658378EA0264302691
B2355474307815N07658386EA0264202690
B2355484307816N07658394EA0264002688
B2355494307817N07658401EA0263902687
B2355504307818N07658409EA0263802686
B2355514307819N07658417EA0263702685
B2355524307820N07658425EA0263602684
B2355534307821N07658433EA0263402682
B2355544307822N07658441EA0263302681
B2355554307823N07658448EA0263202680
B2355564307824N07658456EA0263102679
B2355574307825N07658464EA0263002678
B2355584307826N07658472EA0262802676
B2355594307827N07658480EA0262702675
B2356004307828N07658488EA0262602674
B2356014307829N07658495EA0262502673
B2356024307830N07658503EA0262402672
B2356034307831N07658511EA0262202670
B2356044307832N07658519EA0262102669
B2356054307833N07658527EA0262002668
B2356064307834N07658534EA0261902667
B2356074307834N07658542EA0261802666
B2356084307835N07658550EA0261602664
B2356094307836N07658558EA0261502663
B2356104307837N07658566EA0261402662
B2356114307838N07658574EA0261302661
B2356124307839N07658581EA0261202660
B2356134307840N07658589EA0261002658
B2356144307841N07658597EA0260902657
B2356154307842N07658605EA0260802656
B2356164307843N07658613EA0260702655
B2356174307844N07658621EA0260602654
B2356184307845N07658628EA0260402652
B2356194307846N07658636EA0260302651
B2356204307847N07658644EA0260202650
B2356214307848N07658652EA0260102649
B2356224307849N07658660EA0260002648
B2356234307850N07658668EA0259802646
B2356244307851N07658675EA0259702645
B2356254307852N07658683EA0259602644
B2356264307853N07658691EA0259502643
B2356274307854N07658699EA0259402642
B2356284307855N07658707EA0259202640
B2356294307856N07658715EA0259102639
B2356304307857N07658722EA0259002638
B2356314307858N07658730EA0258902637
B2356324307859N07658738EA0258802636
B2356334307860N07658746EA0258602634
B2356344307861N07658754EA0258502633
B2356354307862N07658762EA0258402632
B2356364307863N07658769EA0258302631
B2356374307864N07658777EA0258202630
B2356384307865N07658785EA0258002628
B2356394307866N07658793EA0257902627
B2356404307866N07658801EA0257802626
B2356414307867N07658808EA0257702625
B2356424307868N07658816EA0257602624
B2356434307869N07658824EA0257402622
B2356444307870N07658832EA0257302621
B2356454307871N07658840EA0257202620
B2356464307872N07658848EA0257102619
B2356474307873N07658855EA0257002618
B2356484307874N07658863EA0256802616
B2356494307875N07658871EA0256702615
B2356504307876N07658879EA0256602614
B2356514307877N07658887EA0256502613
B2356524307878N07658895EA0256402612
B2356534307879N07658902EA0256202610
B2356544307880N07658910EA0256102609
B2356554307881N07658918EA0256002608
B2356564307882N07658926EA0255902607
B2356574307883N07658934EA0255802606
B2356584307884N07658942EA0255602604
B2356594307885N07658949EA0255502603
B2357004307886N07658957EA0255402602
B2357014307887N07658965EA0255302601
B2357024307888N07658973EA0255202600
B2357034307889N07658981EA0255002598
B2357044307890N07658989EA0254902597
B2357054307891N07658996EA0254802596
B2357064307892N07659004EA0254702595
B2357074307893N07659012EA0254602594
B2357084307894N07659020EA0254402592
B2357094307895N07659028EA0254302591
B2357104307896N07659036EA0254202590
B2357114307897N07659043EA0254102589
B2357124307898N07659051EA0254002588
B2357134307899N07659059EA0253802586
B2357144307899N07659067EA0253702585
B2357154307900N07659075EA0253602584
B2357164307901N07659082EA0253502583
B2357174307902N07659090EA0253402582
B2357184307903N07659098EA0253202580
B2357194307904N07659106EA0253102579
B2357204307905N07659114EA0253002578
B2357214307906N07659122EA0252902577
B2357224307907N07659129EA0252802576
B2357234307908N07659137EA0252602574
B2357244307909N07659145EA0252502573
B2357254307910N07659153EA0252402572
B2357264307911N07659161EA0252302571
B2357274307912N07659169EA0252202570
B2357284307913N07659176EA0252002568
B2357294307914N07659184EA0251902567
B2357304307915N07659192EA0251802566
B2357314307916N07659200EA0251702565
B2357324307917N07659208EA0251602564
B2357334307918N07659216EA0251402562
B2357344307919N07659223EA0251302561
B2357354307920N07659231EA0251202560
B2357364307921N07659239EA0251102559
B2357374307922N07659247EA0251002558
B2357384307923N07659255EA0250802556
B2357394307924N07659263EA0250702555
B2357404307925N07659270EA0250602554
B2357414307926N07659278EA0250502553
B2357424307927N07659286EA0250402552
B2357434307928N07659294EA0250202550
B2357444307929N07659302EA0250102549
B2357454307930N07659309EA0250002548
B2357464307931N07659317EA0249902547
B2357474307931N07659325EA0249802546
B2357484307932N07659333EA0249602544
B2357494307933N07659341EA0249502543
B2357504307934N07659349EA0249402542
B2357514307935N07659356EA0249302541
B2357524307936N07659364EA0249202540
B2357534307937N07659372EA0249002538
B2357544307938N07659380EA0248902537
B2357554307939N07659388EA0248802536
B2357564307940N07659396EA0248702535
B2357574307941N07659403EA0248602534
B2357584307942N07659411EA0248402532
B2357594307943N07659419EA0248302531
B2358004308165N07701288EA0277002818
B2358014308164N07701303EA0277202820
B2358024308159N07701317EA0277402822
B2358034308152N07701328EA0277502823
B2358044308143N07701336EA0277702825
B2358054308133N07701339EA0277902827
B2358064308123N07701338EA0278102829
B2358074308114N07701332EA0278202830
B2358084308107N07701323EA0278402832
B2358094308102N07701311EA0278602834
B2358104308101N07701298EA0278802836
B2358114308103N07701285EA0278902837
B2358124308108N07701273EA0279102839
B2358134308116N07701264EA0279302841
B2358144308125N07701259EA0279502843
B2358154308136N07701258EA0279602844
B2358164308146N07701261EA0279802846
B2358174308156N07701268EA0280002848
B2358184308164N07701280EA0280202850
B2358194308169N07701293EA0280302851
B2358204308170N07701309EA0280502853
B2358214308169N07701324EA0280702855
B2358224308165N07701338EA0280902857
B2358234308158N07701349EA0281002858
B2358244308148N07701356EA0281202860
B2358254308138N07701360EA0281402862
B2358264308128N07701358EA0281602864
B2358274308119N07701353EA0281702865
B2358284308112N07701344EA0281902867
B2358294308108N07701332EA0282102869
B2358304308106N07701319EA0282302871
B2358314308108N07701306EA0282402872
B2358324308113N07701294EA0282602874
B2358334308121N07701285EA0282802876
B2358344308131N07701280EA0283002878
B2358354308141N07701278EA0283102879
B2358364308152N07701282EA0283302881
B2358374308161N07701289EA0283502883
B2358384308169N07701300EA0283702885
B2358394308174N07701314EA0283802886
B2358404308176N07701329EA0284002888
B2358414308175N07701345EA0284202890
B2358424308170N07701358EA0284402892
B2358434308163N07701369EA0284502893
B2358444308154N07701377EA0284702895
B2358454308144N07701380EA0284902897
B2358464308134N07701379EA0285102899
B2358474308125N07701374EA0285202900
B2358484308118N07701365EA0285402902
B2358494308113N07701353EA0285602904
B2358504308112N07701340EA0285802906
B2358514308114N07701327EA0285902907
B2358524308119N07701315EA0286102909
B2358534308126N07701306EA0286302911
B2358544308136N07701300EA0286502913
B2358554308146N07701299EA0286602914
B2358564308157N07701302EA0286802916
B2358574308167N07701310EA0287002918
B2358584308174N07701321EA0287202920
B2358594308179N07701335EA0287302921
B2359004308181N07701350EA0287502923
B2359014308180N07701365EA0287702925
B2359024308175N07701379EA0287902927
B2359034308168N07701390EA0288002928
B2359044308159N07701398EA0288202930
B2359054308149N07701401EA0288402932
B2359064308139N07701400EA0288602934
B2359074308130N07701394EA0288702935
B2359084308123N07701385EA0288902937
B2359094308118N07701373EA0289102939
B2359104308117N07701360EA0289302941
B2359114308119N07701347EA0289402942
B2359124308124N07701335EA0289602944
B2359134308132N07701326EA0289802946
B2359144308141N07701321EA0290002948
B2359154308152N07701320EA0290102949
B2359164308162N07701323EA0290302951
B2359174308172N07701331EA0290502953
B2359184308180N07701342EA0290702955
B2359194308185N07701355EA0290802956
B2359204308187N07701371EA0291002958
B2359214308185N07701386EA0291202960
B2359224308181N07701400EA0291402962
B2359234308174N07701411EA0291502963
B2359244308165N07701418EA0291702965
B2359254308155N07701422EA0291902967
B2359264308145N07701420EA0292102969
B2359274308135N07701415EA0292202970
B2359284308128N07701406EA0292402972
B2359294308124N07701394EA0292602974
B2359304308123N07701381EA0292802976
B2359314308124N07701368EA0292902977
B2359324308129N07701356EA0293102979
B2359334308137N07701347EA0293302981
B2359344308147N07701342EA0293502983
B2359354308157N07701340EA0293602984
B2359364308168N07701344EA0293802986
B2359374308177N07701351EA0294002988
B2359384308185N07701362EA0294202990
B2359394308190N07701376EA0294302991
B2359404308192N07701391EA0294502993
B2359414308191N07701407EA0294702995
B2359424308186N07701420EA0294902997
B2359434308179N07701431EA0295002998
B2359444308170N07701439EA0295203000
B2359454308160N07701442EA0295403002
B2359464308150N07701441EA0295603004
B2359474308141N07701436EA0295703005
B2359484308134N07701427EA0295903007
B2359494308129N07701415EA0296103009
B2359504308128N07701402EA0296303011
B2359514308130N07701389EA0296403012
B2359524308135N07701377EA0296603014
B2359534308142N07701368EA0296803016
B2359544308152N07701362EA0297003018
B2359554308163N07701361EA0297103019
B2359564308173N07701364EA0297303021
B2359574308183N07701372EA0297503023
B2359584308191N07701383EA0297703025
B2359594308196N07701397EA0297803026
B0000004308197N07701412EA0298003028
B0000014308196N07701427EA0298203030
B0000024308192N07701441EA0298403032
B0000034308184N07701452EA0298503033
B0000044308175N07701460EA0298703035
B0000054308165N07701463EA0298903037
B0000064308155N07701462EA0299103039
B0000074308146N07701456EA0299203040
B0000084308139N07701447EA0299403042
B0000094308135N07701435EA0299603044
B0000104308133N07701422EA0299803046
B0000114308135N07701409EA0299903047
B0000124308140N07701398EA0300103049
B0000134308148N07701388EA0300303051
B0000144308157N07701383EA0300503053
B0000154308168N07701382EA0300603054
B0000164308179N07701385EA0300803056
B0000174308188N07701393EA0301003058
B0000184308196N07701404EA0301203060
B0000194308201N07701418EA0301303061
B0000204308203N07701433EA0301503063
B0000214308201N07701448EA0301703065
B0000224308197N07701462EA0301903067
B0000234308190N07701473EA0302003068
B0000244308181N07701480EA0302203070
B0000254308171N07701484EA0302403072
B0000264308161N07701482EA0302603074
B0000274308152N07701477EA0302703075
B0000284308145N07701468EA0302903077
B0000294308140N07701456EA0303103079
B0000304308139N07701443EA0303303081
B0000314308141N07701430EA0303403082
B0000324308146N07701418EA0303603084
B0000334308153N07701409EA0303803086
B0000344308163N07701404EA0304003088
B0000354308173N07701402EA0304103089
B0000364308184N07701406EA0304303091
B0000374308194N07701413EA0304503093
B0000384308201N07701424EA0304703095
B0000394308206N07701438EA0304803096
B0000404308208N07701453EA0305003098
B0000414308207N07701469EA0305203100
B0000424308202N07701482EA0305403102
B0000434308195N07701494EA0305503103
B0000444308186N07701501EA0305703105
B0000454308176N07701504EA0305903107
B0000464308166N07701503EA0306103109
B0000474308157N07701498EA0306203110
B0000484308150N07701489EA0306403112
B0000494308145N07701477EA0306603114
B0000504308144N07701464EA0306803116
B0000514308146N07701451EA0306903117
B0000524308151N07701439EA0307103119
B0000534308159N07701430EA0307303121
B0000544308168N07701424EA0307503123
B0000554308179N07701423EA0307603124
B0000564308189N07701426EA0307803126
B0000574308199N07701434EA0308003128
B0000584308207N07701445EA0308203130
B0000594308212N07701459EA0308303131
B0001004308214N07701474EA0308503133
B0001014308212N07701489EA0308703135
B0001024308208N07701503EA0308903137
B0001034308201N07701514EA0309003138
B0001044308192N07701522EA0309203140
B0001054308182N07701525EA0309403142
B0001064308171N07701524EA0309603144
B0001074308162N07701518EA0309703145
B0001084308155N07701509EA0309903147
B0001094308151N07701498EA0310103149
B0001104308149N07701484EA0310303151
B0001114308151N07701471EA0310403152
B0001124308156N07701460EA0310603154
B0001134308164N07701450EA0310803156
B0001144308174N07701445EA0311003158
B0001154308184N07701444EA0311103159
B0001164308195N07701447EA0311303161
B0001174308204N07701455EA0311503163
B0001184308212N07701466EA0311703165
B0001194308217N07701480EA0311803166
B0001204308219N07701495EA0312003168
B0001214308218N07701510EA0312203170
B0001224308213N07701524EA0312403172
B0001234308206N07701535EA0312503173
B0001244308197N07701542EA0312703175
B0001254308187N07701546EA0312903177
B0001264308177N07701544EA0313103179
B0001274308168N07701539EA0313203180
B0001284308161N07701530EA0313403182
B0001294308156N07701518EA0313603184
B0001304308155N07701505EA0313803186
B0001314308157N07701492EA0313903187
B0001324308162N07701480EA0314103189
B0001334308169N07701471EA0314303191
B0001344308179N07701466EA0314503193
B0001354308190N07701464EA0314603194
B0001364308200N07701468EA0314803196
B0001374308210N07701475EA0315003198
B0001384308217N07701486EA0315203200
B0001394308222N07701500EA0315303201
B0001404308224N07701515EA0315503203
B0001414308223N07701531EA0315703205
B0001424308219N07701544EA0315903207
B0001434308211N07701556EA0316003208
B0001444308202N07701563EA0316203210
B0001454308192N07701566EA0316403212
B0001464308182N07701565EA0316603214
B0001474308173N07701560EA0316703215
B0001484308166N07701551EA0316903217
B0001494308162N07701539EA0317103219
B0001504308160N07701526EA0317303221
B0001514308162N07701513EA0317403222
B0001524308167N07701501EA0317603224
B0001534308175N07701492EA0317803226
B0001544308184N07701486EA0318003228
B0001554308195N07701485EA0318103229
B0001564308206N07701488EA0318303231
B0001574308215N07701496EA0318503233
B0001584308223N07701507EA0318703235
B0001594308228N07701521EA0318803236
B0002004308196N07701536EA0319003238
B0002014308197N07701544EA0318903237
B0002024308198N07701552EA0318803236
B0002034308199N07701560EA0318603234
B0002044308200N07701567EA0318503233
B0002054308201N07701575EA0318403232
B0002064308202N07701583EA0318303231
B0002074308203N07701591EA0318203230
B0002084308204N07701599EA0318003228
B0002094308205N07701607EA0317903227
B0002104308206N07701614EA0317803226
B0002114308207N07701622EA0317703225
B0002124308208N07701630EA0317603224
B0002134308209N07701638EA0317403222
B0002144308210N07701646EA0317303221
B0002154308211N07701654EA0317203220
B0002164308212N07701661EA0317103219
B0002174308213N07701669EA0317003218
B0002184308214N07701677EA0316803216
B0002194308215N07701685EA0316703215
B0002204308216N07701693EA0316603214
B0002214308217N07701700EA0316503213
B0002224308218N07701708EA0316403212
B0002234308219N07701716EA0316203210
B0002244308220N07701724EA0316103209
B0002254308221N07701732EA0316003208
B0002264308222N07701740EA0315903207
B0002274308223N07701747EA0315803206
B0002284308224N07701755EA0315603204
B0002294308224N07701763EA0315503203
B0002304308225N07701771EA0315403202
B0002314308226N07701779EA0315303201
B0002324308227N07701787EA0315203200
B0002334308228N07701794EA0315003198
B0002344308229N07701802EA0314903197
B0002354308230N07701810EA0314803196
B0002364308231N07701818EA0314703195
B0002374308232N07701826EA0314603194
B0002384308233N07701834EA0314403192
B0002394308234N07701841EA0314303191
B0002404308235N07701849EA0314203190
B0002414308236N07701857EA0314103189
B0002424308237N07701865EA0314003188
B0002434308238N07701873EA0313803186
B0002444308239N07701881EA0313703185
B0002454308240N07701888EA0313603184
B0002464308241N07701896EA0313503183
B0002474308242N07701904EA0313403182
B0002484308243N07701912EA0313203180
B0002494308244N07701920EA0313103179
B0002504308245N07701928EA0313003178
B0002514308246N07701935EA0312903177
B0002524308247N07701943EA0312803176
B0002534308248N07701951EA0312603174
B0002544308249N07701959EA0312503173
B0002554308250N07701967EA0312403172
B0002564308251N07701974EA0312303171
B0002574308252N07701982EA0312203170
B0002584308253N07701990EA0312003168
B0002594308254N07701998EA0311903167
B0003004308255N07702006EA0311803166
B0003014308256N07702014EA0311703165
B0003024308257N07702021EA0311603164
B0003034308257N07702029EA0311403162
B0003044308258N07702037EA0311303161
B0003054308259N07702045EA0311203160
B0003064308260N07702053EA0311103159
B0003074308261N07702061EA0311003158
B0003084308262N07702068EA0310803156
B0003094308263N07702076EA0310703155
B0003104308264N07702084EA0310603154
B0003114308265N07702092EA0310503153
B0003124308266N07702100EA0310403152
B0003134308267N07702108EA0310203150
B0003144308268N07702115EA0310103149
B0003154308269N07702123EA0310003148
B0003164308270N07702131EA0309903147
B0003174308271N07702139EA0309803146
B0003184308272N07702147EA0309603144
B0003194308273N07702155EA0309503143
B0003204308274N07702162EA0309403142
B0003214308275N07702170EA0309303141
B0003224308276N07702178EA0309203140
B0003234308277N07702186EA0309003138
B0003244308278N07702194EA0308903137
B0003254308279N07702202EA0308803136
B0003264308280N07702209EA0308703135
B0003274308281N07702217EA0308603134
B0003284308282N07702225EA0308403132
B0003294308283N07702233EA0308303131
B0003304308284N07702241EA0308203130
B0003314308285N07702248EA0308103129
B0003324308286N07702256EA0308003128
B0003334308287N07702264EA0307803126
B0003344308288N07702272EA0307703125
B0003354308289N07702280EA0307603124
B0003364308289N07702288EA0307503123
B0003374308290N07702295EA0307403122
B0003384308291N07702303EA0307203120
B0003394308292N07702311EA0307103119
B0003404308293N07702319EA0307003118
B0003414308294N07702327EA0306903117
B0003424308295N07702335EA0306803116
B0003434308296N07702342EA0306603114
B0003444308297N07702350EA0306503113
B0003454308298N07702358EA0306403112
B0003464308299N07702366EA0306303111
B0003474308300N07702374EA0306203110
B0003484308301N07702382EA0306003108
B0003494308302N07702389EA0305903107
B0003504308303N07702397EA0305803106
B0003514308304N07702405EA0305703105
B0003524308305N07702413EA0305603104
B0003534308306N07702421EA0305403102
B0003544308307N07702429EA0305303101
B0003554308308N07702436EA0305203100
B0003564308309N07702444EA0305103099
B0003574308310N07702452EA0305003098
B0003584308311N07702460EA0304803096
B0003594308312N07702468EA0304703095
B0004004308313N07702475EA0304603094
B0004014308314N07702483EA0304503093
B0004024308315N07702491EA0304403092
B0004034308316N07702499EA0304203090
B0004044308317N07702507EA0304103089
B0004054308318N07702515EA0304003088
B0004064308319N07702522EA0303903087
B0004074308320N07702530EA0303803086
B0004084308321N07702538EA0303603084
B0004094308322N07702546EA0303503083
B0004104308322N07702554EA0303403082
B0004114308323N07702562EA0303303081
B0004124308324N07702569EA0303203080
B0004134308325N07702577EA0303003078
B0004144308326N07702585EA0302903077
B0004154308327N07702593EA0302803076
B0004164308328N07702601EA0302703075
B0004174308329N07702609EA0302603074
B0004184308330N07702616EA0302403072
B0004194308331N07702624EA0302303071
B0004204308332N07702632EA0302203070
B0004214308333N07702640EA0302103069
B0004224308334N07702648EA0302003068
B0004234308335N07702656EA0301803066
B0004244308336N07702663EA0301703065
B0004254308337N07702671EA0301603064
B0004264308338N07702679EA0301503063
B0004274308339N07702687EA0301403062
B0004284308340N07702695EA0301203060
B0004294308341N07702703EA0301103059
B0004304308342N07702710EA0301003058
B0004314308343N07702718EA0300903057
B0004324308344N07702726EA0300803056
B0004334308345N07702734EA0300603054
B0004344308346N07702742EA0300503053
B0004354308347N07702749EA0300403052
B0004364308348N07702757EA0300303051
B0004374308349N07702765EA0300203050
B0004384308350N07702773EA0300003048
B0004394308351N07702781EA0299903047
B0004404308352N07702789EA0299803046
B0004414308353N07702796EA0299703045
B0004424308354N07702804EA0299603044
B0004434308354N07702812EA0299403042
B0004444308355N07702820EA0299303041
B0004454308356N07702828EA0299203040
B0004464308357N07702836EA0299103039
B0004474308358N07702843EA0299003038
B0004484308359N07702851EA0298803036
B0004494308360N07702859EA0298703035
B0004504308361N07702867EA0298603034
B0004514308362N07702875EA0298503033
B0004524308363N07702883EA0298403032
B0004534308364N07702890EA0298203030
B0004544308365N07702898EA0298103029
B0004554308366N07702906EA0298003028
B0004564308367N07702914EA0297903027
B0004574308368N07702922EA0297803026
B0004584308369N07702930EA0297603024
B0004594308370N07702937EA0297503023
B0005004308371N07702945EA0297403022
B0005014308372N07702953EA0297303021
B0005024308373N07702961EA0297203020
B0005034308374N07702969EA0297003018
B0005044308375N07702976EA0296903017
B0005054308376N07702984EA0296803016
B0005064308377N07702992EA0296703015
B0005074308378N07703000EA0296603014
B0005084308379N07703008EA0296403012
B0005094308380N07703016EA0296303011
B0005104308381N07703023EA0296203010
B0005114308382N07703031EA0296103009
B0005124308383N07703039EA0296003008
B0005134308384N07703047EA0295803006
B0005144308385N07703055EA0295703005
B0005154308386N07703063EA0295603004
B0005164308387N07703070EA0295503003
B0005174308387N07703078EA0295403002
B0005184308388N07703086EA0295203000
B0005194308389N07703094EA0295102999
B0005204308390N07703102EA0295002998
B0005214308391N07703110EA0294902997
B0005224308392N07703117EA0294802996
B0005234308393N07703125EA0294602994
B0005244308394N07703133EA0294502993
B0005254308395N07703141EA0294402992
B0005264308396N07703149EA0294302991
B0005274308397N07703157EA0294202990
B0005284308398N07703164EA0294002988
B0005294308399N07703172EA0293902987
B0005304308400N07703180EA0293802986
B0005314308401N07703188EA0293702985
B0005324308402N07703196EA0293602984
B0005334308403N07703204EA0293402982
B0005344308404N07703211EA0293302981
B0005354308405N07703219EA0293202980
B0005364308406N07703227EA0293102979
B0005374308407N07703235EA0293002978
B0005384308408N07703243EA0292802976
B0005394308409N07703250EA0292702975
B0005404308410N07703258EA0292602974
B0005414308411N07703266EA0292502973
B0005424308412N07703274EA0292402972
B0005434308413N07703282EA0292202970
B0005444308414N07703290EA0292102969
B0005454308415N07703297EA0292002968
B0005464308416N07703305EA0291902967
B0005474308417N07703313EA0291802966
B0005484308418N07703321EA0291602964
B0005494308419N07703329EA0291502963
B0005504308419N07703337EA0291402962
B0005514308420N07703344EA0291302961
B0005524308421N07703352EA0291202960
B0005534308422N07703360EA0291002958
B0005544308423N07703368EA0290902957
B0005554308424N07703376EA0290802956
B0005564308425N07703384EA0290702955
B0005574308426N07703391EA0290602954
B0005584308427N07703399EA0290402952
B0005594308428N07703407EA0290302951
B0006004308650N07705276EA0319003238
B0006014308649N07705291EA0319203240
B0006024308644N07705305EA0319403242
B0006034308637N07705316EA0319503243
B0006044308628N07705324EA0319703245
B0006054308618N07705327EA0319903247
B0006064308608N07705326EA0320103249
B0006074308599N07705320EA0320203250
B0006084308592N07705311EA0320403252
B0006094308587N07705299EA0320603254
B0006104308586N07705286EA0320803256
B0006114308588N07705273EA0320903257
B0006124308593N07705261EA0321103259
B0006134308601N07705252EA0321303261
B0006144308610N07705247EA0321503263
B0006154308621N07705246EA0321603264
B0006164308631N07705249EA0321803266
B0006174308641N07705256EA0322003268
B0006184308649N07705268EA0322203270
B0006194308654N07705281EA0322303271
B0006204308656N07705297EA0322503273
B0006214308654N07705312EA0322703275
B0006224308650N07705326EA0322903277
B0006234308643N07705337EA0323003278
B0006244308634N07705344EA0323203280
B0006254308623N07705348EA0323403282
B0006264308613N07705346EA0323603284
B0006274308604N07705341EA0323703285
B0006284308597N07705332EA0323903287
B0006294308593N07705320EA0324103289
B0006304308591N07705307EA0324303291
B0006314308593N07705294EA0324403292
B0006324308598N07705282EA0324603294
B0006334308606N07705273EA0324803296
B0006344308616N07705268EA0325003298
B0006354308626N07705266EA0325103299
B0006364308637N07705270EA0325303301
B0006374308646N07705277EA0325503303
B0006384308654N07705288EA0325703305
B0006394308659N07705302EA0325803306
B0006404308661N07705317EA0326003308
B0006414308660N07705332EA0326203310
B0006424308655N07705346EA0326403312
B0006434308648N07705357EA0326503313
B0006444308639N07705365EA0326703315
B0006454308629N07705368EA0326903317
B0006464308619N07705367EA0327103319
B0006474308610N07705362EA0327203320
B0006484308603N07705352EA0327403322
B0006494308598N07705341EA0327603324
B0006504308597N07705328EA0327803326
B0006514308599N07705315EA0327903327
B0006524308604N07705303EA0328103329
B0006534308611N07705294EA0328303331
B0006544308621N07705288EA0328503333
B0006554308632N07705287EA0328603334
B0006564308642N07705290EA0328803336
B0006574308652N07705298EA0329003338
B0006584308659N07705309EA0329203340
B0006594308664N07705323EA0329303341
B0007004308666N07705338EA0329503343
B0007014308665N07705353EA0329703345
B0007024308661N07705367EA0329903347
B0007034308653N07705378EA0330003348
B0007044308644N07705386EA0330203350
B0007054308634N07705389EA0330403352
B0007064308624N07705388EA0330603354
B0007074308615N07705382EA0330703355
B0007084308608N07705373EA0330903357
B0007094308604N07705361EA0331103359
B0007104308602N07705348EA0331303361
B0007114308604N07705335EA0331403362
B0007124308609N07705323EA0331603364
B0007134308617N07705314EA0331803366
B0007144308626N07705309EA0332003368
B0007154308637N07705308EA0332103369
B0007164308648N07705311EA0332303371
B0007174308657N07705318EA0332503373
B0007184308665N07705330EA0332703375
B0007194308670N07705343EA0332803376
B0007204308672N07705359EA0333003378
B0007214308670N07705374EA0333203380
B0007224308666N07705388EA0333403382
B0007234308659N07705399EA0333503383
B0007244308650N07705406EA0333703385
B0007254308640N07705410EA0333903387
B0007264308630N07705408EA0334103389
B0007274308621N07705403EA0334203390
B0007284308613N07705394EA0334403392
B0007294308609N07705382EA0334603394
B0007304308608N07705369EA0334803396
B0007314308610N07705356EA0334903397
B0007324308615N07705344EA0335103399
B0007334308622N07705335EA0335303401
B0007344308632N07705330EA0335503403
B0007354308642N07705328EA0335603404
B0007364308653N07705332EA0335803406
B0007374308663N07705339EA0336003408
B0007384308670N07705350EA0336203410
B0007394308675N07705364EA0336303411
B0007404308677N07705379EA0336503413
B0007414308676N07705395EA0336703415
B0007424308671N07705408EA0336903417
B0007434308664N07705419EA0337003418
B0007444308655N07705427EA0337203420
B0007454308645N07705430EA0337403422
B0007464308635N07705429EA0337603424
B0007474308626N07705424EA0337703425
B0007484308619N07705415EA0337903427
B0007494308614N07705403EA0338103429
B0007504308613N07705390EA0338303431
B0007514308615N07705377EA0338403432
B0007524308620N07705365EA0338603434
B0007534308628N07705356EA0338803436
B0007544308637N07705350EA0339003438
B0007554308648N07705349EA0339103439
B0007564308658N07705352EA0339303441
B0007574308668N07705360EA0339503443
B0007584308676N07705371EA0339703445
B0007594308681N07705385EA0339803446
B0008004308683N07705400EA0340003448
B0008014308681N07705415EA0340203450
B0008024308677N07705429EA0340403452
B0008034308670N07705440EA0340503453
B0008044308661N07705448EA0340703455
B0008054308650N07705451EA0340903457
B0008064308640N07705450EA0341103459
B0008074308631N07705444EA0341203460
B0008084308624N07705435EA0341403462
B0008094308620N07705423EA0341603464
B0008104308618N07705410EA0341803466
B0008114308620N07705397EA0341903467
B0008124308625N07705385EA0342103469
B0008134308633N07705376EA0342303471
B0008144308643N07705371EA0342503473
B0008154308653N07705370EA0342603474
B0008164308664N07705373EA0342803476
B0008174308673N07705381EA0343003478
B0008184308681N07705392EA0343203480
B0008194308686N07705405EA0343303481
B0008204308688N07705421EA0343503483
B0008214308687N07705436EA0343703485
B0008224308682N07705450EA0343903487
B0008234308675N07705461EA0344003488
B0008244308666N07705468EA0344203490
B0008254308656N07705472EA0344403492
B0008264308646N07705470EA0344603494
B0008274308637N07705465EA0344703495
B0008284308630N07705456EA0344903497
B0008294308625N07705444EA0345103499
B0008304308624N07705431EA0345303501
B0008314308626N07705418EA0345403502
B0008324308631N07705406EA0345603504
B0008334308638N07705397EA0345803506
B0008344308648N07705392EA0346003508
B0008354308659N07705390EA0346103509
B0008364308669N07705394EA0346303511
B0008374308679N07705401EA0346503513
B0008384308686N07705412EA0346703515
B0008394308691N07705426EA0346803516
B0008404308693N07705441EA0347003518
B0008414308692N07705457EA0347203520
B0008424308687N07705470EA0347403522
B0008434308680N07705481EA0347503523
B0008444308671N07705489EA0347703525
B0008454308661N07705492EA0347903527
B0008464308651N07705491EA0348103529
B0008474308642N07705486EA0348203530
B0008484308635N07705477EA0348403532
B0008494308631N07705465EA0348603534
B0008504308629N07705452EA0348803536
B0008514308631N07705439EA0348903537
B0008524308636N07705427EA0349103539
B0008534308644N07705418EA0349303541
B0008544308653N07705412EA0349503543
B0008554308664N07705411EA0349603544
B0008564308675N07705414EA0349803546
B0008574308684N07705422EA0350003548
B0008584308692N07705433EA0350203550
B0008594308697N07705447EA0350303551
B0009004308699N07705462EA0350503553
B0009014308697N07705477EA0350703555
B0009024308693N07705491EA0350903557
B0009034308686N07705502EA0351003558
B0009044308677N07705510EA0351203560
B0009054308667N07705513EA0351403562
B0009064308657N07705512EA0351603564
B0009074308648N07705506EA0351703565
B0009084308640N07705497EA0351903567
B0009094308636N07705485EA0352103569
B0009104308635N07705472EA0352303571
B0009114308636N07705459EA0352403572
B0009124308641N07705448EA0352603574
B0009134308649N07705438EA0352803576
B0009144308659N07705433EA0353003578
B0009154308669N07705432EA0353103579
B0009164308680N07705435EA0353303581
B0009174308689N07705443EA0353503583
B0009184308697N07705454EA0353703585
B0009194308702N07705468EA0353803586
B0009204308704N07705483EA0354003588
B0009214308703N07705498EA0354203590
B0009224308698N07705512EA0354403592
B0009234308691N07705523EA0354503593
B0009244308682N07705530EA0354703595
B0009254308672N07705534EA0354903597
B0009264308662N07705532EA0355103599
B0009274308653N07705527EA0355203600
B0009284308646N07705518EA0355403602
B0009294308641N07705506EA0355603604
B0009304308640N07705493EA0355803606
B0009314308642N07705480EA0355903607
B0009324308647N07705468EA0356103609
B0009334308655N07705459EA0356303611
B0009344308664N07705454EA0356503613
B0009354308675N07705452EA0356603614
B0009364308685N07705456EA0356803616
B0009374308695N07705463EA0357003618
B0009384308703N07705474EA0357203620
B0009394308708N07705488EA0357303621
B0009404308709N07705503EA0357503623
B0009414308708N07705519EA0357703625
B0009424308704N07705532EA0357903627
B0009434308696N07705544EA0358003628
B0009444308687N07705551EA0358203630
B0009454308677N07705554EA0358403632
B0009464308667N07705553EA0358603634
B0009474308658N07705548EA0358703635
B0009484308651N07705539EA0358903637
B0009494308647N07705527EA0359103639
B0009504308645N07705514EA0359303641
B0009514308647N07705501EA0359403642
B0009524308652N07705489EA0359603644
B0009534308660N07705480EA0359803646
B0009544308669N07705474EA0360003648
B0009554308680N07705473EA0360103649
B0009564308691N07705476EA0360303651
B0009574308700N07705484EA0360503653
B0009584308708N07705495EA0360703655
B0009594308713N07705509EA0360803656
B0010004308681N07705524EA0361003658
B0010014308682N07705532EA0360903657
B0010024308683N07705540EA0360803656
B0010034308684N07705548EA0360603654
B0010044308685N07705555EA0360503653
B0010054308686N07705563EA0360403652
B0010064308687N07705571EA0360303651
B0010074308688N07705579EA0360203650
B0010084308689N07705587EA0360003648
B0010094308690N07705595EA0359903647
B0010104308691N07705602EA0359803646
B0010114308692N07705610EA0359703645
B0010124308693N07705618EA0359603644
B0010134308694N07705626EA0359403642
B0010144308695N07705634EA0359303641
B0010154308696N07705641EA0359203640
B0010164308697N07705649EA0359103639
B0010174308698N07705657EA0359003638
B0010184308699N07705665EA0358803636
B0010194308700N07705673EA0358703635
B0010204308701N07705681EA0358603634
B0010214308702N07705688EA0358503633
B0010224308703N07705696EA0358403632
B0010234308704N07705704EA0358203630
B0010244308705N07705712EA0358103629
B0010254308706N07705720EA0358003628
B0010264308707N07705728EA0357903627
B0010274308708N07705735EA0357803626
B0010284308709N07705743EA0357603624
B0010294308710N07705751EA0357503623
B0010304308711N07705759EA0357403622
B0010314308712N07705767EA0357303621
B0010324308712N07705775EA0357203620
B0010334308713N07705782EA0357003618
B0010344308714N07705790EA0356903617
B0010354308715N07705798EA0356803616
B0010364308716N07705806EA0356703615
B0010374308717N07705814EA0356603614
B0010384308718N07705822EA0356403612
B0010394308719N07705829EA0356303611
B0010404308720N07705837EA0356203610
B0010414308721N07705845EA0356103609
B0010424308722N07705853EA0356003608
B0010434308723N07705861EA0355803606
B0010444308724N07705869EA0355703605
B0010454308725N07705876EA0355603604
B0010464308726N07705884EA0355503603
B0010474308727N07705892EA0355403602
B0010484308728N07705900EA0355203600
B0010494308729N07705908EA0355103599
B0010504308730N07705915EA0355003598
B0010514308731N07705923EA0354903597
B0010524308732N07705931EA0354803596
B0010534308733N07705939EA0354603594
B0010544308734N07705947EA0354503593
B0010554308735N07705955EA0354403592
B0010564308736N07705962EA0354303591
B0010574308737N07705970EA0354203590
B0010584308738N07705978EA0354003588
B0010594308739N07705986EA0353903587
B0011004308740N07705994EA0353803586
B0011014308741N07706002EA0353703585
B0011024308742N07706009EA0353603584
B0011034308743N07706017EA0353403582
B0011044308744N07706025EA0353303581
B0011054308744N07706033EA0353203580
B0011064308745N07706041EA0353103579
B0011074308746N07706049EA0353003578
B0011084308747N07706056EA0352803576
B0011094308748N07706064EA0352703575
B0011104308749N07706072EA0352603574
B0011114308750N07706080EA0352503573
B0011124308751N07706088EA0352403572
B0011134308752N07706096EA0352203570
B0011144308753N07706103EA0352103569
B0011154308754N07706111EA0352003568
B0011164308755N07706119EA0351903567
B0011174308756N07706127EA0351803566
B0011184308757N07706135EA0351603564
B0011194308758N07706142EA0351503563
B0011204308759N07706150EA0351403562
B0011214308760N07706158EA0351303561
B0011224308761N07706166EA0351203560
B0011234308762N07706174EA0351003558
B0011244308763N07706182EA0350903557
B0011254308764N07706189EA0350803556
B0011264308765N07706197EA0350703555
B0011274308766N07706205EA0350603554
B0011284308767N07706213EA0350403552
B0011294308768N07706221EA0350303551
B0011304308769N07706229EA0350203550
B0011314308770N07706236EA0350103549
B0011324308771N07706244EA0350003548
B0011334308772N07706252EA0349803546
B0011344308773N07706260EA0349703545
B0011354308774N07706268EA0349603544
B0011364308775N07706276EA0349503543
B0011374308776N07706283EA0349403542
B0011384308777N07706291EA0349203540
B0011394308777N07706299EA0349103539
B0011404308778N07706307EA0349003538
B0011414308779N07706315EA0348903537
B0011424308780N07706323EA0348803536
B0011434308781N07706330EA0348603534
B0011444308782N07706338EA0348503533
B0011454308783N07706346EA0348403532
B0011464308784N07706354EA0348303531
B0011474308785N07706362EA0348203530
B0011484308786N07706370EA0348003528
B0011494308787N07706377EA0347903527
B0011504308788N07706385EA0347803526
B0011514308789N07706393EA0347703525
B0011524308790N07706401EA0347603524
B0011534308791N07706409EA0347403522
B0011544308792N07706416EA0347303521
B0011554308793N07706424EA0347203520
B0011564308794N07706432EA0347103519
B0011574308795N07706440EA0347003518
B0011584308796N07706448EA0346803516
B0011594308797N07706456EA0346703515
B0012004308798N07706463EA0346603514
B0012014308799N07706471EA0346503513
B0012024308800N07706479EA0346403512
B0012034308801N07706487EA0346203510
B0012044308802N07706495EA0346103509
B0012054308803N07706503EA0346003508
B0012064308804N07706510EA0345903507
B0012074308805N07706518EA0345803506
B0012084308806N07706526EA0345603504
B0012094308807N07706534EA0345503503
B0012104308808N07706542EA0345403502
B0012114308809N07706550EA0345303501
B0012124308810N07706557EA0345203500
B0012134308810N07706565EA0345003498
B0012144308811N07706573EA0344903497
B0012154308812N07706581EA0344803496
B0012164308813N07706589EA0344703495
B0012174308814N07706597EA0344603494
B0012184308815N07706604EA0344403492
B0012194308816N07706612EA0344303491
B0012204308817N07706620EA0344203490
B0012214308818N07706628EA0344103489
B0012224308819N07706636EA0344003488
B0012234308820N07706644EA0343803486
B0012244308821N07706651EA0343703485
B0012254308822N07706659EA0343603484
B0012264308823N07706667EA0343503483
B0012274308824N07706675EA0343403482
B0012284308825N07706683EA0343203480
B0012294308826N07706690EA0343103479
B0012304308827N07706698EA0343003478
B0012314308828N07706706EA0342903477
B0012324308829N07706714EA0342803476
B0012334308830N07706722EA0342603474
B0012344308831N07706730EA0342503473
B0012354308832N07706737EA0342403472
B0012364308833N07706745EA0342303471
B0012374308834N07706753EA0342203470
B0012384308835N07706761EA0342003468
B0012394308836N07706769EA0341903467
B0012404308837N07706777EA0341803466
B0012414308838N07706784EA0341703465
B0012424308839N07706792EA0341603464
B0012434308840N07706800EA0341403462
B0012444308841N07706808EA0341303461
B0012454308842N07706816EA0341203460
B0012464308842N07706824EA0341103459
B0012474308843N07706831EA0341003458
B0012484308844N07706839EA0340803456
B0012494308845N07706847EA0340703455
B0012504308846N07706855EA0340603454
B0012514308847N07706863EA0340503453
B0012524308848N07706871EA0340403452
B0012534308849N07706878EA0340203450
B0012544308850N07706886EA0340103449
B0012554308851N07706894EA0340003448
B0012564308852N07706902EA0339903447
B0012574308853N07706910EA0339803446
B0012584308854N07706917EA0339603444
B0012594308855N07706925EA0339503443
B0013004308856N07706933EA0339403442
B0013014308857N07706941EA0339303441
B0013024308858N07706949EA0339203440
B0013034308859N07706957EA0339003438
B0013044308860N07706964EA0338903437
B0013054308861N07706972EA0338803436
B0013064308862N07706980EA0338703435
B0013074308863N07706988EA0338603434
B0013084308864N07706996EA0338403432
B0013094308865N07707004EA0338303431
B0013104308866N07707011EA0338203430
B0013114308867N07707019EA0338103429
B0013124308868N07707027EA0338003428
B0013134308869N07707035EA0337803426
B0013144308870N07707043EA0337703425
B0013154308871N07707051EA0337603424
B0013164308872N07707058EA0337503423
B0013174308873N07707066EA0337403422
B0013184308874N07707074EA0337203420
B0013194308875N07707082EA0337103419
B0013204308875N07707090EA0337003418
B0013214308876N07707098EA0336903417
B0013224308877N07707105EA0336803416
B0013234308878N07707113EA0336603414
B0013244308879N07707121EA0336503413
B0013254308880N07707129EA0336403412
B0013264308881N07707137EA0336303411
B0013274308882N07707145EA0336203410
B0013284308883N07707152EA0336003408
B0013294308884N07707160EA0335903407
B0013304308885N07707168EA0335803406
B0013314308886N07707176EA0335703405
B0013324308887N07707184EA0335603404
B0013334308888N07707191EA0335403402
B0013344308889N07707199EA0335303401
B0013354308890N07707207EA0335203400
B0013364308891N07707215EA0335103399
B0013374308892N07707223EA0335003398
B0013384308893N07707231EA0334803396
B0013394308894N07707238EA0334703395
B0013404308895N07707246EA0334603394
B0013414308896N07707254EA0334503393
B0013424308897N07707262EA0334403392
B0013434308898N07707270EA0334203390
B0013444308899N07707278EA0334103389
B0013454308900N07707285EA0334003388
B0013464308901N07707293EA0333903387
B0013474308902N07707301EA0333803386
B0013484308903N07707309EA0333603384
B0013494308904N07707317EA0333503383
B0013504308905N07707325EA0333403382
B0013514308906N07707332EA0333303381
B0013524308907N07707340EA0333203380
B0013534308907N07707348EA0333003378
B0013544308908N07707356EA0332903377
B0013554308909N07707364EA0332803376
B0013564308910N07707372EA0332703375
B0013574308911N07707379EA0332603374
B0013584308912N07707387EA0332403372
B0013594308913N07707395EA0332303371
B0014004309135N07709264EA0361003658
B0014014309134N07709279EA0361203660
B0014024309129N07709293EA0361403662
B0014034309122N07709304EA0361503663
B0014044309113N07709312EA0361703665
B0014054309103N07709315EA0361903667
B0014064309093N07709314EA0362103669
B0014074309084N07709308EA0362203670
B0014084309077N07709299EA0362403672
B0014094309072N07709287EA0362603674
B0014104309071N07709274EA0362803676
B0014114309073N07709261EA0362903677
B0014124309078N07709249EA0363103679
B0014134309086N07709240EA0363303681
B0014144309095N07709235EA0363503683
B0014154309106N07709234EA0363603684
B0014164309116N07709237EA0363803686
B0014174309126N07709244EA0364003688
B0014184309134N07709256EA0364203690
B0014194309139N07709269EA0364303691
B0014204309141N07709285EA0364503693
B0014214309139N07709300EA0364703695
B0014224309135N07709314EA0364903697
B0014234309128N07709325EA0365003698
B0014244309119N07709332EA0365203700
B0014254309109N07709336EA0365403702
B0014264309099N07709334EA0365603704
B0014274309089N07709329EA0365703705
B0014284309082N07709320EA0365903707
B0014294309078N07709308EA0366103709
B0014304309077N07709295EA0366303711
B0014314309078N07709282EA0366403712
B0014324309083N07709270EA0366603714
B0014334309091N07709261EA0366803716
B0014344309101N07709255EA0367003718
B0014354309111N07709254EA0367103719
B0014364309122N07709258EA0367303721
B0014374309131N07709265EA0367503723
B0014384309139N07709276EA0367703725
B0014394309144N07709290EA0367803726
B0014404309146N07709305EA0368003728
B0014414309145N07709320EA0368203730
B0014424309140N07709334EA0368403732
B0014434309133N07709345EA0368503733
B0014444309124N07709353EA0368703735
B0014454309114N07709356EA0368903737
B0014464309104N07709355EA0369103739
B0014474309095N07709350EA0369203740
B0014484309088N07709340EA0369403742
B0014494309083N07709329EA0369603744
B0014504309082N07709316EA0369803746
B0014514309084N07709302EA0369903747
B0014524309089N07709291EA0370103749
B0014534309096N07709282EA0370303751
B0014544309106N07709276EA0370503753
B0014554309117N07709275EA0370603754
B0014564309127N07709278EA0370803756
B0014574309137N07709286EA0371003758
B0014584309145N07709297EA0371203760
B0014594309150N07709311EA0371303761
LSKY Generated fixture  do not edit by hand
GDEADBEEF00000000000000000000000000000000
