AXCT Skyline fixture generator
HFDTE030426
HFPLTPILOTINCHARGE:Test Pilot
HFGTYGLIDERTYPE:Ozone Zeno 2
HFGIDGLIDERID:FIXTURE
HFDTM100GPSDATUM:WGS-1984
HFFTYFRTYPE:Skyline,Fixture
B0700003133480N03528380EA-2880-2832
B0700013133479N03528393EA-2878-2830
B0700023133474N03528405EA-2876-2828
B0700033133467N03528414EA-2875-2827
B0700043133458N03528421EA-2873-2825
B0700053133448N03528424EA-2871-2823
B0700063133438N03528423EA-2869-2821
B0700073133429N03528418EA-2868-2820
B0700083133422N03528410EA-2866-2818
B0700093133417N03528400EA-2864-2816
B0700103133416N03528389EA-2862-2814
B0700113133418N03528378EA-2861-2813
B0700123133423N03528368EA-2859-2811
B0700133133430N03528360EA-2857-2809
B0700143133440N03528355EA-2855-2807
B0700153133451N03528354EA-2854-2806
B0700163133461N03528357EA-2852-2804
B0700173133471N03528363EA-2850-2802
B0700183133478N03528373EA-2848-2800
B0700193133483N03528385EA-2847-2799
B0700203133485N03528398EA-2845-2797
B0700213133484N03528411EA-2843-2795
B0700223133480N03528423EA-2841-2793
B0700233133472N03528432EA-2840-2792
B0700243133463N03528439EA-2838-2790
B0700253133453N03528441EA-2836-2788
B0700263133443N03528440EA-2834-2786
B0700273133434N03528436EA-2833-2785
B0700283133427N03528428EA-2831-2783
B0700293133423N03528418EA-2829-2781
B0700303133421N03528407EA-2827-2779
B0700313133423N03528395EA-2826-2778
B0700323133428N03528385EA-2824-2776
B0700333133436N03528377EA-2822-2774
B0700343133445N03528373EA-2820-2772
B0700353133456N03528372EA-2819-2771
B0700363133467N03528375EA-2817-2769
B0700373133476N03528381EA-2815-2767
B0700383133484N03528391EA-2813-2765
B0700393133489N03528402EA-2812-2764
B0700403133491N03528415EA-2810-2762
B0700413133489N03528428EA-2808-2760
B0700423133485N03528440EA-2806-2758
B0700433133478N03528450EA-2805-2757
B0700443133469N03528456EA-2803-2755
B0700453133459N03528459EA-2801-2753
B0700463133449N03528458EA-2799-2751
B0700473133440N03528453EA-2798-2750
B0700483133432N03528446EA-2796-2748
B0700493133428N03528436EA-2794-2746
B0700503133427N03528424EA-2792-2744
B0700513133429N03528413EA-2791-2743
B0700523133434N03528403EA-2789-2741
B0700533133441N03528395EA-2787-2739
B0700543133451N03528391EA-2785-2737
B0700553133461N03528389EA-2784-2736
B0700563133472N03528392EA-2782-2734
B0700573133482N03528399EA-2780-2732
B0700583133489N03528408EA-2778-2730
B0700593133494N03528420EA-2777-2729
B0701003133496N03528433EA-2775-2727
B0701013133495N03528446EA-2773-2725
B0701023133490N03528458EA-2771-2723
B0701033133483N03528468EA-2770-2722
B0701043133474N03528474EA-2768-2720
B0701053133464N03528477EA-2766-2718
B0701063133454N03528476EA-2764-2716
B0701073133445N03528471EA-2763-2715
B0701083133438N03528463EA-2761-2713
B0701093133433N03528453EA-2759-2711
B0701103133432N03528442EA-2757-2709
B0701113133434N03528431EA-2756-2708
B0701123133439N03528421EA-2754-2706
B0701133133447N03528413EA-2752-2704
B0701143133456N03528408EA-2750-2702
B0701153133467N03528407EA-2749-2701
B0701163133477N03528410EA-2747-2699
B0701173133487N03528416EA-2745-2697
B0701183133495N03528426EA-2743-2695
B0701193133500N03528438EA-2742-2694
B0701203133502N03528451EA-2740-2692
B0701213133500N03528464EA-2738-2690
B0701223133496N03528476EA-2736-2688
B0701233133489N03528485EA-2735-2687
B0701243133480N03528492EA-2733-2685
B0701253133469N03528494EA-2731-2683
B0701263133459N03528493EA-2729-2681
B0701273133450N03528489EA-2728-2680
B0701283133443N03528481EA-2726-2678
B0701293133439N03528471EA-2724-2676
B0701303133437N03528460EA-2722-2674
B0701313133439N03528448EA-2721-2673
B0701323133444N03528438EA-2719-2671
B0701333133452N03528431EA-2717-2669
B0701343133462N03528426EA-2715-2667
B0701353133472N03528425EA-2714-2666
B0701363133483N03528428EA-2712-2664
B0701373133492N03528434EA-2710-2662
B0701383133500N03528444EA-2708-2660
B0701393133505N03528456EA-2707-2659
B0701403133507N03528469EA-2705-2657
B0701413133506N03528482EA-2703-2655
B0701423133501N03528493EA-2701-2653
B0701433133494N03528503EA-2700-2652
B0701443133485N03528509EA-2698-2650
B0701453133475N03528512EA-2696-2648
B0701463133465N03528511EA-2694-2646
B0701473133456N03528506EA-2693-2645
B0701483133449N03528499EA-2691-2643
B0701493133444N03528489EA-2689-2641
B0701503133443N03528477EA-2687-2639
B0701513133445N03528466EA-2686-2638
B0701523133450N03528456EA-2684-2636
B0701533133457N03528448EA-2682-2634
B0701543133467N03528444EA-2680-2632
B0701553133478N03528443EA-2679-2631
B0701563133488N03528445EA-2677-2629
B0701573133498N03528452EA-2675-2627
B0701583133505N03528461EA-2673-2625
B0701593133510N03528473EA-2672-2624
B0702003133512N03528486EA-2670-2622
B0702013133511N03528499EA-2668-2620
B0702023133506N03528511EA-2666-2618
B0702033133499N03528521EA-2665-2617
B0702043133490N03528527EA-2663-2615
B0702053133480N03528530EA-2661-2613
B0702063133470N03528529EA-2659-2611
B0702073133461N03528524EA-2658-2610
B0702083133454N03528516EA-2656-2608
B0702093133450N03528506EA-2654-2606
B0702103133448N03528495EA-2652-2604
B0702113133450N03528484EA-2651-2603
B0702123133455N03528474EA-2649-2601
B0702133133463N03528466EA-2647-2599
B0702143133472N03528461EA-2645-2597
B0702153133483N03528460EA-2644-2596
B0702163133494N03528463EA-2642-2594
B0702173133503N03528470EA-2640-2592
B0702183133511N03528479EA-2638-2590
B0702193133516N03528491EA-2637-2589
B0702203133518N03528504EA-2635-2587
B0702213133516N03528517EA-2633-2585
B0702223133512N03528529EA-2631-2583
B0702233133505N03528538EA-2630-2582
B0702243133496N03528545EA-2628-2580
B0702253133486N03528548EA-2626-2578
B0702263133476N03528547EA-2624-2576
B0702273133467N03528542EA-2623-2575
B0702283133459N03528534EA-2621-2573
B0702293133455N03528524EA-2619-2571
B0702303133454N03528513EA-2617-2569
B0702313133455N03528502EA-2616-2568
B0702323133461N03528492EA-2614-2566
B0702333133468N03528484EA-2612-2564
B0702343133478N03528479EA-2610-2562
B0702353133488N03528478EA-2609-2561
B0702363133499N03528481EA-2607-2559
B0702373133509N03528487EA-2605-2557
B0702383133516N03528497EA-2603-2555
B0702393133521N03528509EA-2602-2554
B0702403133523N03528522EA-2600-2552
B0702413133522N03528535EA-2598-2550
B0702423133517N03528547EA-2596-2548
B0702433133510N03528556EA-2595-2547
B0702443133501N03528563EA-2593-2545
B0702453133491N03528565EA-2591-2543
B0702463133481N03528564EA-2589-2541
B0702473133472N03528560EA-2588-2540
B0702483133465N03528552EA-2586-2538
B0702493133460N03528542EA-2584-2536
B0702503133459N03528531EA-2582-2534
B0702513133461N03528519EA-2581-2533
B0702523133466N03528509EA-2579-2531
B0702533133474N03528501EA-2577-2529
B0702543133483N03528497EA-2575-2527
B0702553133494N03528496EA-2574-2526
B0702563133504N03528499EA-2572-2524
B0702573133514N03528505EA-2570-2522
B0702583133522N03528515EA-2568-2520
B0702593133527N03528526EA-2567-2519
B0703003133529N03528539EA-2565-2517
B0703013133527N03528552EA-2563-2515
B0703023133523N03528564EA-2561-2513
B0703033133516N03528574EA-2560-2512
B0703043133506N03528580EA-2558-2510
B0703053133496N03528583EA-2556-2508
B0703063133486N03528582EA-2554-2506
B0703073133477N03528577EA-2553-2505
B0703083133470N03528570EA-2551-2503
B0703093133466N03528559EA-2549-2501
B0703103133464N03528548EA-2547-2499
B0703113133466N03528537EA-2546-2498
B0703123133471N03528527EA-2544-2496
B0703133133479N03528519EA-2542-2494
B0703143133489N03528514EA-2540-2492
B0703153133499N03528513EA-2539-2491
B0703163133510N03528516EA-2537-2489
B0703173133519N03528523EA-2535-2487
B0703183133527N03528532EA-2533-2485
B0703193133532N03528544EA-2532-2484
B0703203133534N03528557EA-2530-2482
B0703213133533N03528570EA-2528-2480
B0703223133528N03528582EA-2526-2478
B0703233133521N03528591EA-2525-2477
B0703243133512N03528598EA-2523-2475
B0703253133502N03528601EA-2521-2473
B0703263133492N03528600EA-2519-2471
B0703273133483N03528595EA-2518-2470
B0703283133476N03528587EA-2516-2468
B0703293133471N03528577EA-2514-2466
B0703303133470N03528566EA-2512-2464
B0703313133472N03528555EA-2511-2463
B0703323133477N03528545EA-2509-2461
B0703333133484N03528537EA-2507-2459
B0703343133494N03528532EA-2505-2457
B0703353133505N03528531EA-2504-2456
B0703363133515N03528534EA-2502-2454
B0703373133525N03528540EA-2500-2452
B0703383133532N03528550EA-2498-2450
B0703393133537N03528562EA-2497-2449
B0703403133539N03528575EA-2495-2447
B0703413133538N03528588EA-2493-2445
B0703423133533N03528600EA-2491-2443
B0703433133526N03528609EA-2490-2442
B0703443133517N03528616EA-2488-2440
B0703453133507N03528618EA-2486-2438
B0703463133497N03528617EA-2484-2436
B0703473133488N03528613EA-2483-2435
B0703483133481N03528605EA-2481-2433
B0703493133477N03528595EA-2479-2431
B0703503133475N03528584EA-2477-2429
B0703513133477N03528572EA-2476-2428
B0703523133482N03528562EA-2474-2426
B0703533133490N03528555EA-2472-2424
B0703543133499N03528550EA-2470-2422
B0703553133510N03528549EA-2469-2421
B0703563133521N03528552EA-2467-2419
B0703573133530N03528558EA-2465-2417
B0703583133538N03528568EA-2463-2415
B0703593133543N03528580EA-2462-2414
B0704003133511N03528593EA-2460-2412
B0704013133512N03528599EA-2461-2413
B0704023133513N03528606EA-2462-2414
B0704033133514N03528613EA-2464-2416
B0704043133515N03528619EA-2465-2417
B0704053133516N03528626EA-2466-2418
B0704063133517N03528633EA-2467-2419
B0704073133518N03528639EA-2468-2420
B0704083133519N03528646EA-2470-2422
B0704093133520N03528653EA-2471-2423
B0704103133521N03528660EA-2472-2424
B0704113133522N03528666EA-2473-2425
B0704123133523N03528673EA-2474-2426
B0704133133524N03528680EA-2476-2428
B0704143133525N03528686EA-2477-2429
B0704153133526N03528693EA-2478-2430
B0704163133527N03528700EA-2479-2431
B0704173133528N03528707EA-2480-2432
B0704183133529N03528713EA-2482-2434
B0704193133530N03528720EA-2483-2435
B0704203133531N03528727EA-2484-2436
B0704213133532N03528733EA-2485-2437
B0704223133533N03528740EA-2486-2438
B0704233133534N03528747EA-2488-2440
B0704243133535N03528753EA-2489-2441
B0704253133536N03528760EA-2490-2442
B0704263133536N03528767EA-2491-2443
B0704273133537N03528774EA-2492-2444
B0704283133538N03528780EA-2494-2446
B0704293133539N03528787EA-2495-2447
B0704303133540N03528794EA-2496-2448
B0704313133541N03528800EA-2497-2449
B0704323133542N03528807EA-2498-2450
B0704333133543N03528814EA-2500-2452
B0704343133544N03528820EA-2501-2453
B0704353133545N03528827EA-2502-2454
B0704363133546N03528834EA-2503-2455
B0704373133547N03528841EA-2504-2456
B0704383133548N03528847EA-2506-2458
B0704393133549N03528854EA-2507-2459
B0704403133550N03528861EA-2508-2460
B0704413133551N03528867EA-2509-2461
B0704423133552N03528874EA-2510-2462
B0704433133553N03528881EA-2512-2464
B0704443133554N03528888EA-2513-2465
B0704453133555N03528894EA-2514-2466
B0704463133556N03528901EA-2515-2467
B0704473133557N03528908EA-2516-2468
B0704483133558N03528914EA-2518-2470
B0704493133559N03528921EA-2519-2471
B0704503133560N03528928EA-2520-2472
B0704513133561N03528934EA-2521-2473
B0704523133562N03528941EA-2522-2474
B0704533133563N03528948EA-2524-2476
B0704543133564N03528955EA-2525-2477
B0704553133565N03528961EA-2526-2478
B0704563133566N03528968EA-2527-2479
B0704573133567N03528975EA-2528-2480
B0704583133568N03528981EA-2530-2482
B0704593133569N03528988EA-2531-2483
B0705003133569N03528995EA-2532-2484
B0705013133570N03529002EA-2533-2485
B0705023133571N03529008EA-2534-2486
B0705033133572N03529015EA-2536-2488
B0705043133573N03529022EA-2537-2489
B0705053133574N03529028EA-2538-2490
B0705063133575N03529035EA-2539-2491
B0705073133576N03529042EA-2540-2492
B0705083133577N03529048EA-2542-2494
B0705093133578N03529055EA-2543-2495
B0705103133579N03529062EA-2544-2496
B0705113133580N03529069EA-2545-2497
B0705123133581N03529075EA-2546-2498
B0705133133582N03529082EA-2548-2500
B0705143133583N03529089EA-2549-2501
B0705153133584N03529095EA-2550-2502
B0705163133585N03529102EA-2551-2503
B0705173133586N03529109EA-2552-2504
B0705183133587N03529116EA-2554-2506
B0705193133588N03529122EA-2555-2507
B0705203133589N03529129EA-2556-2508
B0705213133590N03529136EA-2557-2509
B0705223133591N03529142EA-2558-2510
B0705233133592N03529149EA-2560-2512
B0705243133593N03529156EA-2561-2513
B0705253133594N03529162EA-2562-2514
B0705263133595N03529169EA-2563-2515
B0705273133596N03529176EA-2564-2516
B0705283133597N03529183EA-2566-2518
B0705293133598N03529189EA-2567-2519
B0705303133599N03529196EA-2568-2520
B0705313133600N03529203EA-2569-2521
B0705323133601N03529209EA-2570-2522
B0705333133601N03529216EA-2572-2524
B0705343133602N03529223EA-2573-2525
B0705353133603N03529229EA-2574-2526
B0705363133604N03529236EA-2575-2527
B0705373133605N03529243EA-2576-2528
B0705383133606N03529250EA-2578-2530
B0705393133607N03529256EA-2579-2531
B0705403133608N03529263EA-2580-2532
B0705413133609N03529270EA-2581-2533
B0705423133610N03529276EA-2582-2534
B0705433133611N03529283EA-2584-2536
B0705443133612N03529290EA-2585-2537
B0705453133613N03529297EA-2586-2538
B0705463133614N03529303EA-2587-2539
B0705473133615N03529310EA-2588-2540
B0705483133616N03529317EA-2590-2542
B0705493133617N03529323EA-2591-2543
B0705503133618N03529330EA-2592-2544
B0705513133619N03529337EA-2593-2545
B0705523133620N03529343EA-2594-2546
B0705533133621N03529350EA-2596-2548
B0705543133622N03529357EA-2597-2549
B0705553133623N03529364EA-2598-2550
B0705563133624N03529370EA-2599-2551
B0705573133625N03529377EA-2600-2552
B0705583133626N03529384EA-2602-2554
B0705593133627N03529390EA-2603-2555
LSKY Generated fixture  do not edit by hand
GDEADBEEF00000000000000000000000000000000
