AXCT Skyline fixture generator
HFDTE150726
HFPLTPILOTINCHARGE:Test Pilot
HFGTYGLIDERTYPE:Ozone Zeno 2
HFGIDGLIDERID:FIXTURE
HFDTM100GPSDATUM:WGS-1984
HFFTYFRTYPE:Skyline,Fixture
B1000004307680N07657300EA0000002398
B1000014307679N07657315EA0000002400
B1000024307674N07657329EA0000002402
B1000034307667N07657340EA0000002403
B1000044307658N07657348EA0000002405
B1000054307648N07657351EA0000002407
B1000064307638N07657350EA0000002409
B1000074307629N07657344EA0000002410
B1000084307622N07657335EA0000002412
B1000094307617N07657323EA0000002414
B1000104307616N07657310EA0000002416
B1000114307618N07657297EA0000002417
B1000124307623N07657285EA0000002419
B1000134307630N07657276EA0000002421
B1000144307640N07657271EA0000002423
B1000154307651N07657270EA0000002424
B1000164307661N07657273EA0000002426
B1000174307671N07657281EA0000002428
B1000184307678N07657292EA0000002430
B1000194307683N07657305EA0000002431
B1000204307685N07657321EA0000002433
B1000214307684N07657336EA0000002435
B1000224307680N07657350EA0000002437
B1000234307672N07657361EA0000002438
B1000244307663N07657368EA0000002440
B1000254307653N07657372EA0000002442
B1000264307643N07657370EA0000002444
B1000274307634N07657365EA0000002445
B1000284307627N07657356EA0000002447
B1000294307623N07657344EA0000002449
B1000304307621N07657331EA0000002451
B1000314307623N07657318EA0000002452
B1000324307628N07657306EA0000002454
B1000334307636N07657297EA0000002456
B1000344307645N07657292EA0000002458
B1000354307656N07657290EA0000002459
B1000364307667N07657294EA0000002461
B1000374307676N07657301EA0000002463
B1000384307684N07657312EA0000002465
B1000394307689N07657326EA0000002466
B1000404307691N07657341EA0000002468
B1000414307689N07657357EA0000002470
B1000424307685N07657370EA0000002472
B1000434307678N07657382EA0000002473
B1000444307669N07657389EA0000002475
B1000454307659N07657392EA0000002477
B1000464307649N07657391EA0000002479
B1000474307640N07657386EA0000002480
B1000484307632N07657377EA0000002482
B1000494307628N07657365EA0000002484
B1000504307627N07657352EA0000002486
B1000514307629N07657339EA0000002487
B1000524307634N07657327EA0000002489
B1000534307641N07657318EA0000002491
B1000544307651N07657312EA0000002493
B1000554307661N07657311EA0000002494
B1000564307672N07657314EA0000002496
B1000574307682N07657322EA0000002498
B1000584307689N07657333EA0000002500
B1000594307694N07657347EA0000002501
B1001004307696N07657362EA0000002503
B1001014307695N07657377EA0000002505
B1001024307690N07657391EA0000002507
B1001034307683N07657402EA0000002508
B1001044307674N07657410EA0000002510
B1001054307664N07657413EA0000002512
B1001064307654N07657412EA0000002514
B1001074307645N07657406EA0000002515
B1001084307638N07657397EA0000002517
B1001094307633N07657385EA0000002519
B1001104307632N07657372EA0000002521
B1001114307634N07657359EA0000002522
B1001124307639N07657348EA0000002524
B1001134307647N07657338EA0000002526
B1001144307656N07657333EA0000002528
B1001154307667N07657332EA0000002529
B1001164307677N07657335EA0000002531
B1001174307687N07657343EA0000002533
B1001184307695N07657354EA0000002535
B1001194307700N07657368EA0000002536
B1001204307702N07657383EA0000002538
B1001214307700N07657398EA0000002540
B1001224307696N07657412EA0000002542
B1001234307689N07657423EA0000002543
B1001244307680N07657430EA0000002545
B1001254307669N07657434EA0000002547
B1001264307659N07657432EA0000002549
B1001274307650N07657427EA0000002550
B1001284307643N07657418EA0000002552
B1001294307639N07657406EA0000002554
B1001304307637N07657393EA0000002556
B1001314307639N07657380EA0000002557
B1001324307644N07657368EA0000002559
B1001334307652N07657359EA0000002561
B1001344307662N07657354EA0000002563
B1001354307672N07657352EA0000002564
B1001364307683N07657356EA0000002566
B1001374307692N07657363EA0000002568
B1001384307700N07657374EA0000002570
B1001394307705N07657388EA0000002571
B1001404307707N07657403EA0000002573
B1001414307706N07657419EA0000002575
B1001424307701N07657432EA0000002577
B1001434307694N07657444EA0000002578
B1001444307685N07657451EA0000002580
B1001454307675N07657454EA0000002582
B1001464307665N07657453EA0000002584
B1001474307656N07657448EA0000002585
B1001484307649N07657439EA0000002587
B1001494307644N07657427EA0000002589
B1001504307643N07657414EA0000002591
B1001514307645N07657401EA0000002592
B1001524307650N07657389EA0000002594
B1001534307657N07657380EA0000002596
B1001544307667N07657374EA0000002598
B1001554307678N07657373EA0000002599
B1001564307688N07657376EA0000002601
B1001574307698N07657384EA0000002603
B1001584307705N07657395EA0000002605
B1001594307710N07657409EA0000002606
B1002004307712N07657424EA0000002608
B1002014307711N07657439EA0000002610
B1002024307706N07657453EA0000002612
B1002034307699N07657464EA0000002613
B1002044307690N07657472EA0000002615
B1002054307680N07657475EA0000002617
B1002064307670N07657474EA0000002619
B1002074307661N07657468EA0000002620
B1002084307654N07657459EA0000002622
B1002094307650N07657448EA0000002624
B1002104307648N07657434EA0000002626
B1002114307650N07657421EA0000002627
B1002124307655N07657410EA0000002629
B1002134307663N07657400EA0000002631
B1002144307672N07657395EA0000002633
B1002154307683N07657394EA0000002634
B1002164307694N07657397EA0000002636
B1002174307703N07657405EA0000002638
B1002184307711N07657416EA0000002640
B1002194307716N07657430EA0000002641
B1002204307718N07657445EA0000002643
B1002214307716N07657460EA0000002645
B1002224307712N07657474EA0000002647
B1002234307705N07657485EA0000002648
B1002244307696N07657492EA0000002650
B1002254307686N07657496EA0000002652
B1002264307676N07657494EA0000002654
B1002274307667N07657489EA0000002655
B1002284307659N07657480EA0000002657
B1002294307655N07657468EA0000002659
B1002304307654N07657455EA0000002661
B1002314307655N07657442EA0000002662
B1002324307661N07657430EA0000002664
B1002334307668N07657421EA0000002666
B1002344307678N07657416EA0000002668
B1002354307688N07657414EA0000002669
B1002364307699N07657418EA0000002671
B1002374307709N07657425EA0000002673
B1002384307716N07657436EA0000002675
B1002394307721N07657450EA0000002676
B1002404307723N07657465EA0000002678
B1002414307722N07657481EA0000002680
B1002424307717N07657494EA0000002682
B1002434307710N07657506EA0000002683
B1002444307701N07657513EA0000002685
B1002454307691N07657516EA0000002687
B1002464307681N07657515EA0000002689
B1002474307672N07657510EA0000002690
B1002484307665N07657501EA0000002692
B1002494307660N07657489EA0000002694
B1002504307659N07657476EA0000002696
B1002514307661N07657463EA0000002697
B1002524307666N07657451EA0000002699
B1002534307674N07657442EA0000002701
B1002544307683N07657436EA0000002703
B1002554307694N07657435EA0000002704
B1002564307704N07657438EA0000002706
B1002574307714N07657446EA0000002708
B1002584307722N07657457EA0000002710
B1002594307727N07657471EA0000002711
B1003004307729N07657486EA0000002713
B1003014307727N07657501EA0000002715
B1003024307723N07657515EA0000002717
B1003034307716N07657526EA0000002718
B1003044307706N07657534EA0000002720
B1003054307696N07657537EA0000002722
B1003064307686N07657536EA0000002724
B1003074307677N07657530EA0000002725
B1003084307670N07657521EA0000002727
B1003094307666N07657510EA0000002729
B1003104307664N07657496EA0000002731
B1003114307666N07657483EA0000002732
B1003124307671N07657472EA0000002734
B1003134307679N07657463EA0000002736
B1003144307689N07657457EA0000002738
B1003154307699N07657456EA0000002739
B1003164307710N07657459EA0000002741
B1003174307719N07657467EA0000002743
B1003184307727N07657478EA0000002745
B1003194307732N07657492EA0000002746
B1003204307734N07657507EA0000002748
B1003214307733N07657522EA0000002750
B1003224307728N07657536EA0000002752
B1003234307721N07657547EA0000002753
B1003244307712N07657554EA0000002755
B1003254307702N07657558EA0000002757
B1003264307692N07657557EA0000002759
B1003274307683N07657551EA0000002760
B1003284307676N07657542EA0000002762
B1003294307671N07657530EA0000002764
B1003304307670N07657517EA0000002766
B1003314307672N07657504EA0000002767
B1003324307677N07657492EA0000002769
B1003334307684N07657483EA0000002771
B1003344307694N07657478EA0000002773
B1003354307705N07657477EA0000002774
B1003364307715N07657480EA0000002776
B1003374307725N07657487EA0000002778
B1003384307732N07657498EA0000002780
B1003394307737N07657512EA0000002781
B1003404307739N07657527EA0000002783
B1003414307738N07657543EA0000002785
B1003424307733N07657556EA0000002787
B1003434307726N07657568EA0000002788
B1003444307717N07657575EA0000002790
B1003454307707N07657578EA0000002792
B1003464307697N07657577EA0000002794
B1003474307688N07657572EA0000002795
B1003484307681N07657563EA0000002797
B1003494307677N07657551EA0000002799
B1003504307675N07657538EA0000002801
B1003514307677N07657525EA0000002802
B1003524307682N07657513EA0000002804
B1003534307690N07657504EA0000002806
B1003544307699N07657498EA0000002808
B1003554307710N07657497EA0000002809
B1003564307721N07657500EA0000002811
B1003574307730N07657508EA0000002813
B1003584307738N07657519EA0000002815
B1003594307743N07657533EA0000002816
B1004004307711N07657548EA0000002818
B1004014307712N07657556EA0000002817
B1004024307713N07657564EA0000002816
B1004034307714N07657572EA0000002814
B1004044307715N07657579EA0000002813
B1004054307716N07657587EA0000002812
B1004064307717N07657595EA0000002811
B1004074307718N07657603EA0000002810
B1004084307719N07657611EA0000002808
B1004094307720N07657619EA0000002807
B1004104307721N07657626EA0000002806
B1004114307722N07657634EA0000002805
B1004124307723N07657642EA0000002804
B1004134307724N07657650EA0000002802
B1004144307725N07657658EA0000002801
B1004154307726N07657666EA0000002800
B1004164307727N07657673EA0000002799
B1004174307728N07657681EA0000002798
B1004184307729N07657689EA0000002796
B1004194307730N07657697EA0000002795
B1004204307731N07657705EA0000002794
B1004214307732N07657713EA0000002793
B1004224307733N07657720EA0000002792
B1004234307734N07657728EA0000002790
B1004244307735N07657736EA0000002789
B1004254307736N07657744EA0000002788
B1004264307736N07657752EA0000002787
B1004274307737N07657760EA0000002786
B1004284307738N07657767EA0000002784
B1004294307739N07657775EA0000002783
B1004304307740N07657783EA0000002782
B1004314307741N07657791EA0000002781
B1004324307742N07657799EA0000002780
B1004334307743N07657806EA0000002778
B1004344307744N07657814EA0000002777
B1004354307745N07657822EA0000002776
B1004364307746N07657830EA0000002775
B1004374307747N07657838EA0000002774
B1004384307748N07657846EA0000002772
B1004394307749N07657853EA0000002771
B1004404307750N07657861EA0000002770
B1004414307751N07657869EA0000002769
B1004424307752N07657877EA0000002768
B1004434307753N07657885EA0000002766
B1004444307754N07657893EA0000002765
B1004454307755N07657900EA0000002764
B1004464307756N07657908EA0000002763
B1004474307757N07657916EA0000002762
B1004484307758N07657924EA0000002760
B1004494307759N07657932EA0000002759
B1004504307760N07657940EA0000002758
B1004514307761N07657947EA0000002757
B1004524307762N07657955EA0000002756
B1004534307763N07657963EA0000002754
B1004544307764N07657971EA0000002753
B1004554307765N07657979EA0000002752
B1004564307766N07657987EA0000002751
B1004574307767N07657994EA0000002750
B1004584307768N07658002EA0000002748
B1004594307769N07658010EA0000002747
B1005004307769N07658018EA0000002746
B1005014307770N07658026EA0000002745
B1005024307771N07658033EA0000002744
B1005034307772N07658041EA0000002742
B1005044307773N07658049EA0000002741
B1005054307774N07658057EA0000002740
B1005064307775N07658065EA0000002739
B1005074307776N07658073EA0000002738
B1005084307777N07658080EA0000002736
B1005094307778N07658088EA0000002735
B1005104307779N07658096EA0000002734
B1005114307780N07658104EA0000002733
B1005124307781N07658112EA0000002732
B1005134307782N07658120EA0000002730
B1005144307783N07658127EA0000002729
B1005154307784N07658135EA0000002728
B1005164307785N07658143EA0000002727
B1005174307786N07658151EA0000002726
B1005184307787N07658159EA0000002724
B1005194307788N07658167EA0000002723
B1005204307789N07658174EA0000002722
B1005214307790N07658182EA0000002721
B1005224307791N07658190EA0000002720
B1005234307792N07658198EA0000002718
B1005244307793N07658206EA0000002717
B1005254307794N07658214EA0000002716
B1005264307795N07658221EA0000002715
B1005274307796N07658229EA0000002714
B1005284307797N07658237EA0000002712
B1005294307798N07658245EA0000002711
B1005304307799N07658253EA0000002710
B1005314307800N07658261EA0000002709
B1005324307801N07658268EA0000002708
B1005334307801N07658276EA0000002706
B1005344307802N07658284EA0000002705
B1005354307803N07658292EA0000002704
B1005364307804N07658300EA0000002703
B1005374307805N07658307EA0000002702
B1005384307806N07658315EA0000002700
B1005394307807N07658323EA0000002699
B1005404307808N07658331EA0000002698
B1005414307809N07658339EA0000002697
B1005424307810N07658347EA0000002696
B1005434307811N07658354EA0000002694
B1005444307812N07658362EA0000002693
B1005454307813N07658370EA0000002692
B1005464307814N07658378EA0000002691
B1005474307815N07658386EA0000002690
B1005484307816N07658394EA0000002688
B1005494307817N07658401EA0000002687
B1005504307818N07658409EA0000002686
B1005514307819N07658417EA0000002685
B1005524307820N07658425EA0000002684
B1005534307821N07658433EA0000002682
B1005544307822N07658441EA0000002681
B1005554307823N07658448EA0000002680
B1005564307824N07658456EA0000002679
B1005574307825N07658464EA0000002678
B1005584307826N07658472EA0000002676
B1005594307827N07658480EA0000002675
B1006004307828N07658488EA0000002674
B1006014307829N07658495EA0000002673
B1006024307830N07658503EA0000002672
B1006034307831N07658511EA0000002670
B1006044307832N07658519EA0000002669
B1006054307833N07658527EA0000002668
B1006064307834N07658534EA0000002667
B1006074307834N07658542EA0000002666
B1006084307835N07658550EA0000002664
B1006094307836N07658558EA0000002663
B1006104307837N07658566EA0000002662
B1006114307838N07658574EA0000002661
B1006124307839N07658581EA0000002660
B1006134307840N07658589EA0000002658
B1006144307841N07658597EA0000002657
B1006154307842N07658605EA0000002656
B1006164307843N07658613EA0000002655
B1006174307844N07658621EA0000002654
B1006184307845N07658628EA0000002652
B1006194307846N07658636EA0000002651
B1006204307847N07658644EA0000002650
B1006214307848N07658652EA0000002649
B1006224307849N07658660EA0000002648
B1006234307850N07658668EA0000002646
B1006244307851N07658675EA0000002645
B1006254307852N07658683EA0000002644
B1006264307853N07658691EA0000002643
B1006274307854N07658699EA0000002642
B1006284307855N07658707EA0000002640
B1006294307856N07658715EA0000002639
B1006304307857N07658722EA0000002638
B1006314307858N07658730EA0000002637
B1006324307859N07658738EA0000002636
B1006334307860N07658746EA0000002634
B1006344307861N07658754EA0000002633
B1006354307862N07658762EA0000002632
B1006364307863N07658769EA0000002631
B1006374307864N07658777EA0000002630
B1006384307865N07658785EA0000002628
B1006394307866N07658793EA0000002627
B1006404307866N07658801EA0000002626
B1006414307867N07658808EA0000002625
B1006424307868N07658816EA0000002624
B1006434307869N07658824EA0000002622
B1006444307870N07658832EA0000002621
B1006454307871N07658840EA0000002620
B1006464307872N07658848EA0000002619
B1006474307873N07658855EA0000002618
B1006484307874N07658863EA0000002616
B1006494307875N07658871EA0000002615
B1006504307876N07658879EA0000002614
B1006514307877N07658887EA0000002613
B1006524307878N07658895EA0000002612
B1006534307879N07658902EA0000002610
B1006544307880N07658910EA0000002609
B1006554307881N07658918EA0000002608
B1006564307882N07658926EA0000002607
B1006574307883N07658934EA0000002606
B1006584307884N07658942EA0000002604
B1006594307885N07658949EA0000002603
B1007004307886N07658957EA0000002602
B1007014307887N07658965EA0000002601
B1007024307888N07658973EA0000002600
B1007034307889N07658981EA0000002598
B1007044307890N07658989EA0000002597
B1007054307891N07658996EA0000002596
B1007064307892N07659004EA0000002595
B1007074307893N07659012EA0000002594
B1007084307894N07659020EA0000002592
B1007094307895N07659028EA0000002591
B1007104307896N07659036EA0000002590
B1007114307897N07659043EA0000002589
B1007124307898N07659051EA0000002588
B1007134307899N07659059EA0000002586
B1007144307899N07659067EA0000002585
B1007154307900N07659075EA0000002584
B1007164307901N07659082EA0000002583
B1007174307902N07659090EA0000002582
B1007184307903N07659098EA0000002580
B1007194307904N07659106EA0000002579
B1007204307905N07659114EA0000002578
B1007214307906N07659122EA0000002577
B1007224307907N07659129EA0000002576
B1007234307908N07659137EA0000002574
B1007244307909N07659145EA0000002573
B1007254307910N07659153EA0000002572
B1007264307911N07659161EA0000002571
B1007274307912N07659169EA0000002570
B1007284307913N07659176EA0000002568
B1007294307914N07659184EA0000002567
B1007304307915N07659192EA0000002566
B1007314307916N07659200EA0000002565
B1007324307917N07659208EA0000002564
B1007334307918N07659216EA0000002562
B1007344307919N07659223EA0000002561
B1007354307920N07659231EA0000002560
B1007364307921N07659239EA0000002559
B1007374307922N07659247EA0000002558
B1007384307923N07659255EA0000002556
B1007394307924N07659263EA0000002555
B1007404307925N07659270EA0000002554
B1007414307926N07659278EA0000002553
B1007424307927N07659286EA0000002552
B1007434307928N07659294EA0000002550
B1007444307929N07659302EA0000002549
B1007454307930N07659309EA0000002548
B1007464307931N07659317EA0000002547
B1007474307931N07659325EA0000002546
B1007484307932N07659333EA0000002544
B1007494307933N07659341EA0000002543
B1007504307934N07659349EA0000002542
B1007514307935N07659356EA0000002541
B1007524307936N07659364EA0000002540
B1007534307937N07659372EA0000002538
B1007544307938N07659380EA0000002537
B1007554307939N07659388EA0000002536
B1007564307940N07659396EA0000002535
B1007574307941N07659403EA0000002534
B1007584307942N07659411EA0000002532
B1007594307943N07659419EA0000002531
LSKY Generated fixture  do not edit by hand
GDEADBEEF00000000000000000000000000000000
