AXCT Skyline fixture generator
HFDTE221126
HFPLTPILOTINCHARGE:Test Pilot
HFGTYGLIDERTYPE:Ozone Zeno 2
HFGIDGLIDERID:FIXTURE
HFDTM100GPSDATUM:WGS-1984
HFFTYFRTYPE:Skyline,Fixture
B1400003239180S07000660WA0280002848
B1400013239181S07000647WA0280202850
B1400023239186S07000635WA0280402852
B1400033239193S07000625WA0280502853
B1400043239202S07000619WA0280702855
B1400053239212S07000616WA0280902857
B1400063239222S07000617WA0281102859
B1400073239231S07000622WA0281202860
B1400083239238S07000630WA0281402862
B1400093239243S07000640WA0281602864
B1400103239244S07000651WA0281802866
B1400113239242S07000662WA0281902867
B1400123239237S07000673WA0282102869
B1400133239230S07000680WA0282302871
B1400143239220S07000685WA0282502873
B1400153239209S07000686WA0282602874
B1400163239199S07000683WA0282802876
B1400173239189S07000677WA0283002878
B1400183239182S07000667WA0283202880
B1400193239177S07000655WA0283302881
B1400203239175S07000642WA0283502883
B1400213239176S07000629WA0283702885
B1400223239180S07000617WA0283902887
B1400233239188S07000607WA0284002888
B1400243239197S07000601WA0284202890
B1400253239207S07000598WA0284402892
B1400263239217S07000599WA0284602894
B1400273239226S07000604WA0284702895
B1400283239233S07000612WA0284902897
B1400293239237S07000622WA0285102899
B1400303239239S07000633WA0285302901
B1400313239237S07000644WA0285402902
B1400323239232S07000655WA0285602904
B1400333239224S07000663WA0285802906
B1400343239215S07000667WA0286002908
B1400353239204S07000668WA0286102909
B1400363239193S07000665WA0286302911
B1400373239184S07000659WA0286502913
B1400383239176S07000649WA0286702915
B1400393239171S07000637WA0286802916
B1400403239169S07000624WA0287002918
B1400413239171S07000611WA0287202920
B1400423239175S07000599WA0287402922
B1400433239182S07000589WA0287502923
B1400443239191S07000583WA0287702925
B1400453239201S07000580WA0287902927
B1400463239211S07000581WA0288102929
B1400473239220S07000586WA0288202930
B1400483239228S07000594WA0288402932
B1400493239232S07000604WA0288602934
B1400503239233S07000615WA0288802936
B1400513239231S07000627WA0288902937
B1400523239226S07000637WA0289102939
B1400533239219S07000645WA0289302941
B1400543239209S07000649WA0289502943
B1400553239199S07000650WA0289602944
B1400563239188S07000648WA0289802946
B1400573239178S07000641WA0290002948
B1400583239171S07000631WA0290202950
B1400593239166S07000619WA0290302951
B1401003239164S07000606WA0290502953
B1401013239165S07000593WA0290702955
B1401023239170S07000581WA0290902957
B1401033239177S07000571WA0291002958
B1401043239186S07000565WA0291202960
B1401053239196S07000562WA0291402962
B1401063239206S07000563WA0291602964
B1401073239215S07000568WA0291702965
B1401083239222S07000576WA0291902967
B1401093239227S07000586WA0292102969
B1401103239228S07000597WA0292302971
B1401113239226S07000609WA0292402972
B1401123239221S07000619WA0292602974
B1401133239213S07000627WA0292802976
B1401143239204S07000631WA0293002978
B1401153239193S07000632WA0293102979
B1401163239183S07000630WA0293302981
B1401173239173S07000623WA0293502983
B1401183239165S07000613WA0293702985
B1401193239160S07000601WA0293802986
B1401203239158S07000588WA0294002988
B1401213239160S07000575WA0294202990
B1401223239164S07000563WA0294402992
B1401233239171S07000554WA0294502993
B1401243239180S07000547WA0294702995
B1401253239191S07000544WA0294902997
B1401263239201S07000545WA0295102999
B1401273239210S07000550WA0295203000
B1401283239217S07000558WA0295403002
B1401293239221S07000568WA0295603004
B1401303239223S07000579WA0295803006
B1401313239221S07000591WA0295903007
B1401323239216S07000601WA0296103009
B1401333239208S07000609WA0296303011
B1401343239198S07000614WA0296503013
B1401353239188S07000615WA0296603014
B1401363239177S07000612WA0296803016
B1401373239168S07000605WA0297003018
B1401383239160S07000595WA0297203020
B1401393239155S07000584WA0297303021
B1401403239153S07000570WA0297503023
B1401413239154S07000557WA0297703025
B1401423239159S07000545WA0297903027
B1401433239166S07000536WA0298003028
B1401443239175S07000529WA0298203030
B1401453239185S07000526WA0298403032
B1401463239195S07000527WA0298603034
B1401473239204S07000532WA0298703035
B1401483239211S07000540WA0298903037
B1401493239216S07000550WA0299103039
B1401503239217S07000561WA0299303041
B1401513239215S07000573WA0299403042
B1401523239210S07000583WA0299603044
B1401533239203S07000591WA0299803046
B1401543239193S07000596WA0300003048
B1401553239182S07000597WA0300103049
B1401563239172S07000594WA0300303051
B1401573239162S07000587WA0300503053
B1401583239155S07000578WA0300703055
B1401593239150S07000566WA0300803056
B1402003239148S07000552WA0301003058
B1402013239149S07000539WA0301203060
B1402023239154S07000527WA0301403062
B1402033239161S07000518WA0301503063
B1402043239170S07000511WA0301703065
B1402053239180S07000508WA0301903067
B1402063239190S07000509WA0302103069
B1402073239199S07000514WA0302203070
B1402083239206S07000522WA0302403072
B1402093239210S07000532WA0302603074
B1402103239212S07000543WA0302803076
B1402113239210S07000555WA0302903077
B1402123239205S07000565WA0303103079
B1402133239197S07000573WA0303303081
B1402143239188S07000578WA0303503083
B1402153239177S07000579WA0303603084
B1402163239166S07000576WA0303803086
B1402173239157S07000569WA0304003088
B1402183239149S07000560WA0304203090
B1402193239144S07000548WA0304303091
B1402203239142S07000535WA0304503093
B1402213239144S07000521WA0304703095
B1402223239148S07000509WA0304903097
B1402233239155S07000500WA0305003098
B1402243239164S07000493WA0305203100
B1402253239174S07000490WA0305403102
B1402263239184S07000491WA0305603104
B1402273239193S07000496WA0305703105
B1402283239201S07000504WA0305903107
B1402293239205S07000514WA0306103109
B1402303239206S07000526WA0306303111
B1402313239205S07000537WA0306403112
B1402323239199S07000547WA0306603114
B1402333239192S07000555WA0306803116
B1402343239182S07000560WA0307003118
B1402353239172S07000561WA0307103119
B1402363239161S07000558WA0307303121
B1402373239151S07000551WA0307503123
B1402383239144S07000542WA0307703125
B1402393239139S07000530WA0307803126
B1402403239137S07000517WA0308003128
B1402413239138S07000503WA0308203130
B1402423239143S07000491WA0308403132
B1402433239150S07000482WA0308503133
B1402443239159S07000475WA0308703135
B1402453239169S07000472WA0308903137
B1402463239179S07000473WA0309103139
B1402473239188S07000478WA0309203140
B1402483239195S07000486WA0309403142
B1402493239200S07000496WA0309603144
B1402503239201S07000508WA0309803146
B1402513239199S07000519WA0309903147
B1402523239194S07000529WA0310103149
B1402533239186S07000537WA0310303151
B1402543239177S07000542WA0310503153
B1402553239166S07000543WA0310603154
B1402563239156S07000540WA0310803156
B1402573239146S07000533WA0311003158
B1402583239138S07000524WA0311203160
B1402593239133S07000512WA0311303161
B1403003239131S07000499WA0311503163
B1403013239133S07000486WA0311703165
B1403023239137S07000474WA0311903167
B1403033239144S07000464WA0312003168
B1403043239154S07000457WA0312203170
B1403053239164S07000455WA0312403172
B1403063239174S07000456WA0312603174
B1403073239183S07000460WA0312703175
B1403083239190S07000468WA0312903177
B1403093239194S07000478WA0313103179
B1403103239196S07000490WA0313303181
B1403113239194S07000501WA0313403182
B1403123239189S07000511WA0313603184
B1403133239181S07000519WA0313803186
B1403143239171S07000524WA0314003188
B1403153239161S07000525WA0314103189
B1403163239150S07000522WA0314303191
B1403173239141S07000516WA0314503193
B1403183239133S07000506WA0314703195
B1403193239128S07000494WA0314803196
B1403203239126S07000481WA0315003198
B1403213239127S07000468WA0315203200
B1403223239132S07000456WA0315403202
B1403233239139S07000446WA0315503203
B1403243239148S07000439WA0315703205
B1403253239158S07000437WA0315903207
B1403263239168S07000438WA0316103209
B1403273239177S07000442WA0316203210
B1403283239184S07000450WA0316403212
B1403293239189S07000460WA0316603214
B1403303239190S07000472WA0316803216
B1403313239188S07000483WA0316903217
B1403323239183S07000493WA0317103219
B1403333239176S07000501WA0317303221
B1403343239166S07000506WA0317503223
B1403353239155S07000507WA0317603224
B1403363239145S07000504WA0317803226
B1403373239135S07000498WA0318003228
B1403383239128S07000488WA0318203230
B1403393239123S07000476WA0318303231
B1403403239121S07000463WA0318503233
B1403413239122S07000450WA0318703235
B1403423239127S07000438WA0318903237
B1403433239134S07000428WA0319003238
B1403443239143S07000421WA0319203240
B1403453239153S07000419WA0319403242
B1403463239163S07000420WA0319603244
B1403473239172S07000424WA0319703245
B1403483239179S07000432WA0319903247
B1403493239183S07000442WA0320103249
B1403503239185S07000454WA0320303251
B1403513239183S07000465WA0320403252
B1403523239178S07000475WA0320603254
B1403533239170S07000483WA0320803256
B1403543239161S07000488WA0321003258
B1403553239150S07000489WA0321103259
B1403563239139S07000486WA0321303261
B1403573239130S07000480WA0321503263
B1403583239122S07000470WA0321703265
B1403593239117S07000458WA0321803266
B1404003239149S07000445WA0322003268
B1404013239148S07000438WA0321903267
B1404023239147S07000431WA0321803266
B1404033239146S07000425WA0321603264
B1404043239145S07000418WA0321503263
B1404053239144S07000411WA0321403262
B1404063239143S07000404WA0321303261
B1404073239142S07000397WA0321203260
B1404083239141S07000391WA0321003258
B1404093239140S07000384WA0320903257
B1404103239139S07000377WA0320803256
B1404113239138S07000370WA0320703255
B1404123239137S07000363WA0320603254
B1404133239136S07000357WA0320403252
B1404143239135S07000350WA0320303251
B1404153239134S07000343WA0320203250
B1404163239133S07000336WA0320103249
B1404173239132S07000330WA0320003248
B1404183239131S07000323WA0319803246
B1404193239130S07000316WA0319703245
B1404203239129S07000309WA0319603244
B1404213239128S07000302WA0319503243
B1404223239127S07000296WA0319403242
B1404233239126S07000289WA0319203240
B1404243239125S07000282WA0319103239
B1404253239124S07000275WA0319003238
B1404263239124S07000268WA0318903237
B1404273239123S07000262WA0318803236
B1404283239122S07000255WA0318603234
B1404293239121S07000248WA0318503233
B1404303239120S07000241WA0318403232
B1404313239119S07000235WA0318303231
B1404323239118S07000228WA0318203230
B1404333239117S07000221WA0318003228
B1404343239116S07000214WA0317903227
B1404353239115S07000207WA0317803226
B1404363239114S07000201WA0317703225
B1404373239113S07000194WA0317603224
B1404383239112S07000187WA0317403222
B1404393239111S07000180WA0317303221
B1404403239110S07000173WA0317203220
B1404413239109S07000167WA0317103219
B1404423239108S07000160WA0317003218
B1404433239107S07000153WA0316803216
B1404443239106S07000146WA0316703215
B1404453239105S07000140WA0316603214
B1404463239104S07000133WA0316503213
B1404473239103S07000126WA0316403212
B1404483239102S07000119WA0316203210
B1404493239101S07000112WA0316103209
B1404503239100S07000106WA0316003208
B1404513239099S07000099WA0315903207
B1404523239098S07000092WA0315803206
B1404533239097S07000085WA0315603204
B1404543239096S07000078WA0315503203
B1404553239095S07000072WA0315403202
B1404563239094S07000065WA0315303201
B1404573239093S07000058WA0315203200
B1404583239092S07000051WA0315003198
B1404593239091S07000045WA0314903197
B1405003239091S07000038WA0314803196
B1405013239090S07000031WA0314703195
B1405023239089S07000024WA0314603194
B1405033239088S07000017WA0314403192
B1405043239087S07000011WA0314303191
B1405053239086S07000004WA0314203190
B1405063239085S06959997WA0314103189
B1405073239084S06959990WA0314003188
B1405083239083S06959983WA0313803186
B1405093239082S06959977WA0313703185
B1405103239081S06959970WA0313603184
B1405113239080S06959963WA0313503183
B1405123239079S06959956WA0313403182
B1405133239078S06959950WA0313203180
B1405143239077S06959943WA0313103179
B1405153239076S06959936WA0313003178
B1405163239075S06959929WA0312903177
B1405173239074S06959922WA0312803176
B1405183239073S06959916WA0312603174
B1405193239072S06959909WA0312503173
B1405203239071S06959902WA0312403172
B1405213239070S06959895WA0312303171
B1405223239069S06959888WA0312203170
B1405233239068S06959882WA0312003168
B1405243239067S06959875WA0311903167
B1405253239066S06959868WA0311803166
B1405263239065S06959861WA0311703165
B1405273239064S06959855WA0311603164
B1405283239063S06959848WA0311403162
B1405293239062S06959841WA0311303161
B1405303239061S06959834WA0311203160
B1405313239060S06959827WA0311103159
B1405323239059S06959821WA0311003158
B1405333239059S06959814WA0310803156
B1405343239058S06959807WA0310703155
B1405353239057S06959800WA0310603154
B1405363239056S06959793WA0310503153
B1405373239055S06959787WA0310403152
B1405383239054S06959780WA0310203150
B1405393239053S06959773WA0310103149
B1405403239052S06959766WA0310003148
B1405413239051S06959760WA0309903147
B1405423239050S06959753WA0309803146
B1405433239049S06959746WA0309603144
B1405443239048S06959739WA0309503143
B1405453239047S06959732WA0309403142
B1405463239046S06959726WA0309303141
B1405473239045S06959719WA0309203140
B1405483239044S06959712WA0309003138
B1405493239043S06959705WA0308903137
B1405503239042S06959698WA0308803136
B1405513239041S06959692WA0308703135
B1405523239040S06959685WA0308603134
B1405533239039S06959678WA0308403132
B1405543239038S06959671WA0308303131
B1405553239037S06959665WA0308203130
B1405563239036S06959658WA0308103129
B1405573239035S06959651WA0308003128
B1405583239034S06959644WA0307803126
B1405593239033S06959637WA0307703125
B1406003239032S06959631WA0307603124
B1406013239031S06959624WA0307503123
B1406023239030S06959617WA0307403122
B1406033239029S06959610WA0307203120
B1406043239028S06959603WA0307103119
B1406053239027S06959597WA0307003118
B1406063239026S06959590WA0306903117
B1406073239026S06959583WA0306803116
B1406083239025S06959576WA0306603114
B1406093239024S06959570WA0306503113
B1406103239023S06959563WA0306403112
B1406113239022S06959556WA0306303111
B1406123239021S06959549WA0306203110
B1406133239020S06959542WA0306003108
B1406143239019S06959536WA0305903107
B1406153239018S06959529WA0305803106
B1406163239017S06959522WA0305703105
B1406173239016S06959515WA0305603104
B1406183239015S06959508WA0305403102
B1406193239014S06959502WA0305303101
B1406203239013S06959495WA0305203100
B1406213239012S06959488WA0305103099
B1406223239011S06959481WA0305003098
B1406233239010S06959475WA0304803096
B1406243239009S06959468WA0304703095
B1406253239008S06959461WA0304603094
B1406263239007S06959454WA0304503093
B1406273239006S06959447WA0304403092
B1406283239005S06959441WA0304203090
B1406293239004S06959434WA0304103089
B1406303239003S06959427WA0304003088
B1406313239002S06959420WA0303903087
B1406323239001S06959413WA0303803086
B1406333239000S06959407WA0303603084
B1406343238999S06959400WA0303503083
B1406353238998S06959393WA0303403082
B1406363238997S06959386WA0303303081
B1406373238996S06959380WA0303203080
B1406383238995S06959373WA0303003078
B1406393238994S06959366WA0302903077
B1406403238994S06959359WA0302803076
B1406413238993S06959352WA0302703075
B1406423238992S06959346WA0302603074
B1406433238991S06959339WA0302403072
B1406443238990S06959332WA0302303071
B1406453238989S06959325WA0302203070
B1406463238988S06959318WA0302103069
B1406473238987S06959312WA0302003068
B1406483238986S06959305WA0301803066
B1406493238985S06959298WA0301703065
B1406503238984S06959291WA0301603064
B1406513238983S06959285WA0301503063
B1406523238982S06959278WA0301403062
B1406533238981S06959271WA0301203060
B1406543238980S06959264WA0301103059
B1406553238979S06959257WA0301003058
B1406563238978S06959251WA0300903057
B1406573238977S06959244WA0300803056
B1406583238976S06959237WA0300603054
B1406593238975S06959230WA0300503053
B1407003238974S06959223WA0300403052
B1407013238973S06959217WA0300303051
B1407023238972S06959210WA0300203050
B1407033238971S06959203WA0300003048
B1407043238970S06959196WA0299903047
B1407053238969S06959190WA0299803046
B1407063238968S06959183WA0299703045
B1407073238967S06959176WA0299603044
B1407083238966S06959169WA0299403042
B1407093238965S06959162WA0299303041
B1407103238964S06959156WA0299203040
B1407113238963S06959149WA0299103039
B1407123238962S06959142WA0299003038
B1407133238961S06959135WA0298803036
B1407143238961S06959128WA0298703035
B1407153238960S06959122WA0298603034
B1407163238959S06959115WA0298503033
B1407173238958S06959108WA0298403032
B1407183238957S06959101WA0298203030
B1407193238956S06959095WA0298103029
B1407203238955S06959088WA0298003028
B1407213238954S06959081WA0297903027
B1407223238953S06959074WA0297803026
B1407233238952S06959067WA0297603024
B1407243238951S06959061WA0297503023
B1407253238950S06959054WA0297403022
B1407263238949S06959047WA0297303021
B1407273238948S06959040WA0297203020
B1407283238947S06959033WA0297003018
B1407293238946S06959027WA0296903017
B1407303238945S06959020WA0296803016
B1407313238944S06959013WA0296703015
B1407323238943S06959006WA0296603014
B1407333238942S06959000WA0296403012
B1407343238941S06958993WA0296303011
B1407353238940S06958986WA0296203010
B1407363238939S06958979WA0296103009
B1407373238938S06958972WA0296003008
B1407383238937S06958966WA0295803006
B1407393238936S06958959WA0295703005
B1407403238935S06958952WA0295603004
B1407413238934S06958945WA0295503003
B1407423238933S06958938WA0295403002
B1407433238932S06958932WA0295203000
B1407443238931S06958925WA0295102999
B1407453238930S06958918WA0295002998
B1407463238929S06958911WA0294902997
B1407473238929S06958905WA0294802996
B1407483238928S06958898WA0294602994
B1407493238927S06958891WA0294502993
B1407503238926S06958884WA0294402992
B1407513238925S06958877WA0294302991
B1407523238924S06958871WA0294202990
B1407533238923S06958864WA0294002988
B1407543238922S06958857WA0293902987
B1407553238921S06958850WA0293802986
B1407563238920S06958843WA0293702985
B1407573238919S06958837WA0293602984
B1407583238918S06958830WA0293402982
B1407593238917S06958823WA0293302981
B1408003238695S06957203WA0322003268
B1408013238696S06957190WA0322203270
B1408023238701S06957178WA0322403272
B1408033238708S06957168WA0322503273
B1408043238717S06957162WA0322703275
B1408053238727S06957159WA0322903277
B1408063238737S06957160WA0323103279
B1408073238746S06957165WA0323203280
B1408083238753S06957173WA0323403282
B1408093238758S06957183WA0323603284
B1408103238759S06957194WA0323803286
B1408113238757S06957206WA0323903287
B1408123238752S06957216WA0324103289
B1408133238744S06957224WA0324303291
B1408143238735S06957228WA0324503293
B1408153238724S06957229WA0324603294
B1408163238714S06957227WA0324803296
B1408173238704S06957220WA0325003298
B1408183238696S06957210WA0325203300
B1408193238691S06957198WA0325303301
B1408203238690S06957185WA0325503303
B1408213238691S06957172WA0325703305
B1408223238695S06957160WA0325903307
B1408233238702S06957150WA0326003308
B1408243238712S06957144WA0326203310
B1408253238722S06957141WA0326403312
B1408263238732S06957142WA0326603314
B1408273238741S06957147WA0326703315
B1408283238748S06957155WA0326903317
B1408293238752S06957165WA0327103319
B1408303238754S06957176WA0327303321
B1408313238752S06957188WA0327403322
B1408323238747S06957198WA0327603324
B1408333238739S06957206WA0327803326
B1408343238729S06957210WA0328003328
B1408353238719S06957211WA0328103329
B1408363238708S06957209WA0328303331
B1408373238699S06957202WA0328503333
B1408383238691S06957192WA0328703335
B1408393238686S06957180WA0328803336
B1408403238684S06957167WA0329003338
B1408413238685S06957154WA0329203340
B1408423238690S06957142WA0329403342
B1408433238697S06957132WA0329503343
B1408443238706S06957126WA0329703345
B1408453238716S06957123WA0329903347
B1408463238726S06957124WA0330103349
B1408473238735S06957129WA0330203350
B1408483238742S06957137WA0330403352
B1408493238747S06957147WA0330603354
B1408503238748S06957158WA0330803356
B1408513238746S06957170WA0330903357
B1408523238741S06957180WA0331103359
B1408533238734S06957188WA0331303361
B1408543238724S06957192WA0331503363
B1408553238714S06957194WA0331603364
B1408563238703S06957191WA0331803366
B1408573238693S06957184WA0332003368
B1408583238686S06957174WA0332203370
B1408593238681S06957163WA0332303371
B1409003238679S06957149WA0332503373
B1409013238680S06957136WA0332703375
B1409023238685S06957124WA0332903377
B1409033238692S06957115WA0333003378
B1409043238701S06957108WA0333203380
B1409053238711S06957105WA0333403382
B1409063238721S06957106WA0333603384
B1409073238730S06957111WA0333703385
B1409083238737S06957119WA0333903387
B1409093238742S06957129WA0334103389
B1409103238743S06957140WA0334303391
B1409113238741S06957152WA0334403392
B1409123238736S06957162WA0334603394
B1409133238728S06957170WA0334803396
B1409143238719S06957175WA0335003398
B1409153238708S06957176WA0335103399
B1409163238698S06957173WA0335303401
B1409173238688S06957166WA0335503403
B1409183238680S06957157WA0335703405
B1409193238675S06957145WA0335803406
B1409203238673S06957131WA0336003408
B1409213238675S06957118WA0336203410
B1409223238679S06957106WA0336403412
B1409233238686S06957097WA0336503413
B1409243238695S06957090WA0336703415
B1409253238705S06957087WA0336903417
B1409263238715S06957088WA0337103419
B1409273238725S06957093WA0337203420
B1409283238732S06957101WA0337403422
B1409293238736S06957111WA0337603424
B1409303238737S06957122WA0337803426
B1409313238736S06957134WA0337903427
B1409323238731S06957144WA0338103429
B1409333238723S06957152WA0338303431
B1409343238713S06957157WA0338503433
B1409353238703S06957158WA0338603434
B1409363238692S06957155WA0338803436
B1409373238683S06957148WA0339003438
B1409383238675S06957139WA0339203440
B1409393238670S06957127WA0339303441
B1409403238668S06957114WA0339503443
B1409413238669S06957100WA0339703445
B1409423238674S06957088WA0339903447
B1409433238681S06957079WA0340003448
B1409443238690S06957072WA0340203450
B1409453238700S06957069WA0340403452
B1409463238710S06957070WA0340603454
B1409473238719S06957075WA0340703455
B1409483238726S06957083WA0340903457
B1409493238731S06957093WA0341103459
B1409503238732S06957105WA0341303461
B1409513238730S06957116WA0341403462
B1409523238725S06957126WA0341603464
B1409533238718S06957134WA0341803466
B1409543238708S06957139WA0342003468
B1409553238697S06957140WA0342103469
B1409563238687S06957137WA0342303471
B1409573238677S06957130WA0342503473
B1409583238669S06957121WA0342703475
B1409593238664S06957109WA0342803476
LSKY Generated fixture  do not edit by hand
GDEADBEEF00000000000000000000000000000000
