AXCT Skyline fixture generator
HFDTE150726
HFPLTPILOTINCHARGE:Test Pilot
HFGTYGLIDERTYPE:Ozone Zeno 2
HFGIDGLIDERID:FIXTURE
HFDTM100GPSDATUM:WGS-1984
HFFTYFRTYPE:Skyline,Fixture
B1300004307680N07657300EA0235002398
B1300104307679N07657315EA0235202400
B1300204307674N07657329EA0235402402
B1300304307667N07657340EA0235502403
B1300404307658N07657348EA0235702405
B1300504307648N07657351EA0235902407
B1301004307638N07657350EA0236102409
B1301104307629N07657344EA0236202410
B1301204307622N07657335EA0236402412
B1301304307617N07657323EA0236602414
B1301404307616N07657310EA0236802416
B1301504307618N07657297EA0236902417
B1302004307623N07657285EA0237102419
B1302104307630N07657276EA0237302421
B1302204307640N07657271EA0237502423
B1302304307651N07657270EA0237602424
B1302404307661N07657273EA0237802426
B1302504307671N07657281EA0238002428
B1303004307678N07657292EA0238202430
B1303104307683N07657305EA0238302431
B1303204307685N07657321EA0238502433
B1303304307684N07657336EA0238702435
B1303404307680N07657350EA0238902437
B1303504307672N07657361EA0239002438
B1304004307663N07657368EA0239202440
B1304104307653N07657372EA0239402442
B1304204307643N07657370EA0239602444
B1304304307634N07657365EA0239702445
B1304404307627N07657356EA0239902447
B1304504307623N07657344EA0240102449
B1305004307621N07657331EA0240302451
B1305104307623N07657318EA0240402452
B1305204307628N07657306EA0240602454
B1305304307636N07657297EA0240802456
B1305404307645N07657292EA0241002458
B1305504307656N07657290EA0241102459
B1306004307667N07657294EA0241302461
B1306104307676N07657301EA0241502463
B1306204307684N07657312EA0241702465
B1306304307689N07657326EA0241802466
B1306404307691N07657341EA0242002468
B1306504307689N07657357EA0242202470
B1307004307685N07657370EA0242402472
B1307104307678N07657382EA0242502473
B1307204307669N07657389EA0242702475
B1307304307659N07657392EA0242902477
B1307404307649N07657391EA0243102479
B1307504307640N07657386EA0243202480
B1308004307632N07657377EA0243402482
B1308104307628N07657365EA0243602484
B1308204307627N07657352EA0243802486
B1308304307629N07657339EA0243902487
B1308404307634N07657327EA0244102489
B1308504307641N07657318EA0244302491
B1309004307651N07657312EA0244502493
B1309104307661N07657311EA0244602494
B1309204307672N07657314EA0244802496
B1309304307682N07657322EA0245002498
B1309404307689N07657333EA0245202500
B1309504307694N07657347EA0245302501
B1310004307696N07657362EA0245502503
B1310104307695N07657377EA0245702505
B1310204307690N07657391EA0245902507
B1310304307683N07657402EA0246002508
B1310404307674N07657410EA0246202510
B1310504307664N07657413EA0246402512
B1311004307654N07657412EA0246602514
B1311104307645N07657406EA0246702515
B1311204307638N07657397EA0246902517
B1311304307633N07657385EA0247102519
B1311404307632N07657372EA0247302521
B1311504307634N07657359EA0247402522
B1312004307639N07657348EA0247602524
B1312104307647N07657338EA0247802526
B1312204307656N07657333EA0248002528
B1312304307667N07657332EA0248102529
B1312404307677N07657335EA0248302531
B1312504307687N07657343EA0248502533
B1313004307695N07657354EA0248702535
B1313104307700N07657368EA0248802536
B1313204307702N07657383EA0249002538
B1313304307700N07657398EA0249202540
B1313404307696N07657412EA0249402542
B1313504307689N07657423EA0249502543
B1314004307680N07657430EA0249702545
B1314104307669N07657434EA0249902547
B1314204307659N07657432EA0250102549
B1314304307650N07657427EA0250202550
B1314404307643N07657418EA0250402552
B1314504307639N07657406EA0250602554
B1315004307637N07657393EA0250802556
B1315104307639N07657380EA0250902557
B1315204307644N07657368EA0251102559
B1315304307652N07657359EA0251302561
B1315404307662N07657354EA0251502563
B1315504307672N07657352EA0251602564
B1316004307683N07657356EA0251802566
B1316104307692N07657363EA0252002568
B1316204307700N07657374EA0252202570
B1316304307705N07657388EA0252302571
B1316404307707N07657403EA0252502573
B1316504307706N07657419EA0252702575
B1317004307701N07657432EA0252902577
B1317104307694N07657444EA0253002578
B1317204307685N07657451EA0253202580
B1317304307675N07657454EA0253402582
B1317404307665N07657453EA0253602584
B1317504307656N07657448EA0253702585
B1318004307649N07657439EA0253902587
B1318104307644N07657427EA0254102589
B1318204307643N07657414EA0254302591
B1318304307645N07657401EA0254402592
B1318404307650N07657389EA0254602594
B1318504307657N07657380EA0254802596
B1319004307667N07657374EA0255002598
B1319104307678N07657373EA0255102599
B1319204307688N07657376EA0255302601
B1319304307698N07657384EA0255502603
B1319404307705N07657395EA0255702605
B1319504307710N07657409EA0255802606
B1320004307712N07657424EA0256002608
B1320104307711N07657439EA0256202610
B1320204307706N07657453EA0256402612
B1320304307699N07657464EA0256502613
B1320404307690N07657472EA0256702615
B1320504307680N07657475EA0256902617
B1321004307670N07657474EA0257102619
B1321104307661N07657468EA0257202620
B1321204307654N07657459EA0257402622
B1321304307650N07657448EA0257602624
B1321404307648N07657434EA0257802626
B1321504307650N07657421EA0257902627
B1322004307655N07657410EA0258102629
B1322104307663N07657400EA0258302631
B1322204307672N07657395EA0258502633
B1322304307683N07657394EA0258602634
B1322404307694N07657397EA0258802636
B1322504307703N07657405EA0259002638
B1323004307711N07657416EA0259202640
B1323104307716N07657430EA0259302641
B1323204307718N07657445EA0259502643
B1323304307716N07657460EA0259702645
B1323404307712N07657474EA0259902647
B1323504307705N07657485EA0260002648
B1324004307696N07657492EA0260202650
B1324104307686N07657496EA0260402652
B1324204307676N07657494EA0260602654
B1324304307667N07657489EA0260702655
B1324404307659N07657480EA0260902657
B1324504307655N07657468EA0261102659
B1325004307654N07657455EA0261302661
B1325104307655N07657442EA0261402662
B1325204307661N07657430EA0261602664
B1325304307668N07657421EA0261802666
B1325404307678N07657416EA0262002668
B1325504307688N07657414EA0262102669
B1326004307699N07657418EA0262302671
B1326104307709N07657425EA0262502673
B1326204307716N07657436EA0262702675
B1326304307721N07657450EA0262802676
B1326404307723N07657465EA0263002678
B1326504307722N07657481EA0263202680
B1327004307717N07657494EA0263402682
B1327104307710N07657506EA0263502683
B1327204307701N07657513EA0263702685
B1327304307691N07657516EA0263902687
B1327404307681N07657515EA0264102689
B1327504307672N07657510EA0264202690
B1328004307665N07657501EA0264402692
B1328104307660N07657489EA0264602694
B1328204307659N07657476EA0264802696
B1328304307661N07657463EA0264902697
B1328404307666N07657451EA0265102699
B1328504307674N07657442EA0265302701
B1329004307683N07657436EA0265502703
B1329104307694N07657435EA0265602704
B1329204307704N07657438EA0265802706
B1329304307714N07657446EA0266002708
B1329404307722N07657457EA0266202710
B1329504307727N07657471EA0266302711
B1330004307729N07657486EA0266502713
B1330104307727N07657501EA0266702715
B1330204307723N07657515EA0266902717
B1330304307716N07657526EA0267002718
B1330404307706N07657534EA0267202720
B1330504307696N07657537EA0267402722
B1331004307686N07657536EA0267602724
B1331104307677N07657530EA0267702725
B1331204307670N07657521EA0267902727
B1331304307666N07657510EA0268102729
B1331404307664N07657496EA0268302731
B1331504307666N07657483EA0268402732
B1332004307671N07657472EA0268602734
B1332104307679N07657463EA0268802736
B1332204307689N07657457EA0269002738
B1332304307699N07657456EA0269102739
B1332404307710N07657459EA0269302741
B1332504307719N07657467EA0269502743
B1333004307727N07657478EA0269702745
B1333104307732N07657492EA0269802746
LSKY Generated fixture  do not edit by hand
GDEADBEEF00000000000000000000000000000000
