<?xml version="1.0" encoding="UTF-8"?>
<gpx version="1.1" creator="Skyline fixture generator" xmlns="http://www.topografix.com/GPX/1/1" xmlns:gpxtpx="http://www.garmin.com/xmlschemas/TrackPointExtension/v1">
  <metadata><name>Тестовый полёт</name><author><name>Тест Пилот &amp; Ко</name></author><time>2026-07-15T00:00:00Z</time></metadata>
  <trk><name>Skyline fixture</name>
    <trkseg>
      <trkpt lat="43.1280000" lon="76.9550000"><ele>2350.0</ele><time>2026-07-15T16:00:00.500+05:00</time><extensions><gpxtpx:TrackPointExtension><gpxtpx:hr>120</gpxtpx:hr></gpxtpx:TrackPointExtension></extensions></trkpt>
      <trkpt lat="43.1279772" lon="76.9552531"><ele>2351.8</ele><time>2026-07-15T16:00:01.500+05:00</time><extensions><gpxtpx:TrackPointExtension><gpxtpx:hr>120</gpxtpx:hr></gpxtpx:TrackPointExtension></extensions></trkpt>
      <trkpt lat="43.1279026" lon="76.9554830"><ele>2353.5</ele><time>2026-07-15T16:00:02.500+05:00</time><extensions><gpxtpx:TrackPointExtension><gpxtpx:hr>120</gpxtpx:hr></gpxtpx:TrackPointExtension></extensions></trkpt>
      <trkpt lat="43.1277839" lon="76.9556691"><ele>2355.3</ele><time>2026-07-15T16:00:03.500+05:00</time><extensions><gpxtpx:TrackPointExtension><gpxtpx:hr>120</gpxtpx:hr></gpxtpx:TrackPointExtension></extensions></trkpt>
      <trkpt lat="43.1276331" lon="76.9557947"><ele>2357.0</ele><time>2026-07-15T16:00:04.500+05:00</time><extensions><gpxtpx:TrackPointExtension><gpxtpx:hr>120</gpxtpx:hr></gpxtpx:TrackPointExtension></extensions></trkpt>
      <trkpt lat="43.1274655" lon="76.9558493"><ele>2358.8</ele><time>2026-07-15T16:00:05.500+05:00</time><extensions><gpxtpx:TrackPointExtension><gpxtpx:hr>120</gpxtpx:hr></gpxtpx:TrackPointExtension></extensions></trkpt>
      <trkpt lat="43.1272979" lon="76.9558292"><ele>2360.5</ele><time>2026-07-15T16:00:06.500+05:00</time><extensions><gpxtpx:TrackPointExtension><gpxtpx:hr>120</gpxtpx:hr></gpxtpx:TrackPointExtension></extensions></trkpt>
      <trkpt lat="43.1271471" lon="76.9557380"><ele>2362.3</ele><time>2026-07-15T16:00:07.500+05:00</time><extensions><gpxtpx:TrackPointExtension><gpxtpx:hr>120</gpxtpx:hr></gpxtpx:TrackPointExtension></extensions></trkpt>
      <trkpt lat="43.1270284" lon="76.9555864"><ele>2364.0</ele><time>2026-07-15T16:00:08.500+05:00</time><extensions><gpxtpx:TrackPointExtension><gpxtpx:hr>120</gpxtpx:hr></gpxtpx:TrackPointExtension></extensions></trkpt>
      <trkpt lat="43.1269538" lon="76.9553909"><ele>2365.8</ele><time>2026-07-15T16:00:09.500+05:00</time><extensions><gpxtpx:TrackPointExtension><gpxtpx:hr>120</gpxtpx:hr></gpxtpx:TrackPointExtension></extensions></trkpt>
      <trkpt lat="43.1269310" lon="76.9551723"><ele>2367.5</ele><time>2026-07-15T16:00:10.500+05:00</time><extensions><gpxtpx:TrackPointExtension><gpxtpx:hr>120</gpxtpx:hr></gpxtpx:TrackPointExtension></extensions></trkpt>
      <trkpt lat="43.1269628" lon="76.9549537"><ele>2369.3</ele><time>2026-07-15T16:00:11.500+05:00</time><extensions><gpxtpx:TrackPointExtension><gpxtpx:hr>120</gpxtpx:hr></gpxtpx:TrackPointExtension></extensions></trkpt>
      <trkpt lat="43.1270464" lon="76.9547582"><ele>2371.0</ele><time>2026-07-15T16:00:12.500+05:00</time><extensions><gpxtpx:TrackPointExtension><gpxtpx:hr>120</gpxtpx:hr></gpxtpx:TrackPointExtension></extensions></trkpt>
      <trkpt lat="43.1271741" lon="76.9546066"><ele>2372.8</ele><time>2026-07-15T16:00:13.500+05:00</time><extensions><gpxtpx:TrackPointExtension><gpxtpx:hr>120</gpxtpx:hr></gpxtpx:TrackPointExtension></extensions></trkpt>
      <trkpt lat="43.1273338" lon="76.9545155"><ele>2374.5</ele><time>2026-07-15T16:00:14.500+05:00</time><extensions><gpxtpx:TrackPointExtension><gpxtpx:hr>120</gpxtpx:hr></gpxtpx:TrackPointExtension></extensions></trkpt>
      <trkpt lat="43.1275104" lon="76.9544954"><ele>2376.3</ele><time>2026-07-15T16:00:15.500+05:00</time><extensions><gpxtpx:TrackPointExtension><gpxtpx:hr>120</gpxtpx:hr></gpxtpx:TrackPointExtension></extensions></trkpt>
      <trkpt lat="43.1276870" lon="76.9545499"><ele>2378.0</ele><time>2026-07-15T16:00:16.500+05:00</time><extensions><gpxtpx:TrackPointExtension><gpxtpx:hr>120</gpxtpx:hr></gpxtpx:TrackPointExtension></extensions></trkpt>
      <trkpt lat="43.1278468" lon="76.9546756"><ele>2379.8</ele><time>2026-07-15T16:00:17.500+05:00</time><extensions><gpxtpx:TrackPointExtension><gpxtpx:hr>120</gpxtpx:hr></gpxtpx:TrackPointExtension></extensions></trkpt>
      <trkpt lat="43.1279745" lon="76.9548616"><ele>2381.5</ele><time>2026-07-15T16:00:18.500+05:00</time><extensions><gpxtpx:TrackPointExtension><gpxtpx:hr>120</gpxtpx:hr></gpxtpx:TrackPointExtension></extensions></trkpt>
      <trkpt lat="43.1280581" lon="76.9550916"><ele>2383.3</ele><time>2026-07-15T16:00:19.500+05:00</time><extensions><gpxtpx:TrackPointExtension><gpxtpx:hr>120</gpxtpx:hr></gpxtpx:TrackPointExtension></extensions></trkpt>
      <trkpt lat="43.1280898" lon="76.9553446"><ele>2385.0</ele><time>2026-07-15T16:00:20.500+05:00</time><extensions><gpxtpx:TrackPointExtension><gpxtpx:hr>120</gpxtpx:hr></gpxtpx:TrackPointExtension></extensions></trkpt>
      <trkpt lat="43.1280671" lon="76.9555977"><ele>2386.8</ele><time>2026-07-15T16:00:21.500+05:00</time><extensions><gpxtpx:TrackPointExtension><gpxtpx:hr>120</gpxtpx:hr></gpxtpx:TrackPointExtension></extensions></trkpt>
      <trkpt lat="43.1279924" lon="76.9558277"><ele>2388.5</ele><time>2026-07-15T16:00:22.500+05:00</time><extensions><gpxtpx:TrackPointExtension><gpxtpx:hr>120</gpxtpx:hr></gpxtpx:TrackPointExtension></extensions></trkpt>
      <trkpt lat="43.1278737" lon="76.9560137"><ele>2390.3</ele><time>2026-07-15T16:00:23.500+05:00</time><extensions><gpxtpx:TrackPointExtension><gpxtpx:hr>120</gpxtpx:hr></gpxtpx:TrackPointExtension></extensions></trkpt>
      <trkpt lat="43.1277230" lon="76.9561393"><ele>2392.0</ele><time>2026-07-15T16:00:24.500+05:00</time><extensions><gpxtpx:TrackPointExtension><gpxtpx:hr>120</gpxtpx:hr></gpxtpx:TrackPointExtension></extensions></trkpt>
      <trkpt lat="43.1275553" lon="76.9561939"><ele>2393.8</ele><time>2026-07-15T16:00:25.500+05:00</time><extensions><gpxtpx:TrackPointExtension><gpxtpx:hr>120</gpxtpx:hr></gpxtpx:TrackPointExtension></extensions></trkpt>
      <trkpt lat="43.1273877" lon="76.9561738"><ele>2395.5</ele><time>2026-07-15T16:00:26.500+05:00</time><extensions><gpxtpx:TrackPointExtension><gpxtpx:hr>120</gpxtpx:hr></gpxtpx:TrackPointExtension></extensions></trkpt>
      <trkpt lat="43.1272370" lon="76.9560826"><ele>2397.3</ele><time>2026-07-15T16:00:27.500+05:00</time><extensions><gpxtpx:TrackPointExtension><gpxtpx:hr>120</gpxtpx:hr></gpxtpx:TrackPointExtension></extensions></trkpt>
      <trkpt lat="43.1271182" lon="76.9559311"><ele>2399.0</ele><time>2026-07-15T16:00:28.500+05:00</time><extensions><gpxtpx:TrackPointExtension><gpxtpx:hr>120</gpxtpx:hr></gpxtpx:TrackPointExtension></extensions></trkpt>
      <trkpt lat="43.1270436" lon="76.9557355"><ele>2400.8</ele><time>2026-07-15T16:00:29.500+05:00</time><extensions><gpxtpx:TrackPointExtension><gpxtpx:hr>120</gpxtpx:hr></gpxtpx:TrackPointExtension></extensions></trkpt>
      <trkpt lat="43.1270208" lon="76.9555170"><ele>2402.5</ele><time>2026-07-15T16:00:30.500+05:00</time><extensions><gpxtpx:TrackPointExtension><gpxtpx:hr>120</gpxtpx:hr></gpxtpx:TrackPointExtension></extensions></trkpt>
      <trkpt lat="43.1270526" lon="76.9552984"><ele>2404.3</ele><time>2026-07-15T16:00:31.500+05:00</time><extensions><gpxtpx:TrackPointExtension><gpxtpx:hr>120</gpxtpx:hr></gpxtpx:TrackPointExtension></extensions></trkpt>
      <trkpt lat="43.1271362" lon="76.9551029"><ele>2406.0</ele><time>2026-07-15T16:00:32.500+05:00</time><extensions><gpxtpx:TrackPointExtension><gpxtpx:hr>120</gpxtpx:hr></gpxtpx:TrackPointExtension></extensions></trkpt>
      <trkpt lat="43.1272639" lon="76.9549513"><ele>2407.8</ele><time>2026-07-15T16:00:33.500+05:00</time><extensions><gpxtpx:TrackPointExtension><gpxtpx:hr>120</gpxtpx:hr></gpxtpx:TrackPointExtension></extensions></trkpt>
      <trkpt lat="43.1274237" lon="76.9548601"><ele>2409.5</ele><time>2026-07-15T16:00:34.500+05:00</time><extensions><gpxtpx:TrackPointExtension><gpxtpx:hr>120</gpxtpx:hr></gpxtpx:TrackPointExtension></extensions></trkpt>
      <trkpt lat="43.1276003" lon="76.9548400"><ele>2411.3</ele><time>2026-07-15T16:00:35.500+05:00</time><extensions><gpxtpx:TrackPointExtension><gpxtpx:hr>120</gpxtpx:hr></gpxtpx:TrackPointExtension></extensions></trkpt>
      <trkpt lat="43.1277769" lon="76.9548946"><ele>2413.0</ele><time>2026-07-15T16:00:36.500+05:00</time><extensions><gpxtpx:TrackPointExtension><gpxtpx:hr>120</gpxtpx:hr></gpxtpx:TrackPointExtension></extensions></trkpt>
      <trkpt lat="43.1279366" lon="76.9550202"><ele>2414.8</ele><time>2026-07-15T16:00:37.500+05:00</time><extensions><gpxtpx:TrackPointExtension><gpxtpx:hr>120</gpxtpx:hr></gpxtpx:TrackPointExtension></extensions></trkpt>
      <trkpt lat="43.1280643" lon="76.9552063"><ele>2416.5</ele><time>2026-07-15T16:00:38.500+05:00</time><extensions><gpxtpx:TrackPointExtension><gpxtpx:hr>120</gpxtpx:hr></gpxtpx:TrackPointExtension></extensions></trkpt>
      <trkpt lat="43.1281479" lon="76.9554362"><ele>2418.3</ele><time>2026-07-15T16:00:39.500+05:00</time><extensions><gpxtpx:TrackPointExtension><gpxtpx:hr>120</gpxtpx:hr></gpxtpx:TrackPointExtension></extensions></trkpt>
      <trkpt lat="43.1281797" lon="76.9556893"><ele>2420.0</ele><time>2026-07-15T16:00:40.500+05:00</time><extensions><gpxtpx:TrackPointExtension><gpxtpx:hr>120</gpxtpx:hr></gpxtpx:TrackPointExtension></extensions></trkpt>
      <trkpt lat="43.1281569" lon="76.9559423"><ele>2421.8</ele><time>2026-07-15T16:00:41.500+05:00</time><extensions><gpxtpx:TrackPointExtension><gpxtpx:hr>120</gpxtpx:hr></gpxtpx:TrackPointExtension></extensions></trkpt>
      <trkpt lat="43.1280823" lon="76.9561723"><ele>2423.5</ele><time>2026-07-15T16:00:42.500+05:00</time><extensions><gpxtpx:TrackPointExtension><gpxtpx:hr>120</gpxtpx:hr></gpxtpx:TrackPointExtension></extensions></trkpt>
      <trkpt lat="43.1279636" lon="76.9563584"><ele>2425.3</ele><time>2026-07-15T16:00:43.500+05:00</time><extensions><gpxtpx:TrackPointExtension><gpxtpx:hr>120</gpxtpx:hr></gpxtpx:TrackPointExtension></extensions></trkpt>
      <trkpt lat="43.1278128" lon="76.9564840"><ele>2427.0</ele><time>2026-07-15T16:00:44.500+05:00</time><extensions><gpxtpx:TrackPointExtension><gpxtpx:hr>120</gpxtpx:hr></gpxtpx:TrackPointExtension></extensions></trkpt>
      <trkpt lat="43.1276452" lon="76.9565386"><ele>2428.8</ele><time>2026-07-15T16:00:45.500+05:00</time><extensions><gpxtpx:TrackPointExtension><gpxtpx:hr>120</gpxtpx:hr></gpxtpx:TrackPointExtension></extensions></trkpt>
      <trkpt lat="43.1274776" lon="76.9565184"><ele>2430.5</ele><time>2026-07-15T16:00:46.500+05:00</time><extensions><gpxtpx:TrackPointExtension><gpxtpx:hr>120</gpxtpx:hr></gpxtpx:TrackPointExtension></extensions></trkpt>
      <trkpt lat="43.1273268" lon="76.9564273"><ele>2432.3</ele><time>2026-07-15T16:00:47.500+05:00</time><extensions><gpxtpx:TrackPointExtension><gpxtpx:hr>120</gpxtpx:hr></gpxtpx:TrackPointExtension></extensions></trkpt>
      <trkpt lat="43.1272081" lon="76.9562757"><ele>2434.0</ele><time>2026-07-15T16:00:48.500+05:00</time><extensions><gpxtpx:TrackPointExtension><gpxtpx:hr>120</gpxtpx:hr></gpxtpx:TrackPointExtension></extensions></trkpt>
      <trkpt lat="43.1271334" lon="76.9560802"><ele>2435.8</ele><time>2026-07-15T16:00:49.500+05:00</time><extensions><gpxtpx:TrackPointExtension><gpxtpx:hr>120</gpxtpx:hr></gpxtpx:TrackPointExtension></extensions></trkpt>
      <trkpt lat="43.1271107" lon="76.9558616"><ele>2437.5</ele><time>2026-07-15T16:00:50.500+05:00</time><extensions><gpxtpx:TrackPointExtension><gpxtpx:hr>120</gpxtpx:hr></gpxtpx:TrackPointExtension></extensions></trkpt>
      <trkpt lat="43.1271424" lon="76.9556430"><ele>2439.3</ele><time>2026-07-15T16:00:51.500+05:00</time><extensions><gpxtpx:TrackPointExtension><gpxtpx:hr>120</gpxtpx:hr></gpxtpx:TrackPointExtension></extensions></trkpt>
      <trkpt lat="43.1272260" lon="76.9554475"><ele>2441.0</ele><time>2026-07-15T16:00:52.500+05:00</time><extensions><gpxtpx:TrackPointExtension><gpxtpx:hr>120</gpxtpx:hr></gpxtpx:TrackPointExtension></extensions></trkpt>
      <trkpt lat="43.1273537" lon="76.9552959"><ele>2442.8</ele><time>2026-07-15T16:00:53.500+05:00</time><extensions><gpxtpx:TrackPointExtension><gpxtpx:hr>120</gpxtpx:hr></gpxtpx:TrackPointExtension></extensions></trkpt>
      <trkpt lat="43.1275135" lon="76.9552047"><ele>2444.5</ele><time>2026-07-15T16:00:54.500+05:00</time><extensions><gpxtpx:TrackPointExtension><gpxtpx:hr>120</gpxtpx:hr></gpxtpx:TrackPointExtension></extensions></trkpt>
      <trkpt lat="43.1276901" lon="76.9551846"><ele>2446.3</ele><time>2026-07-15T16:00:55.500+05:00</time><extensions><gpxtpx:TrackPointExtension><gpxtpx:hr>120</gpxtpx:hr></gpxtpx:TrackPointExtension></extensions></trkpt>
      <trkpt lat="43.1278667" lon="76.9552392"><ele>2448.0</ele><time>2026-07-15T16:00:56.500+05:00</time><extensions><gpxtpx:TrackPointExtension><gpxtpx:hr>120</gpxtpx:hr></gpxtpx:TrackPointExtension></extensions></trkpt>
      <trkpt lat="43.1280264" lon="76.9553648"><ele>2449.8</ele><time>2026-07-15T16:00:57.500+05:00</time><extensions><gpxtpx:TrackPointExtension><gpxtpx:hr>120</gpxtpx:hr></gpxtpx:TrackPointExtension></extensions></trkpt>
      <trkpt lat="43.1281541" lon="76.9555509"><ele>2451.5</ele><time>2026-07-15T16:00:58.500+05:00</time><extensions><gpxtpx:TrackPointExtension><gpxtpx:hr>120</gpxtpx:hr></gpxtpx:TrackPointExtension></extensions></trkpt>
      <trkpt lat="43.1282377" lon="76.9557809"><ele>2453.3</ele><time>2026-07-15T16:00:59.500+05:00</time><extensions><gpxtpx:TrackPointExtension><gpxtpx:hr>120</gpxtpx:hr></gpxtpx:TrackPointExtension></extensions></trkpt>
      <trkpt lat="43.1282695" lon="76.9560339"><ele>2455.0</ele><time>2026-07-15T16:01:00.500+05:00</time><extensions><gpxtpx:TrackPointExtension><gpxtpx:hr>120</gpxtpx:hr></gpxtpx:TrackPointExtension></extensions></trkpt>
      <trkpt lat="43.1282467" lon="76.9562870"><ele>2456.8</ele><time>2026-07-15T16:01:01.500+05:00</time><extensions><gpxtpx:TrackPointExtension><gpxtpx:hr>120</gpxtpx:hr></gpxtpx:TrackPointExtension></extensions></trkpt>
      <trkpt lat="43.1281721" lon="76.9565169"><ele>2458.5</ele><time>2026-07-15T16:01:02.500+05:00</time><extensions><gpxtpx:TrackPointExtension><gpxtpx:hr>120</gpxtpx:hr></gpxtpx:TrackPointExtension></extensions></trkpt>
      <trkpt lat="43.1280534" lon="76.9567030"><ele>2460.3</ele><time>2026-07-15T16:01:03.500+05:00</time><extensions><gpxtpx:TrackPointExtension><gpxtpx:hr>120</gpxtpx:hr></gpxtpx:TrackPointExtension></extensions></trkpt>
      <trkpt lat="43.1279026" lon="76.9568286"><ele>2462.0</ele><time>2026-07-15T16:01:04.500+05:00</time><extensions><gpxtpx:TrackPointExtension><gpxtpx:hr>120</gpxtpx:hr></gpxtpx:TrackPointExtension></extensions></trkpt>
      <trkpt lat="43.1277350" lon="76.9568832"><ele>2463.8</ele><time>2026-07-15T16:01:05.500+05:00</time><extensions><gpxtpx:TrackPointExtension><gpxtpx:hr>120</gpxtpx:hr></gpxtpx:TrackPointExtension></extensions></trkpt>
      <trkpt lat="43.1275674" lon="76.9568631"><ele>2465.5</ele><time>2026-07-15T16:01:06.500+05:00</time><extensions><gpxtpx:TrackPointExtension><gpxtpx:hr>120</gpxtpx:hr></gpxtpx:TrackPointExtension></extensions></trkpt>
      <trkpt lat="43.1274166" lon="76.9567719"><ele>2467.3</ele><time>2026-07-15T16:01:07.500+05:00</time><extensions><gpxtpx:TrackPointExtension><gpxtpx:hr>120</gpxtpx:hr></gpxtpx:TrackPointExtension></extensions></trkpt>
      <trkpt lat="43.1272979" lon="76.9566203"><ele>2469.0</ele><time>2026-07-15T16:01:08.500+05:00</time><extensions><gpxtpx:TrackPointExtension><gpxtpx:hr>120</gpxtpx:hr></gpxtpx:TrackPointExtension></extensions></trkpt>
      <trkpt lat="43.1272233" lon="76.9564248"><ele>2470.8</ele><time>2026-07-15T16:01:09.500+05:00</time><extensions><gpxtpx:TrackPointExtension><gpxtpx:hr>120</gpxtpx:hr></gpxtpx:TrackPointExtension></extensions></trkpt>
      <trkpt lat="43.1272005" lon="76.9562062"><ele>2472.5</ele><time>2026-07-15T16:01:10.500+05:00</time><extensions><gpxtpx:TrackPointExtension><gpxtpx:hr>120</gpxtpx:hr></gpxtpx:TrackPointExtension></extensions></trkpt>
      <trkpt lat="43.1272323" lon="76.9559876"><ele>2474.3</ele><time>2026-07-15T16:01:11.500+05:00</time><extensions><gpxtpx:TrackPointExtension><gpxtpx:hr>120</gpxtpx:hr></gpxtpx:TrackPointExtension></extensions></trkpt>
      <trkpt lat="43.1273159" lon="76.9557921"><ele>2476.0</ele><time>2026-07-15T16:01:12.500+05:00</time><extensions><gpxtpx:TrackPointExtension><gpxtpx:hr>120</gpxtpx:hr></gpxtpx:TrackPointExtension></extensions></trkpt>
      <trkpt lat="43.1274436" lon="76.9556405"><ele>2477.8</ele><time>2026-07-15T16:01:13.500+05:00</time><extensions><gpxtpx:TrackPointExtension><gpxtpx:hr>120</gpxtpx:hr></gpxtpx:TrackPointExtension></extensions></trkpt>
      <trkpt lat="43.1276033" lon="76.9555494"><ele>2479.5</ele><time>2026-07-15T16:01:14.500+05:00</time><extensions><gpxtpx:TrackPointExtension><gpxtpx:hr>120</gpxtpx:hr></gpxtpx:TrackPointExtension></extensions></trkpt>
      <trkpt lat="43.1277799" lon="76.9555293"><ele>2481.3</ele><time>2026-07-15T16:01:15.500+05:00</time><extensions><gpxtpx:TrackPointExtension><gpxtpx:hr>120</gpxtpx:hr></gpxtpx:TrackPointExtension></extensions></trkpt>
      <trkpt lat="43.1279565" lon="76.9555838"><ele>2483.0</ele><time>2026-07-15T16:01:16.500+05:00</time><extensions><gpxtpx:TrackPointExtension><gpxtpx:hr>120</gpxtpx:hr></gpxtpx:TrackPointExtension></extensions></trkpt>
      <trkpt lat="43.1281163" lon="76.9557095"><ele>2484.8</ele><time>2026-07-15T16:01:17.500+05:00</time><extensions><gpxtpx:TrackPointExtension><gpxtpx:hr>120</gpxtpx:hr></gpxtpx:TrackPointExtension></extensions></trkpt>
      <trkpt lat="43.1282440" lon="76.9558955"><ele>2486.5</ele><time>2026-07-15T16:01:18.500+05:00</time><extensions><gpxtpx:TrackPointExtension><gpxtpx:hr>120</gpxtpx:hr></gpxtpx:TrackPointExtension></extensions></trkpt>
      <trkpt lat="43.1283276" lon="76.9561255"><ele>2488.3</ele><time>2026-07-15T16:01:19.500+05:00</time><extensions><gpxtpx:TrackPointExtension><gpxtpx:hr>120</gpxtpx:hr></gpxtpx:TrackPointExtension></extensions></trkpt>
      <trkpt lat="43.1283593" lon="76.9563786"><ele>2490.0</ele><time>2026-07-15T16:01:20.500+05:00</time><extensions><gpxtpx:TrackPointExtension><gpxtpx:hr>120</gpxtpx:hr></gpxtpx:TrackPointExtension></extensions></trkpt>
      <trkpt lat="43.1283366" lon="76.9566316"><ele>2491.8</ele><time>2026-07-15T16:01:21.500+05:00</time><extensions><gpxtpx:TrackPointExtension><gpxtpx:hr>120</gpxtpx:hr></gpxtpx:TrackPointExtension></extensions></trkpt>
      <trkpt lat="43.1282619" lon="76.9568616"><ele>2493.5</ele><time>2026-07-15T16:01:22.500+05:00</time><extensions><gpxtpx:TrackPointExtension><gpxtpx:hr>120</gpxtpx:hr></gpxtpx:TrackPointExtension></extensions></trkpt>
      <trkpt lat="43.1281432" lon="76.9570476"><ele>2495.3</ele><time>2026-07-15T16:01:23.500+05:00</time><extensions><gpxtpx:TrackPointExtension><gpxtpx:hr>120</gpxtpx:hr></gpxtpx:TrackPointExtension></extensions></trkpt>
      <trkpt lat="43.1279924" lon="76.9571733"><ele>2497.0</ele><time>2026-07-15T16:01:24.500+05:00</time><extensions><gpxtpx:TrackPointExtension><gpxtpx:hr>120</gpxtpx:hr></gpxtpx:TrackPointExtension></extensions></trkpt>
      <trkpt lat="43.1278248" lon="76.9572278"><ele>2498.8</ele><time>2026-07-15T16:01:25.500+05:00</time><extensions><gpxtpx:TrackPointExtension><gpxtpx:hr>120</gpxtpx:hr></gpxtpx:TrackPointExtension></extensions></trkpt>
      <trkpt lat="43.1276572" lon="76.9572077"><ele>2500.5</ele><time>2026-07-15T16:01:26.500+05:00</time><extensions><gpxtpx:TrackPointExtension><gpxtpx:hr>120</gpxtpx:hr></gpxtpx:TrackPointExtension></extensions></trkpt>
      <trkpt lat="43.1275064" lon="76.9571166"><ele>2502.3</ele><time>2026-07-15T16:01:27.500+05:00</time><extensions><gpxtpx:TrackPointExtension><gpxtpx:hr>120</gpxtpx:hr></gpxtpx:TrackPointExtension></extensions></trkpt>
      <trkpt lat="43.1273877" lon="76.9569650"><ele>2504.0</ele><time>2026-07-15T16:01:28.500+05:00</time><extensions><gpxtpx:TrackPointExtension><gpxtpx:hr>120</gpxtpx:hr></gpxtpx:TrackPointExtension></extensions></trkpt>
      <trkpt lat="43.1273131" lon="76.9567695"><ele>2505.8</ele><time>2026-07-15T16:01:29.500+05:00</time><extensions><gpxtpx:TrackPointExtension><gpxtpx:hr>120</gpxtpx:hr></gpxtpx:TrackPointExtension></extensions></trkpt>
      <trkpt lat="43.1272903" lon="76.9565509"><ele>2507.5</ele><time>2026-07-15T16:01:30.500+05:00</time><extensions><gpxtpx:TrackPointExtension><gpxtpx:hr>120</gpxtpx:hr></gpxtpx:TrackPointExtension></extensions></trkpt>
      <trkpt lat="43.1273221" lon="76.9563323"><ele>2509.3</ele><time>2026-07-15T16:01:31.500+05:00</time><extensions><gpxtpx:TrackPointExtension><gpxtpx:hr>120</gpxtpx:hr></gpxtpx:TrackPointExtension></extensions></trkpt>
      <trkpt lat="43.1274057" lon="76.9561368"><ele>2511.0</ele><time>2026-07-15T16:01:32.500+05:00</time><extensions><gpxtpx:TrackPointExtension><gpxtpx:hr>120</gpxtpx:hr></gpxtpx:TrackPointExtension></extensions></trkpt>
      <trkpt lat="43.1275334" lon="76.9559852"><ele>2512.8</ele><time>2026-07-15T16:01:33.500+05:00</time><extensions><gpxtpx:TrackPointExtension><gpxtpx:hr>120</gpxtpx:hr></gpxtpx:TrackPointExtension></extensions></trkpt>
      <trkpt lat="43.1276931" lon="76.9558940"><ele>2514.5</ele><time>2026-07-15T16:01:34.500+05:00</time><extensions><gpxtpx:TrackPointExtension><gpxtpx:hr>120</gpxtpx:hr></gpxtpx:TrackPointExtension></extensions></trkpt>
      <trkpt lat="43.1278697" lon="76.9558739"><ele>2516.3</ele><time>2026-07-15T16:01:35.500+05:00</time><extensions><gpxtpx:TrackPointExtension><gpxtpx:hr>120</gpxtpx:hr></gpxtpx:TrackPointExtension></extensions></trkpt>
      <trkpt lat="43.1280463" lon="76.9559285"><ele>2518.0</ele><time>2026-07-15T16:01:36.500+05:00</time><extensions><gpxtpx:TrackPointExtension><gpxtpx:hr>120</gpxtpx:hr></gpxtpx:TrackPointExtension></extensions></trkpt>
      <trkpt lat="43.1282061" lon="76.9560541"><ele>2519.8</ele><time>2026-07-15T16:01:37.500+05:00</time><extensions><gpxtpx:TrackPointExtension><gpxtpx:hr>120</gpxtpx:hr></gpxtpx:TrackPointExtension></extensions></trkpt>
      <trkpt lat="43.1283338" lon="76.9562402"><ele>2521.5</ele><time>2026-07-15T16:01:38.500+05:00</time><extensions><gpxtpx:TrackPointExtension><gpxtpx:hr>120</gpxtpx:hr></gpxtpx:TrackPointExtension></extensions></trkpt>
      <trkpt lat="43.1284174" lon="76.9564701"><ele>2523.3</ele><time>2026-07-15T16:01:39.500+05:00</time><extensions><gpxtpx:TrackPointExtension><gpxtpx:hr>120</gpxtpx:hr></gpxtpx:TrackPointExtension></extensions></trkpt>
      <trkpt lat="43.1284492" lon="76.9567232"><ele>2525.0</ele><time>2026-07-15T16:01:40.500+05:00</time><extensions><gpxtpx:TrackPointExtension><gpxtpx:hr>120</gpxtpx:hr></gpxtpx:TrackPointExtension></extensions></trkpt>
      <trkpt lat="43.1284264" lon="76.9569762"><ele>2526.8</ele><time>2026-07-15T16:01:41.500+05:00</time><extensions><gpxtpx:TrackPointExtension><gpxtpx:hr>120</gpxtpx:hr></gpxtpx:TrackPointExtension></extensions></trkpt>
      <trkpt lat="43.1283518" lon="76.9572062"><ele>2528.5</ele><time>2026-07-15T16:01:42.500+05:00</time><extensions><gpxtpx:TrackPointExtension><gpxtpx:hr>120</gpxtpx:hr></gpxtpx:TrackPointExtension></extensions></trkpt>
      <trkpt lat="43.1282330" lon="76.9573923"><ele>2530.3</ele><time>2026-07-15T16:01:43.500+05:00</time><extensions><gpxtpx:TrackPointExtension><gpxtpx:hr>120</gpxtpx:hr></gpxtpx:TrackPointExtension></extensions></trkpt>
      <trkpt lat="43.1280823" lon="76.9575179"><ele>2532.0</ele><time>2026-07-15T16:01:44.500+05:00</time><extensions><gpxtpx:TrackPointExtension><gpxtpx:hr>120</gpxtpx:hr></gpxtpx:TrackPointExtension></extensions></trkpt>
      <trkpt lat="43.1279147" lon="76.9575725"><ele>2533.8</ele><time>2026-07-15T16:01:45.500+05:00</time><extensions><gpxtpx:TrackPointExtension><gpxtpx:hr>120</gpxtpx:hr></gpxtpx:TrackPointExtension></extensions></trkpt>
      <trkpt lat="43.1277470" lon="76.9575524"><ele>2535.5</ele><time>2026-07-15T16:01:46.500+05:00</time><extensions><gpxtpx:TrackPointExtension><gpxtpx:hr>120</gpxtpx:hr></gpxtpx:TrackPointExtension></extensions></trkpt>
      <trkpt lat="43.1275963" lon="76.9574612"><ele>2537.3</ele><time>2026-07-15T16:01:47.500+05:00</time><extensions><gpxtpx:TrackPointExtension><gpxtpx:hr>120</gpxtpx:hr></gpxtpx:TrackPointExtension></extensions></trkpt>
      <trkpt lat="43.1274776" lon="76.9573096"><ele>2539.0</ele><time>2026-07-15T16:01:48.500+05:00</time><extensions><gpxtpx:TrackPointExtension><gpxtpx:hr>120</gpxtpx:hr></gpxtpx:TrackPointExtension></extensions></trkpt>
      <trkpt lat="43.1274029" lon="76.9571141"><ele>2540.8</ele><time>2026-07-15T16:01:49.500+05:00</time><extensions><gpxtpx:TrackPointExtension><gpxtpx:hr>120</gpxtpx:hr></gpxtpx:TrackPointExtension></extensions></trkpt>
      <trkpt lat="43.1273802" lon="76.9568955"><ele>2542.5</ele><time>2026-07-15T16:01:50.500+05:00</time><extensions><gpxtpx:TrackPointExtension><gpxtpx:hr>120</gpxtpx:hr></gpxtpx:TrackPointExtension></extensions></trkpt>
      <trkpt lat="43.1274119" lon="76.9566769"><ele>2544.3</ele><time>2026-07-15T16:01:51.500+05:00</time><extensions><gpxtpx:TrackPointExtension><gpxtpx:hr>120</gpxtpx:hr></gpxtpx:TrackPointExtension></extensions></trkpt>
      <trkpt lat="43.1274955" lon="76.9564814"><ele>2546.0</ele><time>2026-07-15T16:01:52.500+05:00</time><extensions><gpxtpx:TrackPointExtension><gpxtpx:hr>120</gpxtpx:hr></gpxtpx:TrackPointExtension></extensions></trkpt>
      <trkpt lat="43.1276232" lon="76.9563298"><ele>2547.8</ele><time>2026-07-15T16:01:53.500+05:00</time><extensions><gpxtpx:TrackPointExtension><gpxtpx:hr>120</gpxtpx:hr></gpxtpx:TrackPointExtension></extensions></trkpt>
      <trkpt lat="43.1277830" lon="76.9562387"><ele>2549.5</ele><time>2026-07-15T16:01:54.500+05:00</time><extensions><gpxtpx:TrackPointExtension><gpxtpx:hr>120</gpxtpx:hr></gpxtpx:TrackPointExtension></extensions></trkpt>
      <trkpt lat="43.1279596" lon="76.9562185"><ele>2551.3</ele><time>2026-07-15T16:01:55.500+05:00</time><extensions><gpxtpx:TrackPointExtension><gpxtpx:hr>120</gpxtpx:hr></gpxtpx:TrackPointExtension></extensions></trkpt>
      <trkpt lat="43.1281362" lon="76.9562731"><ele>2553.0</ele><time>2026-07-15T16:01:56.500+05:00</time><extensions><gpxtpx:TrackPointExtension><gpxtpx:hr>120</gpxtpx:hr></gpxtpx:TrackPointExtension></extensions></trkpt>
      <trkpt lat="43.1282959" lon="76.9563988"><ele>2554.8</ele><time>2026-07-15T16:01:57.500+05:00</time><extensions><gpxtpx:TrackPointExtension><gpxtpx:hr>120</gpxtpx:hr></gpxtpx:TrackPointExtension></extensions></trkpt>
      <trkpt lat="43.1284236" lon="76.9565848"><ele>2556.5</ele><time>2026-07-15T16:01:58.500+05:00</time><extensions><gpxtpx:TrackPointExtension><gpxtpx:hr>120</gpxtpx:hr></gpxtpx:TrackPointExtension></extensions></trkpt>
      <trkpt lat="43.1285072" lon="76.9568148"><ele>2558.3</ele><time>2026-07-15T16:01:59.500+05:00</time><extensions><gpxtpx:TrackPointExtension><gpxtpx:hr>120</gpxtpx:hr></gpxtpx:TrackPointExtension></extensions></trkpt>
      <trkpt lat="43.1285390" lon="76.9570678"><ele>2560.0</ele><time>2026-07-15T16:02:00.500+05:00</time><extensions><gpxtpx:TrackPointExtension><gpxtpx:hr>120</gpxtpx:hr></gpxtpx:TrackPointExtension></extensions></trkpt>
      <trkpt lat="43.1285162" lon="76.9573209"><ele>2561.8</ele><time>2026-07-15T16:02:01.500+05:00</time><extensions><gpxtpx:TrackPointExtension><gpxtpx:hr>120</gpxtpx:hr></gpxtpx:TrackPointExtension></extensions></trkpt>
      <trkpt lat="43.1284416" lon="76.9575509"><ele>2563.5</ele><time>2026-07-15T16:02:02.500+05:00</time><extensions><gpxtpx:TrackPointExtension><gpxtpx:hr>120</gpxtpx:hr></gpxtpx:TrackPointExtension></extensions></trkpt>
      <trkpt lat="43.1283229" lon="76.9577369"><ele>2565.3</ele><time>2026-07-15T16:02:03.500+05:00</time><extensions><gpxtpx:TrackPointExtension><gpxtpx:hr>120</gpxtpx:hr></gpxtpx:TrackPointExtension></extensions></trkpt>
      <trkpt lat="43.1281721" lon="76.9578625"><ele>2567.0</ele><time>2026-07-15T16:02:04.500+05:00</time><extensions><gpxtpx:TrackPointExtension><gpxtpx:hr>120</gpxtpx:hr></gpxtpx:TrackPointExtension></extensions></trkpt>
      <trkpt lat="43.1280045" lon="76.9579171"><ele>2568.8</ele><time>2026-07-15T16:02:05.500+05:00</time><extensions><gpxtpx:TrackPointExtension><gpxtpx:hr>120</gpxtpx:hr></gpxtpx:TrackPointExtension></extensions></trkpt>
      <trkpt lat="43.1278369" lon="76.9578970"><ele>2570.5</ele><time>2026-07-15T16:02:06.500+05:00</time><extensions><gpxtpx:TrackPointExtension><gpxtpx:hr>120</gpxtpx:hr></gpxtpx:TrackPointExtension></extensions></trkpt>
      <trkpt lat="43.1276861" lon="76.9578058"><ele>2572.3</ele><time>2026-07-15T16:02:07.500+05:00</time><extensions><gpxtpx:TrackPointExtension><gpxtpx:hr>120</gpxtpx:hr></gpxtpx:TrackPointExtension></extensions></trkpt>
      <trkpt lat="43.1275674" lon="76.9576542"><ele>2574.0</ele><time>2026-07-15T16:02:08.500+05:00</time><extensions><gpxtpx:TrackPointExtension><gpxtpx:hr>120</gpxtpx:hr></gpxtpx:TrackPointExtension></extensions></trkpt>
      <trkpt lat="43.1274928" lon="76.9574587"><ele>2575.8</ele><time>2026-07-15T16:02:09.500+05:00</time><extensions><gpxtpx:TrackPointExtension><gpxtpx:hr>120</gpxtpx:hr></gpxtpx:TrackPointExtension></extensions></trkpt>
      <trkpt lat="43.1274700" lon="76.9572402"><ele>2577.5</ele><time>2026-07-15T16:02:10.500+05:00</time><extensions><gpxtpx:TrackPointExtension><gpxtpx:hr>120</gpxtpx:hr></gpxtpx:TrackPointExtension></extensions></trkpt>
      <trkpt lat="43.1275017" lon="76.9570216"><ele>2579.3</ele><time>2026-07-15T16:02:11.500+05:00</time><extensions><gpxtpx:TrackPointExtension><gpxtpx:hr>120</gpxtpx:hr></gpxtpx:TrackPointExtension></extensions></trkpt>
      <trkpt lat="43.1275853" lon="76.9568261"><ele>2581.0</ele><time>2026-07-15T16:02:12.500+05:00</time><extensions><gpxtpx:TrackPointExtension><gpxtpx:hr>120</gpxtpx:hr></gpxtpx:TrackPointExtension></extensions></trkpt>
      <trkpt lat="43.1277131" lon="76.9566745"><ele>2582.8</ele><time>2026-07-15T16:02:13.500+05:00</time><extensions><gpxtpx:TrackPointExtension><gpxtpx:hr>120</gpxtpx:hr></gpxtpx:TrackPointExtension></extensions></trkpt>
      <trkpt lat="43.1278728" lon="76.9565833"><ele>2584.5</ele><time>2026-07-15T16:02:14.500+05:00</time><extensions><gpxtpx:TrackPointExtension><gpxtpx:hr>120</gpxtpx:hr></gpxtpx:TrackPointExtension></extensions></trkpt>
      <trkpt lat="43.1280494" lon="76.9565632"><ele>2586.3</ele><time>2026-07-15T16:02:15.500+05:00</time><extensions><gpxtpx:TrackPointExtension><gpxtpx:hr>120</gpxtpx:hr></gpxtpx:TrackPointExtension></extensions></trkpt>
      <trkpt lat="43.1282260" lon="76.9566178"><ele>2588.0</ele><time>2026-07-15T16:02:16.500+05:00</time><extensions><gpxtpx:TrackPointExtension><gpxtpx:hr>120</gpxtpx:hr></gpxtpx:TrackPointExtension></extensions></trkpt>
      <trkpt lat="43.1283858" lon="76.9567434"><ele>2589.8</ele><time>2026-07-15T16:02:17.500+05:00</time><extensions><gpxtpx:TrackPointExtension><gpxtpx:hr>120</gpxtpx:hr></gpxtpx:TrackPointExtension></extensions></trkpt>
      <trkpt lat="43.1285135" lon="76.9569295"><ele>2591.5</ele><time>2026-07-15T16:02:18.500+05:00</time><extensions><gpxtpx:TrackPointExtension><gpxtpx:hr>120</gpxtpx:hr></gpxtpx:TrackPointExtension></extensions></trkpt>
      <trkpt lat="43.1285971" lon="76.9571594"><ele>2593.3</ele><time>2026-07-15T16:02:19.500+05:00</time><extensions><gpxtpx:TrackPointExtension><gpxtpx:hr>120</gpxtpx:hr></gpxtpx:TrackPointExtension></extensions></trkpt>
      <trkpt lat="43.1286288" lon="76.9574125"><ele>2595.0</ele><time>2026-07-15T16:02:20.500+05:00</time><extensions><gpxtpx:TrackPointExtension><gpxtpx:hr>120</gpxtpx:hr></gpxtpx:TrackPointExtension></extensions></trkpt>
      <trkpt lat="43.1286061" lon="76.9576655"><ele>2596.8</ele><time>2026-07-15T16:02:21.500+05:00</time><extensions><gpxtpx:TrackPointExtension><gpxtpx:hr>120</gpxtpx:hr></gpxtpx:TrackPointExtension></extensions></trkpt>
      <trkpt lat="43.1285314" lon="76.9578955"><ele>2598.5</ele><time>2026-07-15T16:02:22.500+05:00</time><extensions><gpxtpx:TrackPointExtension><gpxtpx:hr>120</gpxtpx:hr></gpxtpx:TrackPointExtension></extensions></trkpt>
      <trkpt lat="43.1284127" lon="76.9580816"><ele>2600.3</ele><time>2026-07-15T16:02:23.500+05:00</time><extensions><gpxtpx:TrackPointExtension><gpxtpx:hr>120</gpxtpx:hr></gpxtpx:TrackPointExtension></extensions></trkpt>
      <trkpt lat="43.1282619" lon="76.9582072"><ele>2602.0</ele><time>2026-07-15T16:02:24.500+05:00</time><extensions><gpxtpx:TrackPointExtension><gpxtpx:hr>120</gpxtpx:hr></gpxtpx:TrackPointExtension></extensions></trkpt>
      <trkpt lat="43.1280943" lon="76.9582618"><ele>2603.8</ele><time>2026-07-15T16:02:25.500+05:00</time><extensions><gpxtpx:TrackPointExtension><gpxtpx:hr>120</gpxtpx:hr></gpxtpx:TrackPointExtension></extensions></trkpt>
      <trkpt lat="43.1279267" lon="76.9582416"><ele>2605.5</ele><time>2026-07-15T16:02:26.500+05:00</time><extensions><gpxtpx:TrackPointExtension><gpxtpx:hr>120</gpxtpx:hr></gpxtpx:TrackPointExtension></extensions></trkpt>
      <trkpt lat="43.1277759" lon="76.9581505"><ele>2607.3</ele><time>2026-07-15T16:02:27.500+05:00</time><extensions><gpxtpx:TrackPointExtension><gpxtpx:hr>120</gpxtpx:hr></gpxtpx:TrackPointExtension></extensions></trkpt>
      <trkpt lat="43.1276572" lon="76.9579989"><ele>2609.0</ele><time>2026-07-15T16:02:28.500+05:00</time><extensions><gpxtpx:TrackPointExtension><gpxtpx:hr>120</gpxtpx:hr></gpxtpx:TrackPointExtension></extensions></trkpt>
      <trkpt lat="43.1275826" lon="76.9578034"><ele>2610.8</ele><time>2026-07-15T16:02:29.500+05:00</time><extensions><gpxtpx:TrackPointExtension><gpxtpx:hr>120</gpxtpx:hr></gpxtpx:TrackPointExtension></extensions></trkpt>
      <trkpt lat="43.1275598" lon="76.9575848"><ele>2612.5</ele><time>2026-07-15T16:02:30.500+05:00</time><extensions><gpxtpx:TrackPointExtension><gpxtpx:hr>120</gpxtpx:hr></gpxtpx:TrackPointExtension></extensions></trkpt>
      <trkpt lat="43.1275916" lon="76.9573662"><ele>2614.3</ele><time>2026-07-15T16:02:31.500+05:00</time><extensions><gpxtpx:TrackPointExtension><gpxtpx:hr>120</gpxtpx:hr></gpxtpx:TrackPointExtension></extensions></trkpt>
      <trkpt lat="43.1276752" lon="76.9571707"><ele>2616.0</ele><time>2026-07-15T16:02:32.500+05:00</time><extensions><gpxtpx:TrackPointExtension><gpxtpx:hr>120</gpxtpx:hr></gpxtpx:TrackPointExtension></extensions></trkpt>
      <trkpt lat="43.1278029" lon="76.9570191"><ele>2617.8</ele><time>2026-07-15T16:02:33.500+05:00</time><extensions><gpxtpx:TrackPointExtension><gpxtpx:hr>120</gpxtpx:hr></gpxtpx:TrackPointExtension></extensions></trkpt>
      <trkpt lat="43.1279626" lon="76.9569279"><ele>2619.5</ele><time>2026-07-15T16:02:34.500+05:00</time><extensions><gpxtpx:TrackPointExtension><gpxtpx:hr>120</gpxtpx:hr></gpxtpx:TrackPointExtension></extensions></trkpt>
      <trkpt lat="43.1281392" lon="76.9569078"><ele>2621.3</ele><time>2026-07-15T16:02:35.500+05:00</time><extensions><gpxtpx:TrackPointExtension><gpxtpx:hr>120</gpxtpx:hr></gpxtpx:TrackPointExtension></extensions></trkpt>
      <trkpt lat="43.1283158" lon="76.9569624"><ele>2623.0</ele><time>2026-07-15T16:02:36.500+05:00</time><extensions><gpxtpx:TrackPointExtension><gpxtpx:hr>120</gpxtpx:hr></gpxtpx:TrackPointExtension></extensions></trkpt>
      <trkpt lat="43.1284756" lon="76.9570880"><ele>2624.8</ele><time>2026-07-15T16:02:37.500+05:00</time><extensions><gpxtpx:TrackPointExtension><gpxtpx:hr>120</gpxtpx:hr></gpxtpx:TrackPointExtension></extensions></trkpt>
      <trkpt lat="43.1286033" lon="76.9572741"><ele>2626.5</ele><time>2026-07-15T16:02:38.500+05:00</time><extensions><gpxtpx:TrackPointExtension><gpxtpx:hr>120</gpxtpx:hr></gpxtpx:TrackPointExtension></extensions></trkpt>
      <trkpt lat="43.1286869" lon="76.9575041"><ele>2628.3</ele><time>2026-07-15T16:02:39.500+05:00</time><extensions><gpxtpx:TrackPointExtension><gpxtpx:hr>120</gpxtpx:hr></gpxtpx:TrackPointExtension></extensions></trkpt>
      <trkpt lat="43.1287186" lon="76.9577571"><ele>2630.0</ele><time>2026-07-15T16:02:40.500+05:00</time><extensions><gpxtpx:TrackPointExtension><gpxtpx:hr>120</gpxtpx:hr></gpxtpx:TrackPointExtension></extensions></trkpt>
      <trkpt lat="43.1286959" lon="76.9580102"><ele>2631.8</ele><time>2026-07-15T16:02:41.500+05:00</time><extensions><gpxtpx:TrackPointExtension><gpxtpx:hr>120</gpxtpx:hr></gpxtpx:TrackPointExtension></extensions></trkpt>
      <trkpt lat="43.1286213" lon="76.9582401"><ele>2633.5</ele><time>2026-07-15T16:02:42.500+05:00</time><extensions><gpxtpx:TrackPointExtension><gpxtpx:hr>120</gpxtpx:hr></gpxtpx:TrackPointExtension></extensions></trkpt>
      <trkpt lat="43.1285025" lon="76.9584262"><ele>2635.3</ele><time>2026-07-15T16:02:43.500+05:00</time><extensions><gpxtpx:TrackPointExtension><gpxtpx:hr>120</gpxtpx:hr></gpxtpx:TrackPointExtension></extensions></trkpt>
      <trkpt lat="43.1283518" lon="76.9585518"><ele>2637.0</ele><time>2026-07-15T16:02:44.500+05:00</time><extensions><gpxtpx:TrackPointExtension><gpxtpx:hr>120</gpxtpx:hr></gpxtpx:TrackPointExtension></extensions></trkpt>
      <trkpt lat="43.1281842" lon="76.9586064"><ele>2638.8</ele><time>2026-07-15T16:02:45.500+05:00</time><extensions><gpxtpx:TrackPointExtension><gpxtpx:hr>120</gpxtpx:hr></gpxtpx:TrackPointExtension></extensions></trkpt>
      <trkpt lat="43.1280165" lon="76.9585863"><ele>2640.5</ele><time>2026-07-15T16:02:46.500+05:00</time><extensions><gpxtpx:TrackPointExtension><gpxtpx:hr>120</gpxtpx:hr></gpxtpx:TrackPointExtension></extensions></trkpt>
      <trkpt lat="43.1278658" lon="76.9584951"><ele>2642.3</ele><time>2026-07-15T16:02:47.500+05:00</time><extensions><gpxtpx:TrackPointExtension><gpxtpx:hr>120</gpxtpx:hr></gpxtpx:TrackPointExtension></extensions></trkpt>
      <trkpt lat="43.1277470" lon="76.9583435"><ele>2644.0</ele><time>2026-07-15T16:02:48.500+05:00</time><extensions><gpxtpx:TrackPointExtension><gpxtpx:hr>120</gpxtpx:hr></gpxtpx:TrackPointExtension></extensions></trkpt>
      <trkpt lat="43.1276724" lon="76.9581480"><ele>2645.8</ele><time>2026-07-15T16:02:49.500+05:00</time><extensions><gpxtpx:TrackPointExtension><gpxtpx:hr>120</gpxtpx:hr></gpxtpx:TrackPointExtension></extensions></trkpt>
      <trkpt lat="43.1276497" lon="76.9579294"><ele>2647.5</ele><time>2026-07-15T16:02:50.500+05:00</time><extensions><gpxtpx:TrackPointExtension><gpxtpx:hr>120</gpxtpx:hr></gpxtpx:TrackPointExtension></extensions></trkpt>
      <trkpt lat="43.1276814" lon="76.9577108"><ele>2649.3</ele><time>2026-07-15T16:02:51.500+05:00</time><extensions><gpxtpx:TrackPointExtension><gpxtpx:hr>120</gpxtpx:hr></gpxtpx:TrackPointExtension></extensions></trkpt>
      <trkpt lat="43.1277650" lon="76.9575153"><ele>2651.0</ele><time>2026-07-15T16:02:52.500+05:00</time><extensions><gpxtpx:TrackPointExtension><gpxtpx:hr>120</gpxtpx:hr></gpxtpx:TrackPointExtension></extensions></trkpt>
      <trkpt lat="43.1278927" lon="76.9573637"><ele>2652.8</ele><time>2026-07-15T16:02:53.500+05:00</time><extensions><gpxtpx:TrackPointExtension><gpxtpx:hr>120</gpxtpx:hr></gpxtpx:TrackPointExtension></extensions></trkpt>
      <trkpt lat="43.1280525" lon="76.9572726"><ele>2654.5</ele><time>2026-07-15T16:02:54.500+05:00</time><extensions><gpxtpx:TrackPointExtension><gpxtpx:hr>120</gpxtpx:hr></gpxtpx:TrackPointExtension></extensions></trkpt>
      <trkpt lat="43.1282291" lon="76.9572525"><ele>2656.3</ele><time>2026-07-15T16:02:55.500+05:00</time><extensions><gpxtpx:TrackPointExtension><gpxtpx:hr>120</gpxtpx:hr></gpxtpx:TrackPointExtension></extensions></trkpt>
      <trkpt lat="43.1284057" lon="76.9573070"><ele>2658.0</ele><time>2026-07-15T16:02:56.500+05:00</time><extensions><gpxtpx:TrackPointExtension><gpxtpx:hr>120</gpxtpx:hr></gpxtpx:TrackPointExtension></extensions></trkpt>
      <trkpt lat="43.1285654" lon="76.9574327"><ele>2659.8</ele><time>2026-07-15T16:02:57.500+05:00</time><extensions><gpxtpx:TrackPointExtension><gpxtpx:hr>120</gpxtpx:hr></gpxtpx:TrackPointExtension></extensions></trkpt>
      <trkpt lat="43.1286931" lon="76.9576187"><ele>2661.5</ele><time>2026-07-15T16:02:58.500+05:00</time><extensions><gpxtpx:TrackPointExtension><gpxtpx:hr>120</gpxtpx:hr></gpxtpx:TrackPointExtension></extensions></trkpt>
      <trkpt lat="43.1287767" lon="76.9578487"><ele>2663.3</ele><time>2026-07-15T16:02:59.500+05:00</time><extensions><gpxtpx:TrackPointExtension><gpxtpx:hr>120</gpxtpx:hr></gpxtpx:TrackPointExtension></extensions></trkpt>
      <trkpt lat="43.1288085" lon="76.9581017"><ele>2665.0</ele><time>2026-07-15T16:03:00.500+05:00</time><extensions><gpxtpx:TrackPointExtension><gpxtpx:hr>120</gpxtpx:hr></gpxtpx:TrackPointExtension></extensions></trkpt>
      <trkpt lat="43.1287857" lon="76.9583548"><ele>2666.8</ele><time>2026-07-15T16:03:01.500+05:00</time><extensions><gpxtpx:TrackPointExtension><gpxtpx:hr>120</gpxtpx:hr></gpxtpx:TrackPointExtension></extensions></trkpt>
      <trkpt lat="43.1287111" lon="76.9585848"><ele>2668.5</ele><time>2026-07-15T16:03:02.500+05:00</time><extensions><gpxtpx:TrackPointExtension><gpxtpx:hr>120</gpxtpx:hr></gpxtpx:TrackPointExtension></extensions></trkpt>
      <trkpt lat="43.1285924" lon="76.9587708"><ele>2670.3</ele><time>2026-07-15T16:03:03.500+05:00</time><extensions><gpxtpx:TrackPointExtension><gpxtpx:hr>120</gpxtpx:hr></gpxtpx:TrackPointExtension></extensions></trkpt>
      <trkpt lat="43.1284416" lon="76.9588965"><ele>2672.0</ele><time>2026-07-15T16:03:04.500+05:00</time><extensions><gpxtpx:TrackPointExtension><gpxtpx:hr>120</gpxtpx:hr></gpxtpx:TrackPointExtension></extensions></trkpt>
      <trkpt lat="43.1282740" lon="76.9589510"><ele>2673.8</ele><time>2026-07-15T16:03:05.500+05:00</time><extensions><gpxtpx:TrackPointExtension><gpxtpx:hr>120</gpxtpx:hr></gpxtpx:TrackPointExtension></extensions></trkpt>
      <trkpt lat="43.1281064" lon="76.9589309"><ele>2675.5</ele><time>2026-07-15T16:03:06.500+05:00</time><extensions><gpxtpx:TrackPointExtension><gpxtpx:hr>120</gpxtpx:hr></gpxtpx:TrackPointExtension></extensions></trkpt>
      <trkpt lat="43.1279556" lon="76.9588398"><ele>2677.3</ele><time>2026-07-15T16:03:07.500+05:00</time><extensions><gpxtpx:TrackPointExtension><gpxtpx:hr>120</gpxtpx:hr></gpxtpx:TrackPointExtension></extensions></trkpt>
      <trkpt lat="43.1278369" lon="76.9586882"><ele>2679.0</ele><time>2026-07-15T16:03:08.500+05:00</time><extensions><gpxtpx:TrackPointExtension><gpxtpx:hr>120</gpxtpx:hr></gpxtpx:TrackPointExtension></extensions></trkpt>
      <trkpt lat="43.1277623" lon="76.9584927"><ele>2680.8</ele><time>2026-07-15T16:03:09.500+05:00</time><extensions><gpxtpx:TrackPointExtension><gpxtpx:hr>120</gpxtpx:hr></gpxtpx:TrackPointExtension></extensions></trkpt>
      <trkpt lat="43.1277395" lon="76.9582741"><ele>2682.5</ele><time>2026-07-15T16:03:10.500+05:00</time><extensions><gpxtpx:TrackPointExtension><gpxtpx:hr>120</gpxtpx:hr></gpxtpx:TrackPointExtension></extensions></trkpt>
      <trkpt lat="43.1277712" lon="76.9580555"><ele>2684.3</ele><time>2026-07-15T16:03:11.500+05:00</time><extensions><gpxtpx:TrackPointExtension><gpxtpx:hr>120</gpxtpx:hr></gpxtpx:TrackPointExtension></extensions></trkpt>
      <trkpt lat="43.1278548" lon="76.9578600"><ele>2686.0</ele><time>2026-07-15T16:03:12.500+05:00</time><extensions><gpxtpx:TrackPointExtension><gpxtpx:hr>120</gpxtpx:hr></gpxtpx:TrackPointExtension></extensions></trkpt>
      <trkpt lat="43.1279825" lon="76.9577084"><ele>2687.8</ele><time>2026-07-15T16:03:13.500+05:00</time><extensions><gpxtpx:TrackPointExtension><gpxtpx:hr>120</gpxtpx:hr></gpxtpx:TrackPointExtension></extensions></trkpt>
      <trkpt lat="43.1281423" lon="76.9576172"><ele>2689.5</ele><time>2026-07-15T16:03:14.500+05:00</time><extensions><gpxtpx:TrackPointExtension><gpxtpx:hr>120</gpxtpx:hr></gpxtpx:TrackPointExtension></extensions></trkpt>
      <trkpt lat="43.1283189" lon="76.9575971"><ele>2691.3</ele><time>2026-07-15T16:03:15.500+05:00</time><extensions><gpxtpx:TrackPointExtension><gpxtpx:hr>120</gpxtpx:hr></gpxtpx:TrackPointExtension></extensions></trkpt>
      <trkpt lat="43.1284955" lon="76.9576517"><ele>2693.0</ele><time>2026-07-15T16:03:16.500+05:00</time><extensions><gpxtpx:TrackPointExtension><gpxtpx:hr>120</gpxtpx:hr></gpxtpx:TrackPointExtension></extensions></trkpt>
      <trkpt lat="43.1286553" lon="76.9577773"><ele>2694.8</ele><time>2026-07-15T16:03:17.500+05:00</time><extensions><gpxtpx:TrackPointExtension><gpxtpx:hr>120</gpxtpx:hr></gpxtpx:TrackPointExtension></extensions></trkpt>
      <trkpt lat="43.1287830" lon="76.9579634"><ele>2696.5</ele><time>2026-07-15T16:03:18.500+05:00</time><extensions><gpxtpx:TrackPointExtension><gpxtpx:hr>120</gpxtpx:hr></gpxtpx:TrackPointExtension></extensions></trkpt>
      <trkpt lat="43.1288666" lon="76.9581933"><ele>2698.3</ele><time>2026-07-15T16:03:19.500+05:00</time><extensions><gpxtpx:TrackPointExtension><gpxtpx:hr>120</gpxtpx:hr></gpxtpx:TrackPointExtension></extensions></trkpt>
      <trkpt lat="43.1288983" lon="76.9584464"><ele>2700.0</ele><time>2026-07-15T16:03:20.500+05:00</time><extensions><gpxtpx:TrackPointExtension><gpxtpx:hr>120</gpxtpx:hr></gpxtpx:TrackPointExtension></extensions></trkpt>
      <trkpt lat="43.1288755" lon="76.9586994"><ele>2701.8</ele><time>2026-07-15T16:03:21.500+05:00</time><extensions><gpxtpx:TrackPointExtension><gpxtpx:hr>120</gpxtpx:hr></gpxtpx:TrackPointExtension></extensions></trkpt>
      <trkpt lat="43.1288009" lon="76.9589294"><ele>2703.5</ele><time>2026-07-15T16:03:22.500+05:00</time><extensions><gpxtpx:TrackPointExtension><gpxtpx:hr>120</gpxtpx:hr></gpxtpx:TrackPointExtension></extensions></trkpt>
      <trkpt lat="43.1286822" lon="76.9591155"><ele>2705.3</ele><time>2026-07-15T16:03:23.500+05:00</time><extensions><gpxtpx:TrackPointExtension><gpxtpx:hr>120</gpxtpx:hr></gpxtpx:TrackPointExtension></extensions></trkpt>
      <trkpt lat="43.1285314" lon="76.9592411"><ele>2707.0</ele><time>2026-07-15T16:03:24.500+05:00</time><extensions><gpxtpx:TrackPointExtension><gpxtpx:hr>120</gpxtpx:hr></gpxtpx:TrackPointExtension></extensions></trkpt>
      <trkpt lat="43.1283638" lon="76.9592957"><ele>2708.8</ele><time>2026-07-15T16:03:25.500+05:00</time><extensions><gpxtpx:TrackPointExtension><gpxtpx:hr>120</gpxtpx:hr></gpxtpx:TrackPointExtension></extensions></trkpt>
      <trkpt lat="43.1281962" lon="76.9592756"><ele>2710.5</ele><time>2026-07-15T16:03:26.500+05:00</time><extensions><gpxtpx:TrackPointExtension><gpxtpx:hr>120</gpxtpx:hr></gpxtpx:TrackPointExtension></extensions></trkpt>
      <trkpt lat="43.1280454" lon="76.9591844"><ele>2712.3</ele><time>2026-07-15T16:03:27.500+05:00</time><extensions><gpxtpx:TrackPointExtension><gpxtpx:hr>120</gpxtpx:hr></gpxtpx:TrackPointExtension></extensions></trkpt>
      <trkpt lat="43.1279267" lon="76.9590328"><ele>2714.0</ele><time>2026-07-15T16:03:28.500+05:00</time><extensions><gpxtpx:TrackPointExtension><gpxtpx:hr>120</gpxtpx:hr></gpxtpx:TrackPointExtension></extensions></trkpt>
      <trkpt lat="43.1278521" lon="76.9588373"><ele>2715.8</ele><time>2026-07-15T16:03:29.500+05:00</time><extensions><gpxtpx:TrackPointExtension><gpxtpx:hr>120</gpxtpx:hr></gpxtpx:TrackPointExtension></extensions></trkpt>
      <trkpt lat="43.1278293" lon="76.9586187"><ele>2717.5</ele><time>2026-07-15T16:03:30.500+05:00</time><extensions><gpxtpx:TrackPointExtension><gpxtpx:hr>120</gpxtpx:hr></gpxtpx:TrackPointExtension></extensions></trkpt>
      <trkpt lat="43.1278611" lon="76.9584001"><ele>2719.3</ele><time>2026-07-15T16:03:31.500+05:00</time><extensions><gpxtpx:TrackPointExtension><gpxtpx:hr>120</gpxtpx:hr></gpxtpx:TrackPointExtension></extensions></trkpt>
      <trkpt lat="43.1279447" lon="76.9582046"><ele>2721.0</ele><time>2026-07-15T16:03:32.500+05:00</time><extensions><gpxtpx:TrackPointExtension><gpxtpx:hr>120</gpxtpx:hr></gpxtpx:TrackPointExtension></extensions></trkpt>
      <trkpt lat="43.1280724" lon="76.9580530"><ele>2722.8</ele><time>2026-07-15T16:03:33.500+05:00</time><extensions><gpxtpx:TrackPointExtension><gpxtpx:hr>120</gpxtpx:hr></gpxtpx:TrackPointExtension></extensions></trkpt>
      <trkpt lat="43.1282321" lon="76.9579619"><ele>2724.5</ele><time>2026-07-15T16:03:34.500+05:00</time><extensions><gpxtpx:TrackPointExtension><gpxtpx:hr>120</gpxtpx:hr></gpxtpx:TrackPointExtension></extensions></trkpt>
      <trkpt lat="43.1284087" lon="76.9579417"><ele>2726.3</ele><time>2026-07-15T16:03:35.500+05:00</time><extensions><gpxtpx:TrackPointExtension><gpxtpx:hr>120</gpxtpx:hr></gpxtpx:TrackPointExtension></extensions></trkpt>
      <trkpt lat="43.1285853" lon="76.9579963"><ele>2728.0</ele><time>2026-07-15T16:03:36.500+05:00</time><extensions><gpxtpx:TrackPointExtension><gpxtpx:hr>120</gpxtpx:hr></gpxtpx:TrackPointExtension></extensions></trkpt>
      <trkpt lat="43.1287451" lon="76.9581219"><ele>2729.8</ele><time>2026-07-15T16:03:37.500+05:00</time><extensions><gpxtpx:TrackPointExtension><gpxtpx:hr>120</gpxtpx:hr></gpxtpx:TrackPointExtension></extensions></trkpt>
      <trkpt lat="43.1288728" lon="76.9583080"><ele>2731.5</ele><time>2026-07-15T16:03:38.500+05:00</time><extensions><gpxtpx:TrackPointExtension><gpxtpx:hr>120</gpxtpx:hr></gpxtpx:TrackPointExtension></extensions></trkpt>
      <trkpt lat="43.1289564" lon="76.9585380"><ele>2733.3</ele><time>2026-07-15T16:03:39.500+05:00</time><extensions><gpxtpx:TrackPointExtension><gpxtpx:hr>120</gpxtpx:hr></gpxtpx:TrackPointExtension></extensions></trkpt>
      <trkpt lat="43.1289881" lon="76.9587910"><ele>2735.0</ele><time>2026-07-15T16:03:40.500+05:00</time><extensions><gpxtpx:TrackPointExtension><gpxtpx:hr>120</gpxtpx:hr></gpxtpx:TrackPointExtension></extensions></trkpt>
      <trkpt lat="43.1289654" lon="76.9590441"><ele>2736.8</ele><time>2026-07-15T16:03:41.500+05:00</time><extensions><gpxtpx:TrackPointExtension><gpxtpx:hr>120</gpxtpx:hr></gpxtpx:TrackPointExtension></extensions></trkpt>
      <trkpt lat="43.1288908" lon="76.9592740"><ele>2738.5</ele><time>2026-07-15T16:03:42.500+05:00</time><extensions><gpxtpx:TrackPointExtension><gpxtpx:hr>120</gpxtpx:hr></gpxtpx:TrackPointExtension></extensions></trkpt>
      <trkpt lat="43.1287720" lon="76.9594601"><ele>2740.3</ele><time>2026-07-15T16:03:43.500+05:00</time><extensions><gpxtpx:TrackPointExtension><gpxtpx:hr>120</gpxtpx:hr></gpxtpx:TrackPointExtension></extensions></trkpt>
      <trkpt lat="43.1286213" lon="76.9595857"><ele>2742.0</ele><time>2026-07-15T16:03:44.500+05:00</time><extensions><gpxtpx:TrackPointExtension><gpxtpx:hr>120</gpxtpx:hr></gpxtpx:TrackPointExtension></extensions></trkpt>
      <trkpt lat="43.1284536" lon="76.9596403"><ele>2743.8</ele><time>2026-07-15T16:03:45.500+05:00</time><extensions><gpxtpx:TrackPointExtension><gpxtpx:hr>120</gpxtpx:hr></gpxtpx:TrackPointExtension></extensions></trkpt>
      <trkpt lat="43.1282860" lon="76.9596202"><ele>2745.5</ele><time>2026-07-15T16:03:46.500+05:00</time><extensions><gpxtpx:TrackPointExtension><gpxtpx:hr>120</gpxtpx:hr></gpxtpx:TrackPointExtension></extensions></trkpt>
      <trkpt lat="43.1281353" lon="76.9595290"><ele>2747.3</ele><time>2026-07-15T16:03:47.500+05:00</time><extensions><gpxtpx:TrackPointExtension><gpxtpx:hr>120</gpxtpx:hr></gpxtpx:TrackPointExtension></extensions></trkpt>
      <trkpt lat="43.1280165" lon="76.9593774"><ele>2749.0</ele><time>2026-07-15T16:03:48.500+05:00</time><extensions><gpxtpx:TrackPointExtension><gpxtpx:hr>120</gpxtpx:hr></gpxtpx:TrackPointExtension></extensions></trkpt>
      <trkpt lat="43.1279419" lon="76.9591819"><ele>2750.8</ele><time>2026-07-15T16:03:49.500+05:00</time><extensions><gpxtpx:TrackPointExtension><gpxtpx:hr>120</gpxtpx:hr></gpxtpx:TrackPointExtension></extensions></trkpt>
      <trkpt lat="43.1279192" lon="76.9589633"><ele>2752.5</ele><time>2026-07-15T16:03:50.500+05:00</time><extensions><gpxtpx:TrackPointExtension><gpxtpx:hr>120</gpxtpx:hr></gpxtpx:TrackPointExtension></extensions></trkpt>
      <trkpt lat="43.1279509" lon="76.9587448"><ele>2754.3</ele><time>2026-07-15T16:03:51.500+05:00</time><extensions><gpxtpx:TrackPointExtension><gpxtpx:hr>120</gpxtpx:hr></gpxtpx:TrackPointExtension></extensions></trkpt>
      <trkpt lat="43.1280345" lon="76.9585493"><ele>2756.0</ele><time>2026-07-15T16:03:52.500+05:00</time><extensions><gpxtpx:TrackPointExtension><gpxtpx:hr>120</gpxtpx:hr></gpxtpx:TrackPointExtension></extensions></trkpt>
      <trkpt lat="43.1281622" lon="76.9583977"><ele>2757.8</ele><time>2026-07-15T16:03:53.500+05:00</time><extensions><gpxtpx:TrackPointExtension><gpxtpx:hr>120</gpxtpx:hr></gpxtpx:TrackPointExtension></extensions></trkpt>
      <trkpt lat="43.1283220" lon="76.9583065"><ele>2759.5</ele><time>2026-07-15T16:03:54.500+05:00</time><extensions><gpxtpx:TrackPointExtension><gpxtpx:hr>120</gpxtpx:hr></gpxtpx:TrackPointExtension></extensions></trkpt>
      <trkpt lat="43.1284986" lon="76.9582864"><ele>2761.3</ele><time>2026-07-15T16:03:55.500+05:00</time><extensions><gpxtpx:TrackPointExtension><gpxtpx:hr>120</gpxtpx:hr></gpxtpx:TrackPointExtension></extensions></trkpt>
      <trkpt lat="43.1286752" lon="76.9583410"><ele>2763.0</ele><time>2026-07-15T16:03:56.500+05:00</time><extensions><gpxtpx:TrackPointExtension><gpxtpx:hr>120</gpxtpx:hr></gpxtpx:TrackPointExtension></extensions></trkpt>
      <trkpt lat="43.1288349" lon="76.9584666"><ele>2764.8</ele><time>2026-07-15T16:03:57.500+05:00</time><extensions><gpxtpx:TrackPointExtension><gpxtpx:hr>120</gpxtpx:hr></gpxtpx:TrackPointExtension></extensions></trkpt>
      <trkpt lat="43.1289626" lon="76.9586526"><ele>2766.5</ele><time>2026-07-15T16:03:58.500+05:00</time><extensions><gpxtpx:TrackPointExtension><gpxtpx:hr>120</gpxtpx:hr></gpxtpx:TrackPointExtension></extensions></trkpt>
      <trkpt lat="43.1290462" lon="76.9588826"><ele>2768.3</ele><time>2026-07-15T16:03:59.500+05:00</time><extensions><gpxtpx:TrackPointExtension><gpxtpx:hr>120</gpxtpx:hr></gpxtpx:TrackPointExtension></extensions></trkpt>
      <trkpt lat="43.1285210" lon="76.9591357"><ele>2770.0</ele><time>2026-07-15T16:04:00.500+05:00</time><extensions><gpxtpx:TrackPointExtension><gpxtpx:hr>120</gpxtpx:hr></gpxtpx:TrackPointExtension></extensions></trkpt>
      <trkpt lat="43.1285372" lon="76.9592661"><ele>2768.8</ele><time>2026-07-15T16:04:01.500+05:00</time><extensions><gpxtpx:TrackPointExtension><gpxtpx:hr>120</gpxtpx:hr></gpxtpx:TrackPointExtension></extensions></trkpt>
      <trkpt lat="43.1285534" lon="76.9593966"><ele>2767.6</ele><time>2026-07-15T16:04:02.500+05:00</time><extensions><gpxtpx:TrackPointExtension><gpxtpx:hr>120</gpxtpx:hr></gpxtpx:TrackPointExtension></extensions></trkpt>
      <trkpt lat="43.1285695" lon="76.9595271"><ele>2766.4</ele><time>2026-07-15T16:04:03.500+05:00</time><extensions><gpxtpx:TrackPointExtension><gpxtpx:hr>120</gpxtpx:hr></gpxtpx:TrackPointExtension></extensions></trkpt>
      <trkpt lat="43.1285857" lon="76.9596575"><ele>2765.2</ele><time>2026-07-15T16:04:04.500+05:00</time><extensions><gpxtpx:TrackPointExtension><gpxtpx:hr>120</gpxtpx:hr></gpxtpx:TrackPointExtension></extensions></trkpt>
      <trkpt lat="43.1286019" lon="76.9597880"><ele>2764.0</ele><time>2026-07-15T16:04:05.500+05:00</time><extensions><gpxtpx:TrackPointExtension><gpxtpx:hr>120</gpxtpx:hr></gpxtpx:TrackPointExtension></extensions></trkpt>
      <trkpt lat="43.1286180" lon="76.9599185"><ele>2762.8</ele><time>2026-07-15T16:04:06.500+05:00</time><extensions><gpxtpx:TrackPointExtension><gpxtpx:hr>120</gpxtpx:hr></gpxtpx:TrackPointExtension></extensions></trkpt>
      <trkpt lat="43.1286342" lon="76.9600490"><ele>2761.6</ele><time>2026-07-15T16:04:07.500+05:00</time><extensions><gpxtpx:TrackPointExtension><gpxtpx:hr>120</gpxtpx:hr></gpxtpx:TrackPointExtension></extensions></trkpt>
      <trkpt lat="43.1286504" lon="76.9601794"><ele>2760.4</ele><time>2026-07-15T16:04:08.500+05:00</time><extensions><gpxtpx:TrackPointExtension><gpxtpx:hr>120</gpxtpx:hr></gpxtpx:TrackPointExtension></extensions></trkpt>
      <trkpt lat="43.1286665" lon="76.9603099"><ele>2759.2</ele><time>2026-07-15T16:04:09.500+05:00</time><extensions><gpxtpx:TrackPointExtension><gpxtpx:hr>120</gpxtpx:hr></gpxtpx:TrackPointExtension></extensions></trkpt>
      <trkpt lat="43.1286827" lon="76.9604404"><ele>2758.0</ele><time>2026-07-15T16:04:10.500+05:00</time><extensions><gpxtpx:TrackPointExtension><gpxtpx:hr>120</gpxtpx:hr></gpxtpx:TrackPointExtension></extensions></trkpt>
      <trkpt lat="43.1286989" lon="76.9605708"><ele>2756.8</ele><time>2026-07-15T16:04:11.500+05:00</time><extensions><gpxtpx:TrackPointExtension><gpxtpx:hr>120</gpxtpx:hr></gpxtpx:TrackPointExtension></extensions></trkpt>
      <trkpt lat="43.1287151" lon="76.9607013"><ele>2755.6</ele><time>2026-07-15T16:04:12.500+05:00</time><extensions><gpxtpx:TrackPointExtension><gpxtpx:hr>120</gpxtpx:hr></gpxtpx:TrackPointExtension></extensions></trkpt>
      <trkpt lat="43.1287312" lon="76.9608318"><ele>2754.4</ele><time>2026-07-15T16:04:13.500+05:00</time><extensions><gpxtpx:TrackPointExtension><gpxtpx:hr>120</gpxtpx:hr></gpxtpx:TrackPointExtension></extensions></trkpt>
      <trkpt lat="43.1287474" lon="76.9609623"><ele>2753.2</ele><time>2026-07-15T16:04:14.500+05:00</time><extensions><gpxtpx:TrackPointExtension><gpxtpx:hr>120</gpxtpx:hr></gpxtpx:TrackPointExtension></extensions></trkpt>
      <trkpt lat="43.1287636" lon="76.9610927"><ele>2752.0</ele><time>2026-07-15T16:04:15.500+05:00</time><extensions><gpxtpx:TrackPointExtension><gpxtpx:hr>120</gpxtpx:hr></gpxtpx:TrackPointExtension></extensions></trkpt>
      <trkpt lat="43.1287797" lon="76.9612232"><ele>2750.8</ele><time>2026-07-15T16:04:16.500+05:00</time><extensions><gpxtpx:TrackPointExtension><gpxtpx:hr>120</gpxtpx:hr></gpxtpx:TrackPointExtension></extensions></trkpt>
      <trkpt lat="43.1287959" lon="76.9613537"><ele>2749.6</ele><time>2026-07-15T16:04:17.500+05:00</time><extensions><gpxtpx:TrackPointExtension><gpxtpx:hr>120</gpxtpx:hr></gpxtpx:TrackPointExtension></extensions></trkpt>
      <trkpt lat="43.1288121" lon="76.9614841"><ele>2748.4</ele><time>2026-07-15T16:04:18.500+05:00</time><extensions><gpxtpx:TrackPointExtension><gpxtpx:hr>120</gpxtpx:hr></gpxtpx:TrackPointExtension></extensions></trkpt>
      <trkpt lat="43.1288282" lon="76.9616146"><ele>2747.2</ele><time>2026-07-15T16:04:19.500+05:00</time><extensions><gpxtpx:TrackPointExtension><gpxtpx:hr>120</gpxtpx:hr></gpxtpx:TrackPointExtension></extensions></trkpt>
      <trkpt lat="43.1288444" lon="76.9617451"><ele>2746.0</ele><time>2026-07-15T16:04:20.500+05:00</time><extensions><gpxtpx:TrackPointExtension><gpxtpx:hr>120</gpxtpx:hr></gpxtpx:TrackPointExtension></extensions></trkpt>
      <trkpt lat="43.1288606" lon="76.9618755"><ele>2744.8</ele><time>2026-07-15T16:04:21.500+05:00</time><extensions><gpxtpx:TrackPointExtension><gpxtpx:hr>120</gpxtpx:hr></gpxtpx:TrackPointExtension></extensions></trkpt>
      <trkpt lat="43.1288768" lon="76.9620060"><ele>2743.6</ele><time>2026-07-15T16:04:22.500+05:00</time><extensions><gpxtpx:TrackPointExtension><gpxtpx:hr>120</gpxtpx:hr></gpxtpx:TrackPointExtension></extensions></trkpt>
      <trkpt lat="43.1288929" lon="76.9621365"><ele>2742.4</ele><time>2026-07-15T16:04:23.500+05:00</time><extensions><gpxtpx:TrackPointExtension><gpxtpx:hr>120</gpxtpx:hr></gpxtpx:TrackPointExtension></extensions></trkpt>
      <trkpt lat="43.1289091" lon="76.9622670"><ele>2741.2</ele><time>2026-07-15T16:04:24.500+05:00</time><extensions><gpxtpx:TrackPointExtension><gpxtpx:hr>120</gpxtpx:hr></gpxtpx:TrackPointExtension></extensions></trkpt>
      <trkpt lat="43.1289253" lon="76.9623974"><ele>2740.0</ele><time>2026-07-15T16:04:25.500+05:00</time><extensions><gpxtpx:TrackPointExtension><gpxtpx:hr>120</gpxtpx:hr></gpxtpx:TrackPointExtension></extensions></trkpt>
      <trkpt lat="43.1289414" lon="76.9625279"><ele>2738.8</ele><time>2026-07-15T16:04:26.500+05:00</time><extensions><gpxtpx:TrackPointExtension><gpxtpx:hr>120</gpxtpx:hr></gpxtpx:TrackPointExtension></extensions></trkpt>
      <trkpt lat="43.1289576" lon="76.9626584"><ele>2737.6</ele><time>2026-07-15T16:04:27.500+05:00</time><extensions><gpxtpx:TrackPointExtension><gpxtpx:hr>120</gpxtpx:hr></gpxtpx:TrackPointExtension></extensions></trkpt>
      <trkpt lat="43.1289738" lon="76.9627888"><ele>2736.4</ele><time>2026-07-15T16:04:28.500+05:00</time><extensions><gpxtpx:TrackPointExtension><gpxtpx:hr>120</gpxtpx:hr></gpxtpx:TrackPointExtension></extensions></trkpt>
      <trkpt lat="43.1289899" lon="76.9629193"><ele>2735.2</ele><time>2026-07-15T16:04:29.500+05:00</time><extensions><gpxtpx:TrackPointExtension><gpxtpx:hr>120</gpxtpx:hr></gpxtpx:TrackPointExtension></extensions></trkpt>
      <trkpt lat="43.1290061" lon="76.9630498"><ele>2734.0</ele><time>2026-07-15T16:04:30.500+05:00</time><extensions><gpxtpx:TrackPointExtension><gpxtpx:hr>120</gpxtpx:hr></gpxtpx:TrackPointExtension></extensions></trkpt>
      <trkpt lat="43.1290223" lon="76.9631802"><ele>2732.8</ele><time>2026-07-15T16:04:31.500+05:00</time><extensions><gpxtpx:TrackPointExtension><gpxtpx:hr>120</gpxtpx:hr></gpxtpx:TrackPointExtension></extensions></trkpt>
      <trkpt lat="43.1290384" lon="76.9633107"><ele>2731.6</ele><time>2026-07-15T16:04:32.500+05:00</time><extensions><gpxtpx:TrackPointExtension><gpxtpx:hr>120</gpxtpx:hr></gpxtpx:TrackPointExtension></extensions></trkpt>
      <trkpt lat="43.1290546" lon="76.9634412"><ele>2730.4</ele><time>2026-07-15T16:04:33.500+05:00</time><extensions><gpxtpx:TrackPointExtension><gpxtpx:hr>120</gpxtpx:hr></gpxtpx:TrackPointExtension></extensions></trkpt>
      <trkpt lat="43.1290708" lon="76.9635717"><ele>2729.2</ele><time>2026-07-15T16:04:34.500+05:00</time><extensions><gpxtpx:TrackPointExtension><gpxtpx:hr>120</gpxtpx:hr></gpxtpx:TrackPointExtension></extensions></trkpt>
      <trkpt lat="43.1290870" lon="76.9637021"><ele>2728.0</ele><time>2026-07-15T16:04:35.500+05:00</time><extensions><gpxtpx:TrackPointExtension><gpxtpx:hr>120</gpxtpx:hr></gpxtpx:TrackPointExtension></extensions></trkpt>
      <trkpt lat="43.1291031" lon="76.9638326"><ele>2726.8</ele><time>2026-07-15T16:04:36.500+05:00</time><extensions><gpxtpx:TrackPointExtension><gpxtpx:hr>120</gpxtpx:hr></gpxtpx:TrackPointExtension></extensions></trkpt>
      <trkpt lat="43.1291193" lon="76.9639631"><ele>2725.6</ele><time>2026-07-15T16:04:37.500+05:00</time><extensions><gpxtpx:TrackPointExtension><gpxtpx:hr>120</gpxtpx:hr></gpxtpx:TrackPointExtension></extensions></trkpt>
      <trkpt lat="43.1291355" lon="76.9640935"><ele>2724.4</ele><time>2026-07-15T16:04:38.500+05:00</time><extensions><gpxtpx:TrackPointExtension><gpxtpx:hr>120</gpxtpx:hr></gpxtpx:TrackPointExtension></extensions></trkpt>
      <trkpt lat="43.1291516" lon="76.9642240"><ele>2723.2</ele><time>2026-07-15T16:04:39.500+05:00</time><extensions><gpxtpx:TrackPointExtension><gpxtpx:hr>120</gpxtpx:hr></gpxtpx:TrackPointExtension></extensions></trkpt>
      <trkpt lat="43.1291678" lon="76.9643545"><ele>2722.0</ele><time>2026-07-15T16:04:40.500+05:00</time><extensions><gpxtpx:TrackPointExtension><gpxtpx:hr>120</gpxtpx:hr></gpxtpx:TrackPointExtension></extensions></trkpt>
      <trkpt lat="43.1291840" lon="76.9644850"><ele>2720.8</ele><time>2026-07-15T16:04:41.500+05:00</time><extensions><gpxtpx:TrackPointExtension><gpxtpx:hr>120</gpxtpx:hr></gpxtpx:TrackPointExtension></extensions></trkpt>
      <trkpt lat="43.1292001" lon="76.9646154"><ele>2719.6</ele><time>2026-07-15T16:04:42.500+05:00</time><extensions><gpxtpx:TrackPointExtension><gpxtpx:hr>120</gpxtpx:hr></gpxtpx:TrackPointExtension></extensions></trkpt>
      <trkpt lat="43.1292163" lon="76.9647459"><ele>2718.4</ele><time>2026-07-15T16:04:43.500+05:00</time><extensions><gpxtpx:TrackPointExtension><gpxtpx:hr>120</gpxtpx:hr></gpxtpx:TrackPointExtension></extensions></trkpt>
      <trkpt lat="43.1292325" lon="76.9648764"><ele>2717.2</ele><time>2026-07-15T16:04:44.500+05:00</time><extensions><gpxtpx:TrackPointExtension><gpxtpx:hr>120</gpxtpx:hr></gpxtpx:TrackPointExtension></extensions></trkpt>
      <trkpt lat="43.1292487" lon="76.9650068"><ele>2716.0</ele><time>2026-07-15T16:04:45.500+05:00</time><extensions><gpxtpx:TrackPointExtension><gpxtpx:hr>120</gpxtpx:hr></gpxtpx:TrackPointExtension></extensions></trkpt>
      <trkpt lat="43.1292648" lon="76.9651373"><ele>2714.8</ele><time>2026-07-15T16:04:46.500+05:00</time><extensions><gpxtpx:TrackPointExtension><gpxtpx:hr>120</gpxtpx:hr></gpxtpx:TrackPointExtension></extensions></trkpt>
      <trkpt lat="43.1292810" lon="76.9652678"><ele>2713.6</ele><time>2026-07-15T16:04:47.500+05:00</time><extensions><gpxtpx:TrackPointExtension><gpxtpx:hr>120</gpxtpx:hr></gpxtpx:TrackPointExtension></extensions></trkpt>
      <trkpt lat="43.1292972" lon="76.9653982"><ele>2712.4</ele><time>2026-07-15T16:04:48.500+05:00</time><extensions><gpxtpx:TrackPointExtension><gpxtpx:hr>120</gpxtpx:hr></gpxtpx:TrackPointExtension></extensions></trkpt>
      <trkpt lat="43.1293133" lon="76.9655287"><ele>2711.2</ele><time>2026-07-15T16:04:49.500+05:00</time><extensions><gpxtpx:TrackPointExtension><gpxtpx:hr>120</gpxtpx:hr></gpxtpx:TrackPointExtension></extensions></trkpt>
      <trkpt lat="43.1293295" lon="76.9656592"><ele>2710.0</ele><time>2026-07-15T16:04:50.500+05:00</time><extensions><gpxtpx:TrackPointExtension><gpxtpx:hr>120</gpxtpx:hr></gpxtpx:TrackPointExtension></extensions></trkpt>
      <trkpt lat="43.1293457" lon="76.9657897"><ele>2708.8</ele><time>2026-07-15T16:04:51.500+05:00</time><extensions><gpxtpx:TrackPointExtension><gpxtpx:hr>120</gpxtpx:hr></gpxtpx:TrackPointExtension></extensions></trkpt>
      <trkpt lat="43.1293618" lon="76.9659201"><ele>2707.6</ele><time>2026-07-15T16:04:52.500+05:00</time><extensions><gpxtpx:TrackPointExtension><gpxtpx:hr>120</gpxtpx:hr></gpxtpx:TrackPointExtension></extensions></trkpt>
      <trkpt lat="43.1293780" lon="76.9660506"><ele>2706.4</ele><time>2026-07-15T16:04:53.500+05:00</time><extensions><gpxtpx:TrackPointExtension><gpxtpx:hr>120</gpxtpx:hr></gpxtpx:TrackPointExtension></extensions></trkpt>
      <trkpt lat="43.1293942" lon="76.9661811"><ele>2705.2</ele><time>2026-07-15T16:04:54.500+05:00</time><extensions><gpxtpx:TrackPointExtension><gpxtpx:hr>120</gpxtpx:hr></gpxtpx:TrackPointExtension></extensions></trkpt>
      <trkpt lat="43.1294103" lon="76.9663115"><ele>2704.0</ele><time>2026-07-15T16:04:55.500+05:00</time><extensions><gpxtpx:TrackPointExtension><gpxtpx:hr>120</gpxtpx:hr></gpxtpx:TrackPointExtension></extensions></trkpt>
      <trkpt lat="43.1294265" lon="76.9664420"><ele>2702.8</ele><time>2026-07-15T16:04:56.500+05:00</time><extensions><gpxtpx:TrackPointExtension><gpxtpx:hr>120</gpxtpx:hr></gpxtpx:TrackPointExtension></extensions></trkpt>
      <trkpt lat="43.1294427" lon="76.9665725"><ele>2701.6</ele><time>2026-07-15T16:04:57.500+05:00</time><extensions><gpxtpx:TrackPointExtension><gpxtpx:hr>120</gpxtpx:hr></gpxtpx:TrackPointExtension></extensions></trkpt>
      <trkpt lat="43.1294589" lon="76.9667029"><ele>2700.4</ele><time>2026-07-15T16:04:58.500+05:00</time><extensions><gpxtpx:TrackPointExtension><gpxtpx:hr>120</gpxtpx:hr></gpxtpx:TrackPointExtension></extensions></trkpt>
      <trkpt lat="43.1294750" lon="76.9668334"><ele>2699.2</ele><time>2026-07-15T16:04:59.500+05:00</time><extensions><gpxtpx:TrackPointExtension><gpxtpx:hr>120</gpxtpx:hr></gpxtpx:TrackPointExtension></extensions></trkpt>
    </trkseg>
  </trk>
</gpx>
