AXCT Skyline fixture generator
HFDTE150726
HFPLTPILOTINCHARGE:Test Pilot
HFGTYGLIDERTYPE:Ozone Zeno 2
HFGIDGLIDERID:FIXTURE
HFDTM100GPSDATUM:WGS-1984
HFFTYFRTYPE:Skyline,Fixture
B1500004307680N07657300EV0235002398
B1500014307679N07657315EA0235202400
B1500024307674N07657329EA0235402402
B1500034307667N07657340EA0235502403
B1500044307658N07657348EA0235702405
B1500054307648N07657351EA0235902407
B1500064307638N07657350EA0236102409
B1500074307629N07657344EA0236202410
B1500084307622N07657335EA0236402412
B1500094307617N07657323EA0236602414
B1500104307616N07657310EV0236802416
B1500114307618N07657297EA0236902417
B1500124307623N07657285EA0237102419
B1500134307630N07657276EA0237302421
B1500144307640N07657271EA0237502423
B1500154307651N07657270EA0237602424
B1500164307661N07657273EA0237802426
B1500174307671N07657281EA0238002428
B1500184307678N07657292EA0238202430
B1500194307683N07657305EA0238302431
B1500204307685N07657321EV0238502433
B1500214307684N07657336EA0238702435
B1500224307680N07657350EA0238902437
B1500234307672N07657361EA0239002438
B1500244307663N07657368EA0239202440
B1500254307653N07657372EA0239402442
B1500264307643N07657370EA0239602444
B1500274307634N07657365EA0239702445
B1500284307627N07657356EA0239902447
B1500294307623N07657344EA0240102449
B1500304307621N07657331EV0240302451
B1500314307623N07657318EA0240402452
B1500324307628N07657306EA0240602454
B1500334307636N07657297EA0240802456
B1500344307645N07657292EA0241002458
B1500354307656N07657290EA0241102459
B1500364307667N07657294EA0241302461
B1500374307676N07657301EA0241502463
B1500384307684N07657312EA0241702465
B1500394307689N07657326EA0241802466
B1500404307691N07657341EV0242002468
B1500414307689N07657357EA0242202470
B1500424307685N07657370EA0242402472
B1500434307678N07657382EA0242502473
B1500444307669N07657389EA0242702475
B1500454307659N07657392EA0242902477
B1500464307649N07657391EA0243102479
B1500474307640N07657386EA0243202480
B1500484307632N07657377EA0243402482
B1500494307628N07657365EA0243602484
B1500504307627N07657352EV0243802486
B1500514307629N07657339EA0243902487
B1500524307634N07657327EA0244102489
B1500534307641N07657318EA0244302491
B1500544307651N07657312EA0244502493
B1500554307661N07657311EA0244602494
B1500564307672N07657314EA0244802496
B1500574307682N07657322EA0245002498
B1500584307689N07657333EA0245202500
B1500594307694N07657347EA0245302501
B1501004307696N07657362EV0245502503
B1501014307695N07657377EA0245702505
B1501024307690N07657391EA0245902507
B1501034307683N07657402EA0246002508
B1501044307674N07657410EA0246202510
B1501054307664N07657413EA0246402512
B1501064307654N07657412EA0246602514
B1501074307645N07657406EA0246702515
B1501084307638N07657397EA0246902517
B1501094307633N07657385EA0247102519
B1501104307632N07657372EV0247302521
B1501114307634N07657359EA0247402522
B1501124307639N07657348EA0247602524
B1501134307647N07657338EA0247802526
B1501144307656N07657333EA0248002528
B1501154307667N07657332EA0248102529
B1501164307677N07657335EA0248302531
B1501174307687N07657343EA0248502533
B1501184307695N07657354EA0248702535
B1501194307700N07657368EA0248802536
B1501204307702N07657383EV0249002538
B1501214307700N07657398EA0249202540
B1501224307696N07657412EA0249402542
B1501234307689N07657423EA0249502543
B1501244307680N07657430EA0249702545
B1501254307669N07657434EA0249902547
B1501264307659N07657432EA0250102549
B1501274307650N07657427EA0250202550
B1501284307643N07657418EA0250402552
B1501294307639N07657406EA0250602554
B1501304307637N07657393EV0250802556
B1501314307639N07657380EA0250902557
B1501324307644N07657368EA0251102559
B1501334307652N07657359EA0251302561
B1501344307662N07657354EA0251502563
B1501354307672N07657352EA0251602564
B1501364307683N07657356EA0251802566
B1501374307692N07657363EA0252002568
B1501384307700N07657374EA0252202570
B1501394307705N07657388EA0252302571
B1501404307707N07657403EV0252502573
B1501414307706N07657419EA0252702575
B1501424307701N07657432EA0252902577
B1501434307694N07657444EA0253002578
B1501444307685N07657451EA0253202580
B1501454307675N07657454EA0253402582
B1501464307665N07657453EA0253602584
B1501474307656N07657448EA0253702585
B1501484307649N07657439EA0253902587
B1501494307644N07657427EA0254102589
B1501504307643N07657414EV0254302591
B1501514307645N07657401EA0254402592
B1501524307650N07657389EA0254602594
B1501534307657N07657380EA0254802596
B1501544307667N07657374EA0255002598
B1501554307678N07657373EA0255102599
B1501564307688N07657376EA0255302601
B1501574307698N07657384EA0255502603
B1501584307705N07657395EA0255702605
B1501594307710N07657409EA0255802606
B1502004307712N07657424EV0256002608
B1502014307711N07657439EA0256202610
B1502024307706N07657453EA0256402612
B1502034307699N07657464EA0256502613
B1502044307690N07657472EA0256702615
B1502054307680N07657475EA0256902617
B1502064307670N07657474EA0257102619
B1502074307661N07657468EA0257202620
B1502084307654N07657459EA0257402622
B1502094307650N07657448EA0257602624
B1502104307648N07657434EV0257802626
B1502114307650N07657421EA0257902627
B1502124307655N07657410EA0258102629
B1502134307663N07657400EA0258302631
B1502144307672N07657395EA0258502633
B1502154307683N07657394EA0258602634
B1502164307694N07657397EA0258802636
B1502174307703N07657405EA0259002638
B1502184307711N07657416EA0259202640
B1502194307716N07657430EA0259302641
B1502204307718N07657445EV0259502643
B1502214307716N07657460EA0259702645
B1502224307712N07657474EA0259902647
B1502234307705N07657485EA0260002648
B1502244307696N07657492EA0260202650
B1502254307686N07657496EA0260402652
B1502264307676N07657494EA0260602654
B1502274307667N07657489EA0260702655
B1502284307659N07657480EA0260902657
B1502294307655N07657468EA0261102659
B1502304307654N07657455EV0261302661
B1502314307655N07657442EA0261402662
B1502324307661N07657430EA0261602664
B1502334307668N07657421EA0261802666
B1502344307678N07657416EA0262002668
B1502354307688N07657414EA0262102669
B1502364307699N07657418EA0262302671
B1502374307709N07657425EA0262502673
B1502384307716N07657436EA0262702675
B1502394307721N07657450EA0262802676
B1502404307723N07657465EV0263002678
B1502414307722N07657481EA0263202680
B1502424307717N07657494EA0263402682
B1502434307710N07657506EA0263502683
B1502444307701N07657513EA0263702685
B1502454307691N07657516EA0263902687
B1502464307681N07657515EA0264102689
B1502474307672N07657510EA0264202690
B1502484307665N07657501EA0264402692
B1502494307660N07657489EA0264602694
B1502504307659N07657476EV0264802696
B1502514307661N07657463EA0264902697
B1502524307666N07657451EA0265102699
B1502534307674N07657442EA0265302701
B1502544307683N07657436EA0265502703
B1502554307694N07657435EA0265602704
B1502564307704N07657438EA0265802706
B1502574307714N07657446EA0266002708
B1502584307722N07657457EA0266202710
B1502594307727N07657471EA0266302711
B1503004307729N07657486EV0266502713
B1503014307727N07657501EA0266702715
B1503024307723N07657515EA0266902717
B1503034307716N07657526EA0267002718
B1503044307706N07657534EA0267202720
B1503054307696N07657537EA0267402722
B1503064307686N07657536EA0267602724
B1503074307677N07657530EA0267702725
B1503084307670N07657521EA0267902727
B1503094307666N07657510EA0268102729
B1503104307664N07657496EV0268302731
B1503114307666N07657483EA0268402732
B1503124307671N07657472EA0268602734
B1503134307679N07657463EA0268802736
B1503144307689N07657457EA0269002738
B1503154307699N07657456EA0269102739
B1503164307710N07657459EA0269302741
B1503174307719N07657467EA0269502743
B1503184307727N07657478EA0269702745
B1503194307732N07657492EA0269802746
B1503204307734N07657507EV0270002748
B1503214307733N07657522EA0270202750
B1503224307728N07657536EA0270402752
B1503234307721N07657547EA0270502753
B1503244307712N07657554EA0270702755
B1503254307702N07657558EA0270902757
B1503264307692N07657557EA0271102759
B1503274307683N07657551EA0271202760
B1503284307676N07657542EA0271402762
B1503294307671N07657530EA0271602764
B1503304307670N07657517EV0271802766
B1503314307672N07657504EA0271902767
B1503324307677N07657492EA0272102769
B1503334307684N07657483EA0272302771
B1503344307694N07657478EA0272502773
B1503354307705N07657477EA0272602774
B1503364307715N07657480EA0272802776
B1503374307725N07657487EA0273002778
B1503384307732N07657498EA0273202780
B1503394307737N07657512EA0273302781
B1503404307739N07657527EV0273502783
B1503414307738N07657543EA0273702785
B1503424307733N07657556EA0273902787
B1503434307726N07657568EA0274002788
B1503444307717N07657575EA0274202790
B1503454307707N07657578EA0274402792
B1503464307697N07657577EA0274602794
B1503474307688N07657572EA0274702795
B1503484307681N07657563EA0274902797
B1503494307677N07657551EA0275102799
B1503504307675N07657538EV0275302801
B1503514307677N07657525EA0275402802
B1503524307682N07657513EA0275602804
B1503534307690N07657504EA0275802806
B1503544307699N07657498EA0276002808
B1503554307710N07657497EA0276102809
B1503564307721N07657500EA0276302811
B1503574307730N07657508EA0276502813
B1503584307738N07657519EA0276702815
B1503594307743N07657533EA0276802816
B1504004307711N07657548EV0277002818
B1504014307712N07657556EA0276902817
B1504024307713N07657564EA0276802816
B1504034307714N07657572EA0276602814
B1504044307715N07657579EA0276502813
B1504054307716N07657587EA0276402812
B1504064307717N07657595EA0276302811
B1504074307718N07657603EA0276202810
B1504084307719N07657611EA0276002808
B1504094307720N07657619EA0275902807
B1504104307721N07657626EV0275802806
B1504114307722N07657634EA0275702805
B1504124307723N07657642EA0275602804
B1504134307724N07657650EA0275402802
B1504144307725N07657658EA0275302801
B1504154307726N07657666EA0275202800
B1504164307727N07657673EA0275102799
B1504174307728N07657681EA0275002798
B1504184307729N07657689EA0274802796
B1504194307730N07657697EA0274702795
B1504204307731N07657705EV0274602794
B1504214307732N07657713EA0274502793
B1504224307733N07657720EA0274402792
B1504234307734N07657728EA0274202790
B1504244307735N07657736EA0274102789
B1504254307736N07657744EA0274002788
B1504264307736N07657752EA0273902787
B1504274307737N07657760EA0273802786
B1504284307738N07657767EA0273602784
B1504294307739N07657775EA0273502783
B1504304307740N07657783EV0273402782
B1504314307741N07657791EA0273302781
B1504324307742N07657799EA0273202780
B1504334307743N07657806EA0273002778
B1504344307744N07657814EA0272902777
B1504354307745N07657822EA0272802776
B1504364307746N07657830EA0272702775
B1504374307747N07657838EA0272602774
B1504384307748N07657846EA0272402772
B1504394307749N07657853EA0272302771
B1504404307750N07657861EV0272202770
B1504414307751N07657869EA0272102769
B1504424307752N07657877EA0272002768
B1504434307753N07657885EA0271802766
B1504444307754N07657893EA0271702765
B1504454307755N07657900EA0271602764
B1504464307756N07657908EA0271502763
B1504474307757N07657916EA0271402762
B1504484307758N07657924EA0271202760
B1504494307759N07657932EA0271102759
B1504504307760N07657940EV0271002758
B1504514307761N07657947EA0270902757
B1504524307762N07657955EA0270802756
B1504534307763N07657963EA0270602754
B1504544307764N07657971EA0270502753
B1504554307765N07657979EA0270402752
B1504564307766N07657987EA0270302751
B1504574307767N07657994EA0270202750
B1504584307768N07658002EA0270002748
B1504594307769N07658010EA0269902747
B1505004307769N07658018EV0269802746
B1505014307770N07658026EA0269702745
B1505024307771N07658033EA0269602744
B1505034307772N07658041EA0269402742
B1505044307773N07658049EA0269302741
B1505054307774N07658057EA0269202740
B1505064307775N07658065EA0269102739
B1505074307776N07658073EA0269002738
B1505084307777N07658080EA0268802736
B1505094307778N07658088EA0268702735
B1505104307779N07658096EV0268602734
B1505114307780N07658104EA0268502733
B1505124307781N07658112EA0268402732
B1505134307782N07658120EA0268202730
B1505144307783N07658127EA0268102729
B1505154307784N07658135EA0268002728
B1505164307785N07658143EA0267902727
B1505174307786N07658151EA0267802726
B1505184307787N07658159EA0267602724
B1505194307788N07658167EA0267502723
B1505204307789N07658174EV0267402722
B1505214307790N07658182EA0267302721
B1505224307791N07658190EA0267202720
B1505234307792N07658198EA0267002718
B1505244307793N07658206EA0266902717
B1505254307794N07658214EA0266802716
B1505264307795N07658221EA0266702715
B1505274307796N07658229EA0266602714
B1505284307797N07658237EA0266402712
B1505294307798N07658245EA0266302711
B1505304307799N07658253EV0266202710
B1505314307800N07658261EA0266102709
B1505324307801N07658268EA0266002708
B1505334307801N07658276EA0265802706
B1505344307802N07658284EA0265702705
B1505354307803N07658292EA0265602704
B1505364307804N07658300EA0265502703
B1505374307805N07658307EA0265402702
B1505384307806N07658315EA0265202700
B1505394307807N07658323EA0265102699
B1505404307808N07658331EV0265002698
B1505414307809N07658339EA0264902697
B1505424307810N07658347EA0264802696
B1505434307811N07658354EA0264602694
B1505444307812N07658362EA0264502693
B1505454307813N07658370EA0264402692
B1505464307814N07658378EA0264302691
B1505474307815N07658386EA0264202690
B1505484307816N07658394EA0264002688
B1505494307817N07658401EA0263902687
B1505504307818N07658409EV0263802686
B1505514307819N07658417EA0263702685
B1505524307820N07658425EA0263602684
B1505534307821N07658433EA0263402682
B1505544307822N07658441EA0263302681
B1505554307823N07658448EA0263202680
B1505564307824N07658456EA0263102679
B1505574307825N07658464EA0263002678
B1505584307826N07658472EA0262802676
B1505594307827N07658480EA0262702675
B1506004307828N07658488EV0262602674
B1506014307829N07658495EA0262502673
B1506024307830N07658503EA0262402672
B1506034307831N07658511EA0262202670
B1506044307832N07658519EA0262102669
B1506054307833N07658527EA0262002668
B1506064307834N07658534EA0261902667
B1506074307834N07658542EA0261802666
B1506084307835N07658550EA0261602664
B1506094307836N07658558EA0261502663
B1506104307837N07658566EV0261402662
B1506114307838N07658574EA0261302661
B1506124307839N07658581EA0261202660
B1506134307840N07658589EA0261002658
B1506144307841N07658597EA0260902657
B1506154307842N07658605EA0260802656
B1506164307843N07658613EA0260702655
B1506174307844N07658621EA0260602654
B1506184307845N07658628EA0260402652
B1506194307846N07658636EA0260302651
B1506204307847N07658644EV0260202650
B1506214307848N07658652EA0260102649
B1506224307849N07658660EA0260002648
B1506234307850N07658668EA0259802646
B1506244307851N07658675EA0259702645
B1506254307852N07658683EA0259602644
B1506264307853N07658691EA0259502643
B1506274307854N07658699EA0259402642
B1506284307855N07658707EA0259202640
B1506294307856N07658715EA0259102639
B1506304307857N07658722EV0259002638
B1506314307858N07658730EA0258902637
B1506324307859N07658738EA0258802636
B1506334307860N07658746EA0258602634
B1506344307861N07658754EA0258502633
B1506354307862N07658762EA0258402632
B1506364307863N07658769EA0258302631
B1506374307864N07658777EA0258202630
B1506384307865N07658785EA0258002628
B1506394307866N07658793EA0257902627
B1506404307866N07658801EV0257802626
B1506414307867N07658808EA0257702625
B1506424307868N07658816EA0257602624
B1506434307869N07658824EA0257402622
B1506444307870N07658832EA0257302621
B1506454307871N07658840EA0257202620
B1506464307872N07658848EA0257102619
B1506474307873N07658855EA0257002618
B1506484307874N07658863EA0256802616
B1506494307875N07658871EA0256702615
B1506504307876N07658879EV0256602614
B1506514307877N07658887EA0256502613
B1506524307878N07658895EA0256402612
B1506534307879N07658902EA0256202610
B1506544307880N07658910EA0256102609
B1506554307881N07658918EA0256002608
B1506564307882N07658926EA0255902607
B1506574307883N07658934EA0255802606
B1506584307884N07658942EA0255602604
B1506594307885N07658949EA0255502603
B1507004307886N07658957EV0255402602
B1507014307887N07658965EA0255302601
B1507024307888N07658973EA0255202600
B1507034307889N07658981EA0255002598
B1507044307890N07658989EA0254902597
B1507054307891N07658996EA0254802596
B1507064307892N07659004EA0254702595
B1507074307893N07659012EA0254602594
B1507084307894N07659020EA0254402592
B1507094307895N07659028EA0254302591
B1507104307896N07659036EV0254202590
B1507114307897N07659043EA0254102589
B1507124307898N07659051EA0254002588
B1507134307899N07659059EA0253802586
B1507144307899N07659067EA0253702585
B1507154307900N07659075EA0253602584
B1507164307901N07659082EA0253502583
B1507174307902N07659090EA0253402582
B1507184307903N07659098EA0253202580
B1507194307904N07659106EA0253102579
B1507204307905N07659114EV0253002578
B1507214307906N07659122EA0252902577
B1507224307907N07659129EA0252802576
B1507234307908N07659137EA0252602574
B1507244307909N07659145EA0252502573
B1507254307910N07659153EA0252402572
B1507264307911N07659161EA0252302571
B1507274307912N07659169EA0252202570
B1507284307913N07659176EA0252002568
B1507294307914N07659184EA0251902567
B1507304307915N07659192EV0251802566
B1507314307916N07659200EA0251702565
B1507324307917N07659208EA0251602564
B1507334307918N07659216EA0251402562
B1507344307919N07659223EA0251302561
B1507354307920N07659231EA0251202560
B1507364307921N07659239EA0251102559
B1507374307922N07659247EA0251002558
B1507384307923N07659255EA0250802556
B1507394307924N07659263EA0250702555
B1507404307925N07659270EV0250602554
B1507414307926N07659278EA0250502553
B1507424307927N07659286EA0250402552
B1507434307928N07659294EA0250202550
B1507444307929N07659302EA0250102549
B1507454307930N07659309EA0250002548
B1507464307931N07659317EA0249902547
B1507474307931N07659325EA0249802546
B1507484307932N07659333EA0249602544
B1507494307933N07659341EA0249502543
B1507504307934N07659349EV0249402542
B1507514307935N07659356EA0249302541
B1507524307936N07659364EA0249202540
B1507534307937N07659372EA0249002538
B1507544307938N07659380EA0248902537
B1507554307939N07659388EA0248802536
B1507564307940N07659396EA0248702535
B1507574307941N07659403EA0248602534
B1507584307942N07659411EA0248402532
B1507594307943N07659419EA0248302531
LSKY Generated fixture  do not edit by hand
GDEADBEEF00000000000000000000000000000000
